{
  "type": "FeatureCollection",
  "features": [
    {
      "type": "Feature",
      "id": 1854,
      "geometry": {
        "type": "Polygon",
        "coordinates": [
          [
            [-96.720897999747095, 40.857907999773218],
            [-96.720969999717127, 40.857831999746026],
            [-96.720780999571247, 40.857725000033803],
            [-96.720547999942724, 40.857590000169317],
            [-96.720434000139932, 40.857529000245982],
            [-96.719804999777978, 40.857148999781764],
            [-96.719887999618663, 40.857059999928339],
            [-96.720110000274829, 40.856838000177504],
            [-96.720215999681699, 40.856722999827333],
            [-96.720243000344212, 40.856675000177511],
            [-96.720264000260613, 40.85662599967808],
            [-96.720265000085519, 40.856412999720575],
            [-96.720295000222748, 40.85131399989686],
            [-96.720301000070535, 40.850284999774651],
            [-96.720306000093402, 40.849370000136553],
            [-96.720311000116283, 40.84844899990123],
            [-96.720330000382845, 40.844911999911446],
            [-96.720333999682495, 40.844143999663579],
            [-96.72033200003267, 40.844060000275178],
            [-96.720311999941188, 40.843939999896243],
            [-96.720260999887557, 40.843773000145632],
            [-96.720167000176232, 40.843523000237063],
            [-96.719957000113951, 40.843259999761187],
            [-96.719808999975939, 40.84319199990761],
            [-96.719430999684178, 40.843079999996725],
            [-96.719275000048555, 40.843049999988409],
            [-96.719193999857708, 40.843039000321795],
            [-96.719097999598233, 40.843027999973707],
            [-96.718988999818279, 40.843019999966565],
            [-96.716709999993626, 40.843003000287922],
            [-96.715564000321066, 40.842993999936674],
            [-96.714950999852633, 40.842989000269512],
            [-96.713759000149309, 40.842979999916309],
            [-96.713190000061829, 40.842975999909932],
            [-96.712567000445972, 40.842971000241469],
            [-96.712081000199177, 40.842967000234552],
            [-96.712149999796154, 40.841301000158417],
            [-96.712102999940484, 40.836838999792768],
            [-96.71210600031354, 40.836693999906579],
            [-96.71213999975042, 40.833682999792003],
            [-96.712140999575311, 40.833589999791201],
            [-96.712142000298556, 40.833499999753919],
            [-96.712143000123461, 40.8334789997729],
            [-96.712143999948367, 40.833397000074825],
            [-96.712159000016982, 40.829793999942183],
            [-96.712159999841887, 40.829674000245163],
            [-96.712164999864768, 40.829025999896153],
            [-96.712164999864768, 40.828700999848856],
            [-96.712164999864768, 40.828464000002228],
            [-96.712167000412904, 40.828213000247743],
            [-96.712176999560327, 40.82664200000648],
            [-96.712180999758289, 40.825952999891051],
            [-96.712178000283558, 40.825688999797734],
            [-96.712159999841887, 40.825451000136376],
            [-96.712112000161312, 40.825100999922391],
            [-96.712045000214161, 40.824772999863093],
            [-96.712004000206278, 40.824613000339788],
            [-96.711906000296992, 40.824297999852817],
            [-96.711799000166863, 40.824016000232277],
            [-96.711667999747306, 40.82372299993974],
            [-96.71163400031044, 40.823659000251098],
            [-96.711471999928719, 40.82335200033377],
            [-96.711252999645609, 40.823004999808056],
            [-96.71027900040049, 40.821545999688389],
            [-96.71010699997305, 40.821289000329315],
            [-96.709989999797173, 40.821113000016467],
            [-96.709019999851705, 40.819661999854461],
            [-96.708911000071751, 40.819485999983243],
            [-96.708809999789409, 40.819297000080539],
            [-96.708721999925871, 40.819101000166548],
            [-96.70865499997872, 40.818914999920707],
            [-96.708625999666381, 40.818924000141976],
            [-96.708487999574132, 40.818927000215446],
            [-96.708516999886442, 40.819299000118264],
            [-96.708392000212967, 40.819111999726154],
            [-96.707701999751677, 40.818079999912939],
            [-96.707652000421277, 40.818004999796749],
            [-96.70748900021465, 40.817736999848954],
            [-96.707357999795079, 40.817486000285847],
            [-96.70723499977143, 40.817208999828061],
            [-96.707122999618448, 40.816900999914601],
            [-96.707110000097956, 40.816866000019381],
            [-96.707076999587699, 40.816741999814624],
            [-96.707021000409512, 40.816474000203122],
            [-96.706982999876374, 40.816153000095795],
            [-96.706985000424496, 40.815859999741107],
            [-96.70550300029295, 40.815855000067238],
            [-96.704021999986296, 40.815849000322125],
            [-96.702575999839766, 40.815843999967555],
            [-96.701437999664776, 40.815839000292485],
            [-96.701145999586743, 40.815840999754663],
            [-96.700722000162529, 40.815843999967555],
            [-96.69969000029279, 40.815838000221447],
            [-96.698181000397042, 40.815830999723822],
            [-96.696731999877443, 40.815822999834012],
            [-96.695288000279064, 40.815816000014671],
            [-96.693849999630103, 40.815809000194548],
            [-96.693134999952775, 40.815805999980014],
            [-96.692411999879482, 40.815801999693811],
            [-96.690952000387554, 40.815794999872253],
            [-96.68950799989085, 40.815789000121718],
            [-96.688062999569212, 40.815782999690761],
            [-96.686618000145899, 40.815776999939132],
            [-96.68517399964918, 40.815770000114881],
            [-96.683730000050787, 40.815763999682211],
            [-96.682396000057224, 40.815759000001108],
            [-96.682391000034372, 40.816860999741479],
            [-96.682390000209452, 40.817094000054148],
            [-96.68238699983641, 40.817886999922742],
            [-96.682386000011491, 40.818110999700522],
            [-96.682381999813529, 40.819094000013202],
            [-96.682375999965743, 40.820704000185877],
            [-96.682240000421615, 40.820693000210433],
            [-96.680970000002176, 40.820692000212567],
            [-96.680441000097659, 40.820695000206072],
            [-96.680010000102442, 40.820706000181183],
            [-96.678779999865966, 40.820710000171658],
            [-96.678414000168061, 40.820711000169254],
            [-96.676089000312643, 40.820715000159439],
            [-96.674628000097499, 40.820718000151949],
            [-96.674406000339658, 40.820709000174048],
            [-96.674114000261596, 40.820697000201704],
            [-96.672920000010137, 40.820699000197266],
            [-96.672776000070073, 40.820699000197266],
            [-96.67171499988801, 40.820702000190458],
            [-96.671525999742116, 40.820706000181183],
            [-96.670550999773781, 40.820726000131231],
            [-96.670204000342451, 40.820726000131231],
            [-96.670202999619221, 40.82078599994513],
            [-96.670205000167371, 40.821761000191252],
            [-96.670206999817182, 40.822766000065066],
            [-96.670207999642102, 40.823108999956304],
            [-96.670207999642102, 40.823153000283682],
            [-96.670209000365332, 40.823304000304596],
            [-96.670211000015144, 40.823692000055793],
            [-96.670230000281734, 40.823786000295136],
            [-96.6702639997186, 40.823869000272801],
            [-96.670051000181573, 40.824072000001628],
            [-96.669077999863049, 40.82407399989544],
            [-96.668723000035811, 40.824037999758865],
            [-96.667481999928683, 40.823913000095985],
            [-96.66628900040044, 40.823930999860742],
            [-96.666291000050265, 40.824819000317426],
            [-96.666291999875185, 40.825659999998948],
            [-96.664285000037069, 40.825663999690661],
            [-96.663315999916506, 40.825666000216223],
            [-96.663319000289562, 40.827103000246922],
            [-96.663320999939387, 40.828041000184236],
            [-96.662118000365396, 40.828038999730317],
            [-96.660924999938857, 40.828036000068998],
            [-96.659733000235519, 40.828034000294679],
            [-96.65853999980898, 40.828030999953384],
            [-96.657337000234989, 40.828029000178965],
            [-96.656144999633341, 40.828025999837394],
            [-96.656026999632559, 40.828024999950145],
            [-96.655388999948116, 40.827961000334611],
            [-96.654952999930018, 40.827959999766627],
            [-96.653885999900169, 40.827957999990012],
            [-96.653767999899387, 40.827957000101733],
            [-96.653725000241693, 40.827957000101733],
            [-96.653726000066598, 40.828019999833693],
            [-96.653726000066598, 40.828084999958406],
            [-96.653716999845756, 40.829353999991518],
            [-96.653710000173078, 40.830341000295817],
            [-96.653702999602061, 40.831326999664952],
            [-96.653688000431757, 40.833150999692357],
            [-96.653684000233795, 40.833600999666558],
            [-96.653649999898619, 40.834181999695225],
            [-96.653649000073699, 40.834292000103048],
            [-96.653642000401007, 40.835298999937919],
            [-96.653807000257459, 40.83530599974015],
            [-96.653806000432539, 40.835363999723711],
            [-96.656337999977197, 40.835366999733189],
            [-96.656572000328936, 40.835380000225825],
            [-96.65680499995743, 40.835407000299782],
            [-96.657034000286288, 40.835448999713329],
            [-96.657256999869048, 40.835505999797284],
            [-96.657472999779117, 40.835576000286437],
            [-96.657487000022826, 40.835582000286074],
            [-96.657681000191573, 40.835661000004244],
            [-96.657856999918664, 40.835746000292779],
            [-96.658862000024243, 40.836340999940425],
            [-96.658862999849163, 40.837275000014856],
            [-96.658865000397299, 40.838292000117917],
            [-96.658867000047124, 40.839307000135548],
            [-96.658867999872015, 40.840295000131249],
            [-96.658870000420166, 40.841284000038918],
            [-96.658872000069977, 40.842492000077598],
            [-96.658876000267952, 40.842588999852573],
            [-96.658875000443032, 40.843570000248384],
            [-96.658875000443032, 40.844557999899472],
            [-96.658875000443032, 40.84554599977195],
            [-96.658873999719816, 40.846533999865116],
            [-96.658873999719816, 40.848148000144029],
            [-96.658873999719816, 40.848390000234922],
            [-96.655393999970997, 40.850219000118827],
            [-96.654957000127979, 40.85043500029213],
            [-96.653622000309525, 40.851119999924762],
            [-96.653623000134431, 40.851023999945639],
            [-96.652346999867206, 40.851187000259578],
            [-96.651997999887755, 40.851183000069057],
            [-96.651044999660712, 40.851180000095901],
            [-96.650041000278364, 40.85117799966072],
            [-96.649744000177435, 40.851180000095901],
            [-96.648441999970942, 40.851191999987719],
            [-96.648099999664183, 40.851194999960335],
            [-96.647140999589368, 40.85117799966072],
            [-96.646502000079991, 40.851166999984166],
            [-96.645840000106077, 40.851193000205122],
            [-96.645589000035912, 40.85120399987737],
            [-96.645275000216557, 40.851263999972431],
            [-96.644121999972981, 40.851265999725499],
            [-96.641513000435424, 40.85126100000295],
            [-96.640186999939488, 40.851259000249676],
            [-96.639914000128002, 40.851258000033312],
            [-96.635801999644187, 40.851249000123616],
            [-96.63442599981785, 40.851246000153438],
            [-96.63305500001438, 40.851253999847081],
            [-96.630416000339608, 40.851268000158015],
            [-96.627813999576432, 40.851268000158015],
            [-96.624872999777864, 40.851266999941792],
            [-96.624872999777864, 40.851497999891969],
            [-96.624871999952958, 40.851760000081441],
            [-96.624871000128039, 40.852006000032162],
            [-96.624867999754997, 40.852802999706199],
            [-96.624866999930077, 40.852994000295318],
            [-96.624863999557022, 40.853845999898645],
            [-96.624862999732116, 40.853982000094064],
            [-96.62485900043248, 40.854887999816789],
            [-96.62485900043248, 40.85497000010718],
            [-96.624855000234518, 40.855931999944595],
            [-96.624855000234518, 40.855958000333963],
            [-96.624851000036571, 40.856953999778973],
            [-96.624835999967942, 40.857959999670044],
            [-96.624832999594886, 40.858126999676763],
            [-96.624820999899327, 40.858929000275246],
            [-96.624816999701366, 40.859170000298668],
            [-96.624805999830713, 40.859898000293647],
            [-96.624790999762098, 40.860866999724522],
            [-96.624775999693483, 40.861834999869281],
            [-96.624759999799949, 40.862804000175878],
            [-96.624749999754215, 40.86349999998945],
            [-96.624656999867796, 40.864232000030938],
            [-96.62465600004289, 40.864375000093013],
            [-96.624646999822048, 40.864752999839155],
            [-96.624644000347317, 40.864857999725459],
            [-96.624639000324464, 40.865103999952339],
            [-96.624624000255835, 40.865741000211813],
            [-96.624619000232954, 40.86594000014059],
            [-96.624613000385182, 40.866223000081426],
            [-96.624290000344985, 40.866400000192982],
            [-96.623291000087193, 40.866947000080842],
            [-96.621295000119758, 40.868040999888102],
            [-96.621184999616574, 40.868103000282289],
            [-96.621048000247541, 40.868092000019402],
            [-96.620783999758586, 40.868079999792222],
            [-96.620613999879268, 40.868078999829777],
            [-96.620520000167943, 40.868078999829777],
            [-96.620255999678974, 40.868088000170331],
            [-96.619992999913251, 40.868108000092427],
            [-96.61981800001108, 40.868127000046819],
            [-96.619706999682975, 40.868144000072867],
            [-96.61947200040467, 40.868178000111897],
            [-96.619131999747708, 40.868248000057321],
            [-96.618880999677557, 40.8683110002167],
            [-96.61863499963026, 40.868384999852857],
            [-96.618395000329073, 40.868467999695262],
            [-96.618160000152415, 40.868560999665156],
            [-96.618090999657142, 40.868589999716669],
            [-96.617863999876406, 40.868710000286917],
            [-96.61765700018718, 40.868820999720683],
            [-96.617283999918257, 40.869057000015871],
            [-96.615412999624283, 40.87035600011847],
            [-96.614232999616533, 40.87117499997224],
            [-96.614104999570003, 40.871262999965076],
            [-96.614090000399713, 40.871277000122952],
            [-96.61359199955902, 40.871615000125388],
            [-96.612982000361981, 40.871992999981458],
            [-96.612498999589903, 40.872280000141608],
            [-96.611690000201222, 40.87269899996398],
            [-96.611333999650753, 40.872891000133109],
            [-96.61055100020134, 40.873297000319937],
            [-96.609608000020046, 40.873764000025787],
            [-96.609028000061898, 40.874057999765427],
            [-96.60894500022124, 40.874099999815748],
            [-96.606950000078697, 40.875141999681347],
            [-96.606889999804224, 40.875026999867046],
            [-96.606477000250678, 40.875253999733779],
            [-96.605809000428991, 40.8755990001114],
            [-96.6054930000615, 40.875764999945801],
            [-96.605150999754741, 40.875944999893257],
            [-96.604780000033969, 40.876137999998832],
            [-96.604518999918056, 40.876273000093725],
            [-96.604445000298227, 40.876311999903798],
            [-96.604424000381826, 40.876323000159601],
            [-96.602948999922972, 40.877089999779344],
            [-96.602891000196635, 40.877120999822395],
            [-96.603025000090952, 40.877200000282883],
            [-96.603329999689464, 40.877521000281249],
            [-96.603399000184751, 40.877593000175061],
            [-96.603478999652381, 40.877653000139972],
            [-96.603584000132685, 40.877709999920427],
            [-96.603733000095588, 40.877750999875119],
            [-96.603914999670479, 40.877776999849807],
            [-96.60429600033531, 40.877799999688307],
            [-96.604763000315529, 40.877802999814293],
            [-96.604945999715326, 40.877812000191511],
            [-96.60508299998267, 40.87782899976856],
            [-96.605181999716862, 40.877854999712611],
            [-96.605297000242913, 40.877901000006602],
            [-96.605409000395895, 40.877967999742722],
            [-96.605492000236595, 40.87805300010104],
            [-96.605539999917156, 40.878122999794776],
            [-96.605574000252361, 40.878210000252167],
            [-96.605595999993668, 40.878335000084633],
            [-96.605581999749958, 40.878493000051272],
            [-96.605457000076484, 40.879948999867558],
            [-96.605430000312296, 40.88073400022391],
            [-96.605404000373042, 40.881953999980105],
            [-96.605399000350161, 40.882194999751057],
            [-96.605400000175081, 40.882803000022264],
            [-96.605364000190065, 40.884654000304707],
            [-96.605355999794128, 40.88503899971888],
            [-96.605354000144317, 40.885144000034735],
            [-96.605345999748394, 40.88557100023688],
            [-96.605314999786259, 40.887766999959133],
            [-96.605263999732642, 40.888260999718142],
            [-96.60512999983834, 40.888571000147145],
            [-96.604796999752409, 40.888997000321659],
            [-96.604256000152333, 40.889580000135858],
            [-96.60393200028723, 40.890007999867812],
            [-96.603841999875527, 40.890216999876507],
            [-96.603779999951271, 40.890487999707318],
            [-96.603749999814042, 40.89092599992636],
            [-96.603789999997005, 40.891199999767494],
            [-96.603902999974906, 40.891518000272072],
            [-96.604042999716981, 40.891770999857279],
            [-96.604294999612065, 40.892049000033289],
            [-96.604319999726428, 40.89208900033379],
            [-96.604348000213832, 40.892144000028416],
            [-96.604447999772944, 40.892302000304326],
            [-96.604564999948792, 40.892455000194715],
            [-96.604602999583648, 40.892498999982308],
            [-96.604970000004755, 40.892956000089285],
            [-96.60514599973186, 40.893251999991257],
            [-96.605228999572546, 40.893462999775913],
            [-96.605277999976352, 40.89367999973755],
            [-96.605309999763378, 40.894008999899008],
            [-96.60533200040301, 40.89488700018439],
            [-96.605360999817009, 40.896808000240135],
            [-96.605366999664795, 40.897126999795518],
            [-96.605510999604846, 40.897129999724427],
            [-96.610170000434834, 40.897142000117768],
            [-96.61501000011647, 40.897153999829897],
            [-96.624492000011358, 40.897072000169253],
            [-96.634031999632569, 40.897053999898866],
            [-96.635273999564603, 40.897052000170362],
            [-96.639381000025537, 40.8970450001014],
            [-96.643429000036932, 40.897036999827712],
            [-96.643577000174929, 40.897036999827712],
            [-96.643968999812117, 40.89703600030267],
            [-96.64487500018349, 40.897033999894532],
            [-96.650033999707347, 40.897020999956389],
            [-96.65016900032488, 40.897020999956389],
            [-96.650228999701028, 40.897019999752132],
            [-96.662795000407925, 40.89698900020219],
            [-96.663170000326645, 40.896940000336372],
            [-96.663707999553665, 40.896868999967559],
            [-96.664721000055167, 40.896693000044493],
            [-96.665521000121331, 40.896481000163597],
            [-96.666515000356256, 40.896143999691205],
            [-96.6671589998885, 40.895868999732286],
            [-96.667903999703086, 40.895488999957266],
            [-96.668257999705403, 40.895283000317633],
            [-96.669897000195803, 40.894281000062264],
            [-96.670970000073424, 40.89359299992293],
            [-96.671570000123054, 40.89320800002541],
            [-96.672634999604767, 40.892524000002929],
            [-96.676830999754188, 40.88983099971464],
            [-96.678635000101011, 40.888672000328143],
            [-96.679191999594607, 40.888313999885668],
            [-96.679446999862748, 40.888150000280476],
            [-96.681982999605353, 40.886521999813496],
            [-96.681975999932661, 40.88636800010029],
            [-96.681966999711832, 40.886216999773332],
            [-96.681929000076991, 40.885546000305773],
            [-96.681851000259186, 40.884170999736746],
            [-96.681826999969743, 40.883679000140603],
            [-96.681825000319932, 40.883567000080333],
            [-96.681811000076223, 40.882894000074927],
            [-96.681811999901143, 40.882789000264268],
            [-96.681823999596688, 40.881490000277687],
            [-96.681826000144824, 40.881286000046558],
            [-96.681827999794649, 40.880973999915128],
            [-96.681842999863278, 40.878812000291894],
            [-96.681857000106973, 40.876553999674918],
            [-96.681869999627452, 40.874648999672438],
            [-96.681889999718919, 40.871577000175044],
            [-96.681899999764681, 40.869924999841267],
            [-96.681919999856163, 40.865662999663499],
            [-96.681934000099872, 40.864318999720652],
            [-96.681945999795445, 40.862360999755289],
            [-96.681956999666099, 40.860689999771871],
            [-96.681966999711832, 40.859103999981905],
            [-96.681963000412196, 40.857887000051548],
            [-96.681965000062007, 40.857127999819483],
            [-96.681980999955528, 40.8571150001954],
            [-96.681982999605353, 40.857005000295068],
            [-96.682128000268619, 40.857005999745226],
            [-96.683415000406512, 40.857032999842318],
            [-96.683961000029456, 40.85704399990383],
            [-96.684258000130384, 40.857049999998424],
            [-96.685788999767411, 40.857082000040641],
            [-96.685835999623094, 40.857078000206087],
            [-96.685934000430692, 40.857084999746554],
            [-96.690271999971998, 40.857174999693484],
            [-96.690302000109213, 40.857174999693484],
            [-96.691050000296855, 40.857190000238958],
            [-96.691527000322822, 40.857200000147742],
            [-96.693201999899912, 40.857235999942759],
            [-96.695089999912327, 40.857273999969422],
            [-96.696916999825376, 40.857311999974286],
            [-96.700794999957466, 40.857393999982065],
            [-96.700866000102565, 40.85739500010579],
            [-96.70085400040702, 40.857413000292503],
            [-96.700844000361272, 40.857430999794879],
            [-96.70083500014043, 40.857450000094708],
            [-96.700830999942468, 40.857462000209793],
            [-96.700826999744521, 40.85747999969886],
            [-96.700825000094696, 40.857494000052995],
            [-96.700824000269776, 40.857503999915892],
            [-96.700824000269776, 40.85751600002115],
            [-96.700824000269776, 40.857525999880728],
            [-96.700825000094696, 40.857535999738801],
            [-96.700826999744521, 40.857546999716838],
            [-96.700829000292657, 40.857557999693057],
            [-96.700831999767388, 40.8575689996674],
            [-96.700835999965349, 40.857580000319395],
            [-96.700840000163311, 40.857589000048492],
            [-96.700845000186177, 40.85759899989705],
            [-96.700850000209059, 40.857608999744102],
            [-96.700856000056831, 40.857619000269075],
            [-96.700861999904618, 40.857626999872664],
            [-96.700867999752404, 40.857635000154715],
            [-96.700875000323407, 40.857643999876323],
            [-96.70088399964591, 40.857653000276208],
            [-96.700892999866753, 40.857661999995379],
            [-96.700902999912486, 40.85767099971337],
            [-96.700913999783154, 40.857680000109539],
            [-96.700926000377052, 40.857688999825044],
            [-96.700939999722436, 40.857697000099606],
            [-96.700948999943265, 40.857703000135047],
            [-96.700964999836771, 40.857710999728482],
            [-96.7009799999054, 40.857717999881508],
            [-96.700993000324203, 40.857722999796245],
            [-96.701004000194828, 40.857727000271289],
            [-96.701016999715321, 40.857732000185344],
            [-96.701030999959016, 40.857735999980456],
            [-96.701044000377806, 40.857739000336146],
            [-96.701056999898285, 40.857742000012323],
            [-96.701072999791805, 40.857744000249298],
            [-96.701072999791805, 40.857792999921742],
            [-96.701073999616725, 40.86107299982995],
            [-96.701073999616725, 40.862667999748524],
            [-96.701073999616725, 40.864602999809925],
            [-96.701073999616725, 40.864689999691635],
            [-96.701086000210594, 40.868200999888593],
            [-96.701091000233475, 40.869621000020075],
            [-96.701092999883301, 40.870277000321799],
            [-96.701093999708206, 40.870421000164264],
            [-96.701095000431437, 40.870714999804321],
            [-96.701307000143544, 40.870603000224769],
            [-96.708459000160119, 40.866824999749689],
            [-96.709091999821709, 40.86649099969776],
            [-96.709918999652061, 40.866054000120585],
            [-96.709937000093731, 40.866046000176091],
            [-96.710054000269579, 40.865982999899892],
            [-96.710665000189863, 40.865649999676421],
            [-96.711232999554127, 40.865331999876865],
            [-96.711524999632175, 40.865167999712433],
            [-96.712313000002766, 40.864707999934005],
            [-96.712999000266109, 40.864293999915226],
            [-96.713189000236909, 40.864179000281069],
            [-96.713892000218706, 40.863734000169714],
            [-96.714560999865299, 40.86329099985533],
            [-96.715217999816332, 40.862838000239059],
            [-96.715902000429864, 40.86234400028281],
            [-96.715991999943228, 40.862274000210974],
            [-96.716085999654567, 40.862207000218518],
            [-96.716295999716834, 40.862049000109948],
            [-96.716956000040909, 40.861538000024517],
            [-96.717581000204888, 40.861030999669183],
            [-96.718175000406745, 40.860526999738738],
            [-96.718611000424829, 40.860141999755989],
            [-96.718746999968971, 40.860020999881534],
            [-96.719018999955523, 40.859773000301651],
            [-96.719193000032789, 40.859608999959811],
            [-96.719588999867909, 40.859235999870201],
            [-96.720145000434925, 40.858689000158662],
            [-96.720685000210096, 40.858133999785878],
            [-96.720897999747095, 40.857907999773218]
          ]
        ]
      },
      "properties": {
        "AREALAND": "48104071",
        "AREAWATER": "900339",
        "BASENAME": "46",
        "CENTLAT": "+40.8602681",
        "CENTLON": "-096.6646223",
        "FUNCSTAT": "N",
        "GEOID": "31046",
        "HU100": null,
        "INTPTLAT": "+40.8649200",
        "INTPTLON": "-096.6683175",
        "LDTYP": "O",
        "LSADC": "LU",
        "LSY": "2024",
        "MTFCC": "G5210",
        "NAME": "State Senate District 46",
        "OBJECTID": 1854,
        "OID": "2129035951822168",
        "POP100": null,
        "SLDU": "046",
        "STATE": "31"
      }
    }
  ]
}
