{
  "type": "FeatureCollection",
  "features": [
    {
      "type": "Feature",
      "id": 10,
      "geometry": {
        "type": "Polygon",
        "coordinates": [
          [
            [-84.565632000436949, 38.045916000286496],
            [-84.565727999798085, 38.045739999946917],
            [-84.565469000230308, 38.045761999924096],
            [-84.565119000425952, 38.045792000332469],
            [-84.561164000300963, 38.046117000313572],
            [-84.559994000338946, 38.046195999729704],
            [-84.558922000286231, 38.046283000152201],
            [-84.557246999810815, 38.046415999955826],
            [-84.5559560003733, 38.046521000039718],
            [-84.554245999737788, 38.046659000244382],
            [-84.554248000285938, 38.04659799981691],
            [-84.554249999935763, 38.046547999915688],
            [-84.554265999829283, 38.046141999708169],
            [-84.553527999687404, 38.046108999911226],
            [-84.553548999603805, 38.045648000099419],
            [-84.554177000140825, 38.045664999910805],
            [-84.554218999973614, 38.045187000214732],
            [-84.552607000145727, 38.044808999678011],
            [-84.552731999819187, 38.041961000064674],
            [-84.55296299979787, 38.041961000064674],
            [-84.553151000118831, 38.041236000347759],
            [-84.55296299979787, 38.041169999854084],
            [-84.553156000141712, 38.040646999959627],
            [-84.553230999586475, 38.040662999834581],
            [-84.553820999590357, 38.038882000206279],
            [-84.553761000214223, 38.037703999983385],
            [-84.553183999730805, 38.035469999740734],
            [-84.553874000192124, 38.035176999936041],
            [-84.55363800019056, 38.034374999751947],
            [-84.55354399958091, 38.034041999707703],
            [-84.553534000433501, 38.033938999674305],
            [-84.553540000281274, 38.033814999957151],
            [-84.553571000243409, 38.033655000240195],
            [-84.553668000327789, 38.033438999714107],
            [-84.553891999735455, 38.033517000292008],
            [-84.554188999836398, 38.03360299972622],
            [-84.55425499995863, 38.03362199976862],
            [-84.553940000314356, 38.032402999762589],
            [-84.554864000229074, 38.030429999929332],
            [-84.554341999997263, 38.030265000064489],
            [-84.554368999761436, 38.030216000157395],
            [-84.554526000120276, 38.029889999825777],
            [-84.555905000319669, 38.027141999773491],
            [-84.55600200040405, 38.0269369998407],
            [-84.556034000191104, 38.026877999708901],
            [-84.556075000198987, 38.026816999786483],
            [-84.556195999674486, 38.026686000222327],
            [-84.556508999668935, 38.026432000113736],
            [-84.557147000251703, 38.025882999887578],
            [-84.557794999981908, 38.025340999743278],
            [-84.557917000180638, 38.025429999955954],
            [-84.559406999809809, 38.026535000088387],
            [-84.559837999805026, 38.026880000157874],
            [-84.559889999683548, 38.026924000115578],
            [-84.559994000338946, 38.02677699996061],
            [-84.560112000339728, 38.026871999776766],
            [-84.560166999692996, 38.02691599973928],
            [-84.560443999702414, 38.026771000020261],
            [-84.562910000023166, 38.022281999743527],
            [-84.562744000341809, 38.022201000137429],
            [-84.562539000302408, 38.022086999727627],
            [-84.562176999904139, 38.021832999952196],
            [-84.562109999956988, 38.021773000015976],
            [-84.562088000215695, 38.021752999790422],
            [-84.561853999863956, 38.021495999732487],
            [-84.561746999733828, 38.021376999912526],
            [-84.561642999976769, 38.021252000214723],
            [-84.561466000424758, 38.020993999864082],
            [-84.561288999974437, 38.020643999900379],
            [-84.561109999874304, 38.020273999758842],
            [-84.56098500020083, 38.020044999879154],
            [-84.560898999987117, 38.019902999906392],
            [-84.560760999894825, 38.01973699971898],
            [-84.560544999984771, 38.019512000169293],
            [-84.560416999938241, 38.019407000284545],
            [-84.560114999814459, 38.019157000324199],
            [-84.560235000363363, 38.019068000276796],
            [-84.560489999733178, 38.018861999712797],
            [-84.560641000244246, 38.018729000116316],
            [-84.560785000184282, 38.018563000100457],
            [-84.560861000352261, 38.018466000155833],
            [-84.560920999728395, 38.018375999990305],
            [-84.561016999987871, 38.018207999904511],
            [-84.561039999554083, 38.018154999759631],
            [-84.561094999805675, 38.018029000236105],
            [-84.561124000117999, 38.017947000182687],
            [-84.561145000034386, 38.017865000037503],
            [-84.561175999996536, 38.017769999866772],
            [-84.561203999585615, 38.017577999868443],
            [-84.561212999806457, 38.017475000041671],
            [-84.561206999958671, 38.017278999971552],
            [-84.561191000065151, 38.017183999748951],
            [-84.561167999600599, 38.017046999918804],
            [-84.561118000270213, 38.016868000245637],
            [-84.561112000422426, 38.016847000089285],
            [-84.561032000056485, 38.01664199966217],
            [-84.560987999675547, 38.016547000029348],
            [-84.560832999864857, 38.016312999752934],
            [-84.560602999711094, 38.016052999670485],
            [-84.560448999725295, 38.015910999747781],
            [-84.560243999685895, 38.015754999944185],
            [-84.560163000393345, 38.015703000171754],
            [-84.560098999920939, 38.015662999940631],
            [-84.560047000042402, 38.01563299992992],
            [-84.559975999897276, 38.015593999685279],
            [-84.559688999842095, 38.015463999899566],
            [-84.559513000115004, 38.015404999730158],
            [-84.559293999831908, 38.01534500019293],
            [-84.559098999838213, 38.015301999680524],
            [-84.558947000400579, 38.015276000345956],
            [-84.558779000171086, 38.01525499973345],
            [-84.55850999965925, 38.015237999940908],
            [-84.558203000410913, 38.015261999938247],
            [-84.557964999861227, 38.015291000072068],
            [-84.557783000286349, 38.015331999826728],
            [-84.557605000011122, 38.015379999752042],
            [-84.557430000108923, 38.015431999753574],
            [-84.557065000235951, 38.015568999771631],
            [-84.555977000289701, 38.0144910002521],
            [-84.555151000284255, 38.013654999776726],
            [-84.554997000298485, 38.013505999790553],
            [-84.554737000007478, 38.013422000230143],
            [-84.55459999974012, 38.013506999843713],
            [-84.553568999695273, 38.0141479999754],
            [-84.552151999861067, 38.015002999698986],
            [-84.551301999566178, 38.01553100022624],
            [-84.551212000052814, 38.015586000195093],
            [-84.551126999663992, 38.0156390000746],
            [-84.550191000053701, 38.016197000058753],
            [-84.549048999680792, 38.016902999785167],
            [-84.548637999777029, 38.017140000311834],
            [-84.547359000035073, 38.016139999806214],
            [-84.54643500012034, 38.015415000002143],
            [-84.545511000205636, 38.016272999854728],
            [-84.545219999952494, 38.016047000267434],
            [-84.545055000096042, 38.015929000112038],
            [-84.544921000201754, 38.015843999768485],
            [-84.544777000261718, 38.015764000146042],
            [-84.544619999902878, 38.015686999798866],
            [-84.544453000396601, 38.015615000200711],
            [-84.544142999876883, 38.015505000265151],
            [-84.543961000302019, 38.015452000288803],
            [-84.543761000285485, 38.015405999757419],
            [-84.543520000261054, 38.015355999793293],
            [-84.543048000257954, 38.015266000055007],
            [-84.542844999868365, 38.01521399993571],
            [-84.542729000415719, 38.015176000206218],
            [-84.542601000369203, 38.015126000085239],
            [-84.542507999584473, 38.015082000120387],
            [-84.542399999629438, 38.015022000318737],
            [-84.542286999651523, 38.014946999966845],
            [-84.5418489999836, 38.014679999733112],
            [-84.541108000366989, 38.015957999981936],
            [-84.539408999602145, 38.015326999685243],
            [-84.539331999609246, 38.015299000302143],
            [-84.537570999818442, 38.014650000027743],
            [-84.537401999764043, 38.014583000311241],
            [-84.537308999877609, 38.014541000098561],
            [-84.537210999968337, 38.014487000093048],
            [-84.537094999617381, 38.014426999804343],
            [-84.535835999966906, 38.013991999958186],
            [-84.535337000199618, 38.013818000146166],
            [-84.534998000265901, 38.01367500008903],
            [-84.534849000302984, 38.013601999878119],
            [-84.534707000012773, 38.013519999825903],
            [-84.534583000164204, 38.013434000173199],
            [-84.534492999752516, 38.013346999656541],
            [-84.534419999957592, 38.013263999970356],
            [-84.534364999706, 38.013190000000357],
            [-84.534322000048306, 38.013108000195004],
            [-84.534289000436345, 38.013026999649931],
            [-84.534259000299116, 38.012929000102766],
            [-84.534116000183971, 38.012383000126178],
            [-84.53403699964295, 38.012059999939133],
            [-84.5339849997644, 38.011892000238916],
            [-84.533889000403249, 38.011663999726622],
            [-84.533736000242385, 38.011416999786917],
            [-84.533674000318101, 38.011338999744829],
            [-84.533631999586987, 38.0112920000877],
            [-84.533605999647719, 38.01126299978727],
            [-84.533583999906426, 38.011242000148307],
            [-84.534089000419797, 38.010929000064287],
            [-84.532465999822918, 38.009544999934427],
            [-84.531489000204758, 38.00882700012793],
            [-84.529033999754688, 38.007736000251981],
            [-84.529149000280711, 38.007518000195809],
            [-84.528201999901469, 38.007180999979539],
            [-84.527909999823422, 38.007791999830559],
            [-84.527146999567194, 38.009394999978262],
            [-84.527081000343244, 38.009381999972334],
            [-84.527035000312495, 38.009500000050586],
            [-84.526872999930788, 38.00957300009987],
            [-84.52665700002072, 38.009498999942743],
            [-84.526699999678428, 38.009290999866245],
            [-84.525738999953788, 38.009017000171404],
            [-84.525776999588629, 38.008756000279547],
            [-84.5258100000989, 38.008526999801674],
            [-84.52590100033548, 38.007512000094195],
            [-84.525959000061818, 38.006760999658894],
            [-84.526026999833874, 38.005778999854343],
            [-84.526148000207698, 38.004246999959051],
            [-84.526185999842539, 38.003723000303275],
            [-84.526323999934803, 38.001849000351321],
            [-84.526405999950555, 38.000719999846474],
            [-84.526466000225014, 37.999902000239828],
            [-84.526563000309395, 37.998717000103447],
            [-84.526578000378009, 37.998591999988193],
            [-84.52662799970841, 37.998175000101533],
            [-84.526652999822758, 37.998025999801385],
            [-84.526666000241562, 37.997945000290315],
            [-84.526678999762041, 37.997865000248474],
            [-84.526204000284196, 37.997714000197128],
            [-84.521813999966028, 37.996329000220705],
            [-84.521740000346185, 37.996304999688512],
            [-84.521670999850912, 37.996284000012821],
            [-84.517023999614779, 37.99481799980132],
            [-84.515985000072348, 37.99448999995748],
            [-84.513661999866741, 37.993759000035951],
            [-84.508864000017894, 37.992247000135208],
            [-84.5085979998791, 37.992163000288862],
            [-84.50790300029324, 37.991944000312962],
            [-84.507485999643407, 37.991813000011646],
            [-84.506806999951081, 37.991599000042982],
            [-84.506560000078878, 37.991527999796354],
            [-84.506408999567824, 37.991485000181967],
            [-84.506294999765004, 37.991451999835121],
            [-84.505858999746906, 37.991339000101206],
            [-84.505750999791871, 37.991311999700457],
            [-84.505519999813203, 37.991252999917641],
            [-84.504964000144511, 37.991131000192254],
            [-84.504714999724143, 37.991076000284558],
            [-84.504184000169815, 37.99097599970306],
            [-84.50371499964146, 37.990895999847666],
            [-84.503642999671428, 37.990883999755646],
            [-84.503543999937222, 37.990868999991847],
            [-84.502968000177049, 37.990787000001667],
            [-84.502300000355348, 37.990708999960503],
            [-84.501736000290748, 37.990659999801402],
            [-84.501065000096006, 37.990618000043618],
            [-84.500865000079472, 37.990609000294647],
            [-84.500751000276665, 37.990603999883007],
            [-84.500521000122887, 37.990593000108937],
            [-84.500101999823229, 37.990583999648912],
            [-84.499552000002325, 37.990582999991062],
            [-84.499135000250803, 37.990589000061917],
            [-84.498471999553672, 37.99061199997508],
            [-84.498058000175206, 37.990634999881031],
            [-84.496699999892201, 37.990741000277851],
            [-84.495305999624208, 37.990844999797005],
            [-84.49494999997205, 37.99087199966165],
            [-84.494852999887684, 37.990879000070727],
            [-84.494755999803303, 37.990887000132815],
            [-84.489772000181603, 37.991272999969347],
            [-84.48913799979681, 37.991323000074701],
            [-84.485073999891881, 37.99163600031379],
            [-84.481872999802306, 37.991883999982399],
            [-84.481800000007368, 37.991315999707993],
            [-84.481794000159596, 37.991244000246581],
            [-84.481789999961634, 37.991046000124392],
            [-84.481800999832288, 37.990926999722348],
            [-84.481815999900903, 37.990823000319459],
            [-84.481842999665076, 37.990715000021055],
            [-84.481893999718707, 37.990578999943551],
            [-84.481938999924552, 37.990468999967078],
            [-84.482410999927652, 37.989648999965425],
            [-84.481692999877254, 37.989387000136027],
            [-84.481629000303158, 37.989363000164282],
            [-84.481143000056335, 37.98918499983413],
            [-84.480872999719608, 37.98908100008564],
            [-84.478895000193816, 37.988354000238665],
            [-84.47778600033115, 37.987947999666666],
            [-84.476735000194836, 37.987566000247313],
            [-84.4756620003172, 37.987168000030323],
            [-84.475745999982792, 37.987035000284173],
            [-84.476144000366048, 37.986350999804174],
            [-84.476186000198837, 37.986247000286475],
            [-84.476218999810797, 37.986134000323489],
            [-84.476237000252468, 37.986006999856606],
            [-84.476243000100254, 37.98586900010352],
            [-84.476223000008758, 37.985729999658936],
            [-84.476192999871529, 37.985595999704337],
            [-84.476155000236702, 37.985501999928289],
            [-84.476105000007976, 37.985397999915229],
            [-84.476044999733531, 37.985303000155682],
            [-84.475983999634153, 37.985224000217308],
            [-84.475972999763499, 37.985209999735403],
            [-84.475865999633371, 37.985100999937771],
            [-84.475320999835347, 37.984650999955562],
            [-84.474777999687134, 37.984175000303296],
            [-84.474690999648487, 37.984108000352769],
            [-84.474586999891429, 37.984039999885972],
            [-84.474514999921396, 37.983999000334158],
            [-84.474331999623288, 37.983915000248366],
            [-84.474208999599639, 37.983868999756034],
            [-84.474087000299221, 37.983830000316502],
            [-84.473934000138343, 37.983791000148244],
            [-84.473744999992448, 37.983765000260554],
            [-84.473618999595757, 37.983757000129856],
            [-84.473267000141576, 37.983717000171346],
            [-84.473104999759869, 37.983686000082336],
            [-84.473053999706238, 37.98376999972227],
            [-84.472758000328554, 37.983681999658792],
            [-84.472421000044648, 37.983580999866177],
            [-84.472092000156678, 37.983545999996757],
            [-84.47013100034934, 37.983683999870586],
            [-84.469240999871474, 37.98384599985306],
            [-84.468497999706727, 37.983569999747189],
            [-84.465609999611615, 37.985692999949542],
            [-84.465525999946024, 37.98575600026637],
            [-84.464776000108557, 37.98556199981428],
            [-84.4647429995983, 37.98569099979251],
            [-84.464740999948461, 37.985795000098292],
            [-84.463615000367383, 37.985828000157674],
            [-84.463438999741967, 37.986235000142031],
            [-84.463379000365833, 37.986374000337953],
            [-84.463206000113459, 37.986212999990116],
            [-84.462653999744404, 37.985853000300104],
            [-84.462586999797253, 37.985449000212348],
            [-84.462540999766503, 37.985452999831587],
            [-84.462491000436103, 37.98542699982476],
            [-84.462446000230273, 37.98535000018623],
            [-84.462442000032325, 37.985311999847561],
            [-84.462339000100158, 37.985193000056931],
            [-84.462339999925049, 37.985153999905073],
            [-84.462303999940033, 37.985122999715081],
            [-84.462283999848566, 37.985076999980052],
            [-84.462252999886431, 37.984959000250832],
            [-84.462204000380936, 37.984885999771357],
            [-84.462190999962132, 37.984793999975317],
            [-84.462124999839915, 37.984699000141788],
            [-84.462097000250807, 37.984632999700622],
            [-84.462038999626188, 37.98456399998048],
            [-84.461951999587541, 37.984419999770672],
            [-84.461894999686123, 37.984325999904144],
            [-84.461861000249257, 37.984247000329908],
            [-84.461778000408586, 37.984150000297184],
            [-84.461738000225623, 37.984067000130906],
            [-84.461626999897533, 37.983915000248366],
            [-84.461592999562342, 37.983861000344731],
            [-84.461523000140474, 37.983746999788266],
            [-84.461432999728771, 37.983637999941436],
            [-84.461261000199642, 37.983378999863945],
            [-84.461185999856568, 37.983293000262059],
            [-84.461168000313222, 37.983264000217119],
            [-84.461029000396053, 37.983092999694925],
            [-84.460687000089294, 37.983752999710184],
            [-84.459640000150912, 37.985739000006419],
            [-84.459123999766874, 37.98672000010999],
            [-84.459108999698273, 37.986747000076733],
            [-84.459098999652525, 37.986766999940812],
            [-84.459070000238526, 37.986822000247017],
            [-84.458547000181795, 37.98781600032202],
            [-84.458224000141598, 37.988388000250872],
            [-84.457926000215778, 37.988868000324473],
            [-84.457636999612461, 37.989300000112728],
            [-84.457471999756009, 37.989528000076703],
            [-84.456967000140935, 37.990199000097981],
            [-84.456853000338128, 37.990333000141533],
            [-84.456804999759228, 37.990385000208697],
            [-84.456757999903587, 37.990435999871238],
            [-84.456260999786124, 37.99099900020282],
            [-84.456049999898909, 37.991226000193215],
            [-84.455353999589832, 37.991901999874358],
            [-84.454889000157735, 37.992317999685945],
            [-84.454351000032389, 37.992764999776099],
            [-84.45429300030608, 37.992810999646665],
            [-84.454110000007972, 37.992954999670545],
            [-84.453823999777697, 37.993172000214749],
            [-84.453073000115339, 37.993707999851914],
            [-84.452801000128787, 37.993907999801479],
            [-84.451320999647038, 37.9949449998822],
            [-84.450850000367183, 37.995289999989687],
            [-84.450709999726755, 37.99539799992376],
            [-84.45043199989243, 37.995645000027345],
            [-84.450308999868767, 37.995763999854859],
            [-84.450094999608524, 37.995985000337079],
            [-84.449999000247374, 37.996099999866509],
            [-84.44989399976707, 37.996224999981528],
            [-84.449702000146459, 37.99648099986937],
            [-84.449518000023431, 37.996770999946001],
            [-84.44938900015201, 37.996984999691996],
            [-84.449298999740321, 37.99716899974181],
            [-84.449230000143345, 37.997294999725113],
            [-84.448440000122929, 37.998834999648665],
            [-84.448244000304356, 37.999176999825586],
            [-84.447999000081964, 37.999506000190053],
            [-84.447821999631643, 37.999722000224857],
            [-84.447551000368307, 37.9999839999507],
            [-84.447272999635643, 38.000213999738278],
            [-84.447014999892787, 38.000399999937656],
            [-84.44680300018068, 38.000539999715649],
            [-84.446069000236747, 38.000997000073426],
            [-84.445925000296711, 38.001078999975725],
            [-84.445870999870039, 38.001112999752905],
            [-84.44581200031881, 38.001150999693408],
            [-84.445669000203665, 38.001233000131343],
            [-84.444780000449057, 38.001778000116381],
            [-84.444462000431727, 38.001978000004137],
            [-84.444259000042152, 38.002114999683243],
            [-84.444048000154964, 38.002250000108667],
            [-84.443499000158951, 38.002618000226477],
            [-84.443318000408979, 38.00274599974221],
            [-84.44291300035303, 38.003042999776397],
            [-84.442518000342815, 38.003341000215158],
            [-84.442376000052604, 38.003450999999828],
            [-84.442134000203268, 38.003642000006117],
            [-84.441539000176505, 38.004097999962433],
            [-84.441012999746718, 38.004480000353901],
            [-84.440843999692333, 38.004596000186346],
            [-84.440068999740518, 38.005126000271197],
            [-84.43920799957499, 38.005714000134802],
            [-84.439006999733536, 38.005835999669884],
            [-84.438754999838451, 38.005979000154582],
            [-84.438565999692557, 38.006071000279327],
            [-84.438316000345637, 38.006185000119928],
            [-84.438044000359056, 38.006284000340585],
            [-84.437859000411137, 38.006352000007183],
            [-84.437563999960034, 38.006434999733408],
            [-84.437471000073629, 38.006461000080272],
            [-84.43729899964616, 38.006499000080666],
            [-84.437006999568112, 38.006554999896252],
            [-84.436739999604441, 38.006595000142859],
            [-84.436062999561912, 38.006679999886565],
            [-84.436111000140812, 38.006972999696792],
            [-84.43616700021731, 38.007270999735219],
            [-84.436322000027999, 38.008177999882854],
            [-84.436393000173112, 38.008523000024965],
            [-84.436477999663623, 38.008876000182532],
            [-84.436585999618643, 38.009296999822276],
            [-84.436616999580792, 38.009391999650425],
            [-84.436824000168343, 38.010045000166926],
            [-84.436830999841021, 38.01006500004867],
            [-84.436934999598108, 38.010364999743445],
            [-84.437044000276373, 38.010662000057991],
            [-84.437117999896216, 38.010844000292416],
            [-84.437214999980583, 38.011061000280762],
            [-84.437316000262925, 38.011255999908279],
            [-84.437574999830701, 38.011682999796399],
            [-84.437723999793619, 38.011892000238916],
            [-84.437859000411137, 38.012071000032414],
            [-84.438047999658707, 38.012294000345975],
            [-84.438226999758868, 38.012483999896958],
            [-84.438251000048311, 38.01250900015512],
            [-84.438415999904748, 38.012674999727757],
            [-84.438656999929165, 38.012898999680786],
            [-84.438962000426002, 38.013149999813336],
            [-84.4391599998944, 38.013295000299067],
            [-84.439491000330534, 38.013535999964141],
            [-84.44150800021437, 38.014992000045652],
            [-84.441191999846879, 38.015160999748879],
            [-84.439595999912513, 38.016190999959747],
            [-84.43985299983045, 38.01630400032623],
            [-84.440313999962896, 38.0165149996485],
            [-84.440736999562219, 38.016722999750975],
            [-84.440992999655251, 38.016865000223667],
            [-84.441457000160753, 38.017134000290021],
            [-84.442044999616485, 38.017516999988523],
            [-84.442562999650335, 38.017876999960883],
            [-84.442119000134653, 38.018286999702141],
            [-84.441822000033724, 38.018530999892157],
            [-84.441591999879947, 38.018690000103781],
            [-84.441263999816883, 38.018894999756235],
            [-84.439925999625387, 38.019784000330318],
            [-84.439791999731085, 38.019851000246234],
            [-84.439672000080478, 38.019897000110795],
            [-84.439555999729535, 38.019925999825958],
            [-84.439446999949595, 38.019940000050376],
            [-84.439370999781616, 38.019941999981128],
            [-84.439289999590741, 38.019938000119573],
            [-84.439102999992997, 38.019915000203774],
            [-84.438913999847117, 38.01988699974271],
            [-84.438749999815599, 38.01987900001339],
            [-84.438585999784067, 38.019895000178813],
            [-84.438434000346405, 38.019940000050376],
            [-84.438303999751753, 38.019999000107497],
            [-84.438257999721003, 38.020025999853843],
            [-84.438177000428468, 38.020075000206951],
            [-84.437999999978132, 38.020194000018193],
            [-84.437378000187209, 38.020595999884179],
            [-84.437226999676156, 38.020685000198924],
            [-84.437129999591775, 38.020732000202202],
            [-84.43684500008473, 38.020845999889289],
            [-84.436680000228293, 38.020637000209582],
            [-84.436551000356857, 38.020504000296029],
            [-84.436466999792955, 38.02043199976859],
            [-84.436368000058749, 38.020357999958712],
            [-84.436217000446021, 38.02026300018894],
            [-84.436132000057214, 38.020212000038214],
            [-84.435788999925521, 38.020004999894688],
            [-84.435486999801739, 38.019829000270036],
            [-84.435137999822288, 38.019618999843118],
            [-84.434813000132266, 38.019423999817796],
            [-84.434500999962737, 38.019235999806554],
            [-84.433772000041685, 38.018797000270055],
            [-84.432417000131736, 38.017981999914596],
            [-84.432299000130953, 38.017910999733211],
            [-84.430596000066458, 38.019263999808686],
            [-84.430284999721835, 38.019519999938687],
            [-84.430120999690317, 38.019682000034408],
            [-84.429920999673783, 38.019864999777326],
            [-84.429150999744849, 38.02056799968328],
            [-84.429060000406551, 38.020666000339602],
            [-84.429047999812681, 38.020678999759653],
            [-84.428488999770934, 38.021171000177773],
            [-84.427911000360936, 38.021713999971816],
            [-84.426732000178092, 38.022799000300438],
            [-84.426620999850016, 38.022901999721093],
            [-84.425665999973148, 38.023788000066773],
            [-84.42540400003233, 38.024040000323154],
            [-84.425323999666389, 38.024112000136157],
            [-84.425285000206642, 38.024142000214255],
            [-84.425380999567793, 38.024227000132932],
            [-84.426215999794053, 38.02495299969992],
            [-84.426436999726988, 38.025155999734466],
            [-84.426629000245924, 38.025331000118101],
            [-84.426652999637042, 38.025355000348419],
            [-84.426680000299555, 38.025381000353136],
            [-84.42672799998013, 38.025429999955954],
            [-84.426927000171759, 38.02565899999027],
            [-84.426998000316871, 38.025754999726836],
            [-84.427083999632274, 38.025859999714875],
            [-84.427165999648039, 38.025977000272299],
            [-84.427306000288439, 38.026204000252449],
            [-84.427372000410685, 38.026321000260602],
            [-84.427466999946915, 38.026512999996051],
            [-84.427584999947697, 38.02681599991493],
            [-84.427615999909833, 38.026907000199365],
            [-84.427631999803367, 38.026952999880265],
            [-84.427645000222171, 38.026988000264176],
            [-84.427665000313652, 38.027045999731399],
            [-84.42808200006516, 38.028531000147801],
            [-84.428135999593536, 38.028693999980796],
            [-84.432172999734263, 38.027971000254844],
            [-84.433393999749924, 38.027778000236168],
            [-84.43336000031303, 38.027829000074206],
            [-84.433356999939988, 38.027882000298412],
            [-84.433391000275179, 38.027920999664516],
            [-84.433463000245197, 38.027963999848716],
            [-84.433509000275947, 38.028007999863028],
            [-84.433519000321695, 38.028055999977113],
            [-84.433510999925787, 38.028099999936167],
            [-84.433460999697061, 38.028143000015312],
            [-84.433454000024369, 38.028195000159627],
            [-84.433459999872142, 38.028243000151193],
            [-84.433512999575598, 38.028281000181195],
            [-84.433568999652095, 38.028291000111317],
            [-84.433628999926555, 38.028288999700813],
            [-84.433683000353227, 38.028261000316803],
            [-84.433746000102417, 38.028272999953074],
            [-84.433710999942306, 38.028348999962191],
            [-84.43366200043684, 38.028391000045175],
            [-84.433622000253862, 38.028480999939724],
            [-84.433585000443941, 38.028522999946986],
            [-84.433611000383195, 38.028550000090597],
            [-84.433622000253862, 38.02859100021098],
            [-84.433561999979389, 38.028592000058296],
            [-84.433535000215215, 38.028601999946027],
            [-84.433539000413163, 38.028638999943148],
            [-84.43359600031458, 38.028658999704291],
            [-84.433753999600029, 38.028657000011457],
            [-84.433761999995937, 38.028681999705924],
            [-84.433755000323259, 38.02873900010956],
            [-84.433844000011703, 38.028802000243417],
            [-84.433907999585813, 38.028874000330028],
            [-84.433936999898123, 38.028921000033897],
            [-84.433857000430507, 38.029028999961859],
            [-84.433792999958072, 38.029055000078003],
            [-84.433624999728579, 38.029111000351193],
            [-84.433591000291727, 38.029129000303534],
            [-84.433570000375326, 38.029170999939346],
            [-84.4335970001395, 38.029205999971246],
            [-84.433693000398961, 38.029217000321502],
            [-84.433799999630779, 38.029259999745022],
            [-84.433827000293263, 38.029292000221169],
            [-84.433848000209665, 38.02933399976353],
            [-84.433886999669411, 38.029384000097089],
            [-84.433889000217562, 38.029437999739663],
            [-84.433879999996719, 38.029456000319271],
            [-84.433740000254645, 38.029500000145092],
            [-84.433665999736476, 38.029484999789304],
            [-84.433572000025137, 38.029423999914762],
            [-84.433536000040135, 38.02942799996611],
            [-84.433483000336679, 38.029452000269501],
            [-84.433448000176583, 38.029496999932654],
            [-84.433469000092984, 38.029543999944437],
            [-84.433514000298828, 38.029590000092384],
            [-84.433498000405294, 38.029648000330056],
            [-84.433454999849261, 38.029708000185948],
            [-84.4334070001687, 38.029759999927023],
            [-84.433335000198696, 38.029806999770081],
            [-84.433304000236532, 38.029840999667854],
            [-84.433356999939988, 38.029916000343889],
            [-84.433325000152934, 38.029988000043247],
            [-84.433326999802759, 38.030024000220187],
            [-84.433353999566947, 38.030052000345542],
            [-84.433351999917122, 38.030100999654735],
            [-84.433358999589814, 38.030167000217581],
            [-84.433316999757025, 38.030257999877612],
            [-84.433263000228663, 38.030297999925672],
            [-84.433254999832741, 38.030316000293958],
            [-84.433269000076436, 38.03037600031039],
            [-84.43315899957328, 38.030380000309748],
            [-84.433178999664761, 38.030433000103557],
            [-84.433232000266528, 38.030470999705145],
            [-84.433303000411627, 38.030486999680491],
            [-84.433434999757793, 38.03048400021607],
            [-84.433485999811424, 38.030505000002336],
            [-84.433530000192349, 38.030544000094899],
            [-84.433547999735694, 38.030599999937444],
            [-84.433541999887922, 38.030638999979388],
            [-84.433517999598465, 38.030680000345811],
            [-84.433467000443159, 38.030712000201667],
            [-84.433355000290163, 38.030721999800008],
            [-84.433362999787761, 38.030749999658568],
            [-84.433306999711263, 38.030770000258599],
            [-84.433270999726261, 38.030798000098812],
            [-84.433289000167932, 38.030836000218699],
            [-84.43336100013795, 38.030852000114272],
            [-84.433423999887125, 38.030852999930744],
            [-84.43348800035956, 38.030882000262956],
            [-84.433587000093766, 38.030960999840779],
            [-84.433614999682845, 38.030990000130231],
            [-84.433729000383977, 38.031074000074156],
            [-84.433741000079536, 38.031108000091471],
            [-84.433746999927322, 38.031184999801738],
            [-84.433714000315362, 38.031232999956998],
            [-84.433603999812178, 38.031243000191751],
            [-84.43353799968996, 38.031186000321249],
            [-84.433469000092984, 38.031162999690643],
            [-84.433428999910006, 38.031201000328728],
            [-84.4334070001687, 38.031244999813993],
            [-84.433398999772777, 38.031276000319956],
            [-84.433465999719928, 38.031310000243515],
            [-84.433544000436044, 38.031314000191827],
            [-84.433608000010153, 38.031329999983058],
            [-84.433640999622128, 38.031359000126365],
            [-84.433659000063784, 38.031407999976445],
            [-84.433553999583467, 38.031447000295849],
            [-84.433524000344576, 38.031448000104199],
            [-84.433454000024369, 38.031462000249832],
            [-84.433351000092202, 38.031440000221878],
            [-84.433294000190799, 38.031433999955823],
            [-84.433191000258631, 38.031449999720785],
            [-84.43306200038721, 38.031455999985589],
            [-84.433014999633215, 38.031534999651974],
            [-84.433028999876925, 38.03176699982788],
            [-84.43304599959535, 38.03185100029598],
            [-84.433069000059902, 38.031891000181766],
            [-84.433175000365111, 38.032023000145202],
            [-84.433185000410845, 38.032108999918385],
            [-84.433099000197117, 38.032218999694997],
            [-84.433074999907689, 38.032228999795151],
            [-84.433070999709713, 38.032246999688937],
            [-84.433144000402976, 38.032266999880235],
            [-84.433192999908456, 38.032293000262243],
            [-84.433278000297278, 38.032364999748062],
            [-84.433325999977853, 38.032383000316017],
            [-84.433388999727043, 38.032391000095288],
            [-84.433484000161599, 38.032415999930592],
            [-84.433570000375326, 38.032457999804564],
            [-84.433609999659993, 38.032515000100382],
            [-84.433710000117401, 38.032574999730826],
            [-84.433838999988836, 38.032642999771411],
            [-84.433859999905224, 38.032685000222749],
            [-84.433896999715159, 38.032730000022639],
            [-84.433945000294045, 38.032774999794825],
            [-84.434002000195463, 38.032804000073646],
            [-84.434044000028251, 38.032774000004636],
            [-84.434105999952521, 38.032682999932284],
            [-84.434143999587349, 38.032665999937308],
            [-84.434189999618113, 38.032672000102487],
            [-84.434228000151251, 38.032692000177747],
            [-84.434239999846824, 38.03271500032826],
            [-84.434284000227748, 38.032764999769263],
            [-84.434315000189912, 38.032781999741211],
            [-84.434345000327113, 38.032791999764505],
            [-84.434382999961969, 38.032798999709229],
            [-84.43443099964253, 38.032791999764505],
            [-84.434551000191448, 38.032794999841947],
            [-84.434588999826289, 38.032774000004636],
            [-84.434646999552598, 38.032760000109711],
            [-84.434679000237978, 38.032773000214398],
            [-84.43470299962911, 38.032821000036598],
            [-84.434738999614112, 38.032848000011207],
            [-84.434830999675626, 38.032860000311217],
            [-84.434969999592781, 38.032833000340979],
            [-84.435049999958736, 38.032827999978544],
            [-84.435218000188229, 38.032796000339474],
            [-84.435260999845937, 38.032797000129399],
            [-84.435295000181114, 38.032827999978544],
            [-84.435358999755223, 38.032842999649787],
            [-84.435405999610893, 38.03280700015064],
            [-84.435413000181896, 38.032747999793308],
            [-84.435428000250496, 38.032688000304624],
            [-84.435494000372756, 38.032654000313144],
            [-84.435597000304924, 38.032607999966487],
            [-84.435649000183446, 38.032560000004707],
            [-84.435666999726791, 38.0325169996879],
            [-84.435664000252075, 38.032473000259145],
            [-84.435634999939737, 38.03241800022839],
            [-84.435655999856138, 38.032370999937854],
            [-84.435672999574578, 38.032317000334579],
            [-84.435706000084863, 38.032276999973831],
            [-84.435814000039883, 38.032269999979228],
            [-84.435870999941301, 38.032272000281026],
            [-84.43599300014003, 38.032246999688937],
            [-84.436075999980702, 38.032241000196571],
            [-84.436141000278027, 38.032277999770848],
            [-84.436163000019349, 38.032354999666481],
            [-84.436185999585575, 38.032463000192301],
            [-84.436244000210195, 38.032505000039322],
            [-84.436333999723573, 38.03250199994995],
            [-84.436443000401823, 38.032387000205738],
            [-84.436358999837921, 38.032356000169962],
            [-84.436332999898653, 38.032305999742235],
            [-84.436348999792187, 38.03224899999136],
            [-84.436421999587111, 38.032228999795151],
            [-84.436568999900203, 38.032216000301496],
            [-84.436594000014566, 38.032175999885595],
            [-84.436577000296126, 38.032114000329912],
            [-84.436588000166779, 38.032070999751291],
            [-84.436587000341873, 38.031995000065635],
            [-84.436602000410488, 38.031953999727641],
            [-84.436633000372623, 38.031914999678222],
            [-84.436621999603659, 38.03186499965706],
            [-84.436657999588675, 38.031823999953822],
            [-84.43668500025116, 38.031762999904252],
            [-84.436732999931735, 38.031722000143979],
            [-84.436761000419153, 38.031663000327882],
            [-84.436778000137593, 38.031583000285465],
            [-84.43684599990965, 38.031529999908507],
            [-84.436895000313456, 38.031525000164663],
            [-84.436967000283488, 38.031484000271178],
            [-84.437015999788954, 38.031433999955823],
            [-84.437096999979815, 38.031416999671023],
            [-84.437216999630408, 38.03142399974714],
            [-84.437312999889883, 38.03142500026339],
            [-84.43734800004998, 38.031415000053478],
            [-84.437353999897766, 38.031360999745445],
            [-84.437352000247927, 38.031343000341479],
            [-84.437322999935631, 38.031271999661925],
            [-84.437312999889883, 38.031202999952122],
            [-84.43733100033154, 38.031157000109445],
            [-84.437384999859887, 38.031130000219079],
            [-84.437449000332322, 38.031131000031749],
            [-84.437470000248709, 38.031115000197111],
            [-84.437476999921401, 38.031048999780786],
            [-84.437511000256592, 38.031013000107556],
            [-84.437558000112261, 38.031005000177792],
            [-84.437575999655607, 38.030994000096022],
            [-84.43759999994505, 38.030929999909105],
            [-84.437701000227406, 38.030874000318825],
            [-84.437726000341755, 38.030832000244239],
            [-84.437793000288892, 38.030802999892288],
            [-84.437842999619292, 38.030790999962882],
            [-84.437867999733655, 38.030754000345055],
            [-84.437912000114594, 38.030728999942539],
            [-84.437967000366172, 38.030723000325786],
            [-84.437963999993116, 38.030684000328577],
            [-84.438024000267589, 38.030616999704257],
            [-84.438081000168992, 38.030596999770061],
            [-84.438158000161891, 38.030545999736219],
            [-84.438316000345637, 38.03048100004392],
            [-84.438343999934716, 38.030449999909123],
            [-84.438401999661053, 38.03041799993882],
            [-84.438478999653938, 38.030382999778382],
            [-84.438569999890547, 38.03035499977954],
            [-84.438614000271471, 38.030318999765257],
            [-84.438635000187872, 38.030278999728672],
            [-84.438667999799833, 38.030245000034185],
            [-84.438712000180757, 38.030180999900502],
            [-84.438839000402353, 38.03011900007143],
            [-84.438912000197305, 38.030059999671785],
            [-84.439053999589206, 38.029919999660763],
            [-84.439113000038759, 38.029875000257455],
            [-84.440251000213706, 38.030702999712936],
            [-84.440854999562973, 38.031130000219079],
            [-84.441576999811332, 38.031647999707474],
            [-84.441636000260885, 38.031676999724894],
            [-84.441677000268768, 38.031690999826765],
            [-84.441741999667784, 38.031700000194114],
            [-84.441779000376016, 38.031697000071823],
            [-84.441808999614935, 38.031689000216701],
            [-84.441851000346048, 38.031669999672907],
            [-84.441950000080254, 38.031598000211602],
            [-84.442991999995755, 38.030752999819697],
            [-84.44366800021335, 38.030213999799514],
            [-84.444316999768446, 38.029682000301626],
            [-84.44477399970296, 38.029306000071301],
            [-84.444975000442724, 38.029149999770667],
            [-84.445254000101983, 38.028924000269932],
            [-84.445536000134283, 38.028706000253713],
            [-84.445988000045901, 38.029051999847333],
            [-84.446138999658643, 38.029157999903013],
            [-84.446223000222545, 38.029204000293348],
            [-84.446735000408609, 38.029444000169207],
            [-84.446957999991383, 38.029566999668219],
            [-84.44703900018223, 38.029610000301517],
            [-84.447172000251626, 38.029700000113671],
            [-84.447286000054433, 38.029787000322287],
            [-84.447373999917971, 38.029868999863154],
            [-84.447600999698707, 38.029663999777497],
            [-84.447751000384841, 38.029513000120687],
            [-84.447866000012581, 38.029380000043339],
            [-84.447943000005466, 38.029266000189196],
            [-84.448009000127712, 38.029163999647935],
            [-84.448056999808287, 38.029074999725573],
            [-84.448122000105613, 38.028931999719347],
            [-84.448190999702589, 38.028743000198304],
            [-84.448310000426588, 38.028364999693387],
            [-84.449297999915402, 38.028568000180783],
            [-84.45060299959664, 38.028838000295558],
            [-84.452457999997094, 38.029207999649095],
            [-84.452442999928479, 38.029730999858245],
            [-84.452466000393002, 38.030168000043396],
            [-84.452487000309418, 38.030392000306435],
            [-84.452519000096473, 38.030603000104669],
            [-84.452577999647701, 38.030943000338574],
            [-84.45260299976205, 38.031058000227006],
            [-84.452653999815681, 38.031255000047111],
            [-84.452909000083807, 38.032112999823077],
            [-84.453011000191054, 38.032429999891271],
            [-84.453273000131887, 38.033295999735998],
            [-84.453682000385797, 38.034616999905111],
            [-84.45372099984553, 38.034754000140254],
            [-84.453774000447297, 38.034906999836537],
            [-84.453935000105773, 38.035451000177723],
            [-84.454022999969311, 38.035773999861554],
            [-84.454078000220917, 38.036012999691998],
            [-84.454110000007972, 38.03620200026679],
            [-84.454137999597052, 38.036351000095323],
            [-84.454145000168069, 38.0363989996954],
            [-84.45425800014597, 38.037137999664374],
            [-84.454325000093121, 38.037788999732221],
            [-84.454347999659333, 38.038126000004695],
            [-84.454363999552868, 38.038564000050464],
            [-84.454351000032389, 38.038950000051464],
            [-84.454345000184603, 38.039146999870859],
            [-84.454104999985091, 38.042740000126152],
            [-84.454094999939343, 38.042895999781798],
            [-84.453926999709864, 38.045325000104029],
            [-84.453885999701996, 38.045980999722104],
            [-84.453868000158621, 38.046285000071215],
            [-84.453863000135769, 38.046524000262266],
            [-84.453873000181503, 38.046871999772861],
            [-84.453888000250117, 38.047120999651526],
            [-84.453918000387333, 38.047354000273913],
            [-84.453956999847094, 38.04758000020864],
            [-84.454005000425994, 38.047806000153145],
            [-84.454060999604167, 38.0480150001382],
            [-84.454127999551318, 38.048224999813293],
            [-84.454280999712182, 38.048640000195782],
            [-84.454376999971657, 38.048853000327355],
            [-84.45447999990381, 38.049055999915893],
            [-84.45460200010254, 38.049263000031736],
            [-84.454744000392779, 38.049470999831968],
            [-84.455027000249999, 38.04985900016532],
            [-84.45512699980911, 38.049993999656834],
            [-84.455355000313048, 38.050268000343124],
            [-84.455839000011721, 38.050789000337069],
            [-84.456047000424192, 38.051000000084791],
            [-84.456110000173382, 38.051063999710394],
            [-84.453670999616818, 38.052091999778163],
            [-84.452832000090922, 38.052452999849081],
            [-84.452709000067273, 38.052295000287941],
            [-84.44976900009361, 38.053577000270096],
            [-84.449892999942179, 38.053711999978376],
            [-84.449990000026531, 38.053810000150371],
            [-84.452138000329967, 38.055973000295722],
            [-84.452721999587737, 38.056560000120236],
            [-84.452298000163523, 38.056809000290116],
            [-84.452118000238471, 38.056777999982799],
            [-84.451758000388367, 38.057015000242039],
            [-84.451370999875749, 38.057091000132786],
            [-84.451472999983011, 38.057271000006004],
            [-84.451734000098909, 38.057522000198212],
            [-84.452247999934812, 38.058020000217994],
            [-84.452350999866965, 38.057790000061878],
            [-84.45249399998211, 38.057702999875879],
            [-84.452208999576769, 38.057363000100274],
            [-84.452605000310186, 38.057100000207683],
            [-84.453017999863746, 38.056830000308345],
            [-84.455316999779896, 38.05902200012148],
            [-84.455399999620582, 38.059105000309266],
            [-84.454953999556736, 38.059397999853005],
            [-84.454474000056038, 38.05971600005568],
            [-84.453413999698867, 38.058737000217278],
            [-84.453085999635817, 38.059885999979755],
            [-84.453162999628702, 38.060259999978584],
            [-84.454110999832878, 38.061006999788113],
            [-84.454041000410996, 38.061062000271853],
            [-84.453842000219367, 38.061203000268563],
            [-84.453745000134987, 38.061262999733323],
            [-84.453411000224136, 38.061474999805675],
            [-84.453796000188603, 38.061841000073088],
            [-84.453587999776161, 38.061997000048088],
            [-84.454499999995306, 38.06288700027212],
            [-84.455059000037039, 38.062715000069808],
            [-84.455183999710528, 38.062639999743951],
            [-84.455402999993638, 38.063070000286032],
            [-84.456952000072334, 38.064471999739197],
            [-84.458835000061882, 38.066178999722375],
            [-84.458978000177027, 38.066077999719028],
            [-84.459630999930084, 38.066632000080908],
            [-84.461990000120693, 38.06861799982039],
            [-84.462267999955031, 38.0688760000195],
            [-84.462088999854899, 38.069001999769633],
            [-84.462492000261022, 38.069464000296882],
            [-84.462876000400584, 38.069193000049012],
            [-84.463478999924945, 38.069855999977676],
            [-84.463443999764849, 38.069879999760005],
            [-84.462787999638735, 38.070331999847404],
            [-84.463595000275902, 38.071049000133542],
            [-84.463907000445417, 38.07085899972725],
            [-84.465824999696764, 38.069684999886306],
            [-84.466448000210903, 38.069310999972394],
            [-84.467849999976522, 38.068456999766873],
            [-84.468327999827409, 38.068177999919996],
            [-84.46852299982109, 38.068081999924388],
            [-84.468727000035585, 38.067975000325944],
            [-84.46894999961836, 38.067867999863815],
            [-84.469198000213765, 38.067755999853517],
            [-84.469423000344676, 38.067660000011372],
            [-84.469888999601679, 38.067481000256507],
            [-84.470167000334357, 38.067384000028547],
            [-84.470461999887121, 38.067287999698245],
            [-84.470781999554262, 38.067192999976683],
            [-84.47107399963231, 38.067119000026167],
            [-84.471400999870454, 38.067045000000867],
            [-84.471478999688259, 38.067031000293461],
            [-84.471852999782072, 38.066962000332595],
            [-84.472718000145576, 38.067726999980749],
            [-84.472816000054863, 38.067811000214654],
            [-84.4734860004247, 38.068392999792096],
            [-84.474380000202189, 38.06916800004079],
            [-84.475159000351951, 38.069838000135782],
            [-84.475176999895311, 38.06985399999548],
            [-84.475858000135773, 38.070333999816576],
            [-84.476852000370698, 38.070954000345694],
            [-84.476966000173519, 38.070863000343834],
            [-84.477993000020405, 38.070203000307522],
            [-84.478130000287749, 38.070115000041376],
            [-84.478302999641798, 38.070003999924289],
            [-84.480210999745694, 38.068804999666234],
            [-84.481727000212445, 38.06786899988203],
            [-84.481824000296825, 38.067809000176567],
            [-84.482961999573462, 38.067068999998163],
            [-84.483224000412605, 38.066894000338202],
            [-84.483318000123944, 38.06680999975864],
            [-84.48339900031479, 38.066704999782594],
            [-84.483467999911767, 38.066554000125429],
            [-84.483544999904652, 38.066358999872804],
            [-84.483570000019014, 38.066283999746084],
            [-84.483744000096294, 38.065764999817425],
            [-84.483795999974831, 38.065576999931032],
            [-84.483800000172792, 38.065566000092026],
            [-84.483831999959847, 38.065469000154003],
            [-84.487650999642369, 38.064565000038201],
            [-84.488680000037391, 38.06432099971682],
            [-84.489361000277867, 38.064150000125522],
            [-84.489679000295197, 38.064059000147026],
            [-84.489947999908708, 38.06397299970574],
            [-84.490229999941008, 38.063876999850407],
            [-84.490825999792676, 38.063640999965294],
            [-84.49154600039121, 38.063311999667349],
            [-84.49197099964033, 38.063072999830283],
            [-84.492357000328028, 38.062846000256457],
            [-84.492569000040135, 38.062707000067014],
            [-84.493114999663092, 38.062306000132004],
            [-84.493574000145713, 38.061945999956819],
            [-84.494063999692173, 38.061560999646538],
            [-84.495333000286692, 38.060565999970471],
            [-84.495731999596558, 38.060263999760195],
            [-84.496125999781867, 38.059995999761732],
            [-84.496400000316555, 38.059823999836816],
            [-84.496627000097277, 38.059691000345559],
            [-84.496899000083857, 38.059539000226863],
            [-84.497150999978913, 38.059405000083672],
            [-84.497441000407136, 38.059266999859233],
            [-84.497750000203638, 38.059132999925289],
            [-84.498972999869096, 38.058623000086307],
            [-84.499220999566219, 38.058848999887616],
            [-84.499548999629269, 38.059147999866759],
            [-84.500471999719068, 38.059976000070904],
            [-84.500825999721414, 38.060288999981864],
            [-84.500795999584184, 38.060431000173388],
            [-84.500422000388681, 38.061636999767231],
            [-84.50030900041078, 38.061978000295611],
            [-84.500136999983326, 38.062519000102981],
            [-84.500059999990441, 38.06273300024975],
            [-84.499900000156856, 38.063179000150285],
            [-84.499430999628515, 38.064223000181954],
            [-84.499588999812246, 38.0642850001339],
            [-84.500059999990441, 38.064459000311594],
            [-84.500010999586635, 38.064803999952467],
            [-84.500280000098471, 38.064935999993622],
            [-84.500749999553435, 38.065166000321476],
            [-84.500803999980093, 38.065337999712874],
            [-84.501198999990322, 38.065232999745952],
            [-84.501494000441411, 38.064790999876578],
            [-84.501660999947688, 38.064810000313159],
            [-84.501779999773362, 38.064817000026039],
            [-84.501885000253665, 38.064817000026039],
            [-84.501978000140085, 38.064801999832163],
            [-84.502455000166066, 38.064703000172699],
            [-84.502645000136866, 38.064667000070465],
            [-84.502985999720394, 38.065687000352057],
            [-84.503203000353693, 38.06633899979937],
            [-84.503301000262979, 38.06663400015124],
            [-84.503609000234547, 38.067609000331238],
            [-84.503635000173816, 38.067687999889891],
            [-84.503668999610696, 38.067796999946651],
            [-84.503897999939554, 38.068524999722861],
            [-84.503979000130414, 38.068749000046161],
            [-84.504036999856709, 38.068907000152151],
            [-84.50410700017693, 38.069108999987584],
            [-84.504152000382774, 38.06923900004179],
            [-84.504170999751011, 38.069298999988874],
            [-84.504266000185581, 38.069599999688059],
            [-84.504349999851172, 38.069862999914996],
            [-84.504482999920569, 38.0702650001422],
            [-84.50479900028806, 38.070121999953905],
            [-84.505007999627125, 38.070425999752587],
            [-84.505142000419724, 38.07034600033748],
            [-84.505257999872356, 38.070270000069563],
            [-84.506350000016582, 38.069561999883582],
            [-84.50732099978697, 38.068927000230765],
            [-84.507663000093729, 38.068706999772587],
            [-84.508291999557358, 38.06828899997894],
            [-84.508544000350753, 38.06812299983477],
            [-84.509259000028095, 38.067654999905614],
            [-84.509470999740202, 38.067524999865448],
            [-84.509703000442116, 38.067374999804052],
            [-84.509767999841131, 38.0673310001049],
            [-84.510055999721232, 38.067135999801614],
            [-84.510765000449098, 38.066593000113564],
            [-84.51138700024002, 38.066140000220749],
            [-84.511481999776265, 38.066071000126797],
            [-84.511928999665031, 38.06573799995752],
            [-84.512356000360597, 38.065416000257514],
            [-84.513003000265883, 38.064912000003865],
            [-84.513327000131, 38.064628999825423],
            [-84.513593000269765, 38.064403000193849],
            [-84.5138140002027, 38.064184999706313],
            [-84.514071999945557, 38.063912000269063],
            [-84.514174000052819, 38.063784000091459],
            [-84.514204000190048, 38.063739000279746],
            [-84.514313999794894, 38.063575999944135],
            [-84.515050000286948, 38.062101000318158],
            [-84.515323999923353, 38.06153900017388],
            [-84.515667000055018, 38.060849999710257],
            [-84.515753000268745, 38.060642999827024],
            [-84.516174000218228, 38.06090099985807],
            [-84.516481000364891, 38.061088999735453],
            [-84.517236000225211, 38.061533999649797],
            [-84.518085999621761, 38.062034000147484],
            [-84.518521999639859, 38.062295999895632],
            [-84.519094000100409, 38.0626520001125],
            [-84.519386000178457, 38.062842999995659],
            [-84.519590000392938, 38.062976000123484],
            [-84.520586000277703, 38.063642000041348],
            [-84.521254000099376, 38.063026000119621],
            [-84.521439000047295, 38.062844000082627],
            [-84.521566000268933, 38.062683000053333],
            [-84.521654999957363, 38.062535000148863],
            [-84.521854000149006, 38.062152999690454],
            [-84.522238000288553, 38.061334999733319],
            [-84.522443000327982, 38.060886999682332],
            [-84.522543999711985, 38.060627000074746],
            [-84.522782000261685, 38.059629000037461],
            [-84.522910000308215, 38.059119000118621],
            [-84.522969999684349, 38.058996000034789],
            [-84.52305099987521, 38.058860000029156],
            [-84.523144999586535, 38.058733000352198],
            [-84.523249000241918, 38.058621999941657],
            [-84.523279000379148, 38.058584000093774],
            [-84.523352000174071, 38.058512000216197],
            [-84.52356800008414, 38.058292000269311],
            [-84.523631999658249, 38.058226999740462],
            [-84.523911000215818, 38.057948999939391],
            [-84.524146000392477, 38.057691000110438],
            [-84.524251999799347, 38.057558000279165],
            [-84.524339999662899, 38.057425000206244],
            [-84.524491000173967, 38.057178000338979],
            [-84.5245780002126, 38.057023000159774],
            [-84.524646999809576, 38.056872999787878],
            [-84.524706000259116, 38.056718999840726],
            [-84.524777000404228, 38.056487999666011],
            [-84.524859000419994, 38.056046000021759],
            [-84.524875000313514, 38.055725999772008],
            [-84.524941000435746, 38.053683999703068],
            [-84.524937000237784, 38.053511000290669],
            [-84.524921000344278, 38.053363999736703],
            [-84.524886000184168, 38.053204000289988],
            [-84.524747000266984, 38.05289300023211],
            [-84.524645000159751, 38.052758999945382],
            [-84.524467999709415, 38.052569000142483],
            [-84.52394899985066, 38.052116999961925],
            [-84.524049000308082, 38.052103000227923],
            [-84.524394999914492, 38.052072000049435],
            [-84.524609000174735, 38.052061999829327],
            [-84.524841999803229, 38.052060000068082],
            [-84.525180999736961, 38.052073999810304],
            [-84.525359999837093, 38.052088999783848],
            [-84.525574999922256, 38.05211399996864],
            [-84.525831999840193, 38.052152999872057],
            [-84.526166999575963, 38.052216999904303],
            [-84.526452999806224, 38.052282000111902],
            [-84.527496000444941, 38.052535999705725],
            [-84.527585000133399, 38.052557999762747],
            [-84.531499000250491, 38.053511000290669],
            [-84.531998999842699, 38.053641999977351],
            [-84.532191000361649, 38.053696000125562],
            [-84.532386000355302, 38.05376000022337],
            [-84.532881999749549, 38.053942000217866],
            [-84.533158999758967, 38.054061000187225],
            [-84.533316000117807, 38.054140999724964],
            [-84.533680999990779, 38.054324999886248],
            [-84.536138999915607, 38.055613000087874],
            [-84.536574000108786, 38.055810999820075],
            [-84.537390000068484, 38.056161000101277],
            [-84.537498999848424, 38.056207999977239],
            [-84.538436000181932, 38.056598000311723],
            [-84.539658000022499, 38.05710699995084],
            [-84.540749000341805, 38.057561000049368],
            [-84.542136000038781, 38.058128999824262],
            [-84.542310000116075, 38.058199999928235],
            [-84.542411000398388, 38.058236999825596],
            [-84.542555000338439, 38.058289999970995],
            [-84.542742999761103, 38.058349999702216],
            [-84.543184999626973, 38.058473000164568],
            [-84.543399999712136, 38.058519999970351],
            [-84.543905000225521, 38.058613000053924],
            [-84.544559999628405, 38.058714999895599],
            [-84.546136000369614, 38.058947000254292],
            [-84.54629799985301, 38.058978999782624],
            [-84.546334999662918, 38.058986000053373],
            [-84.546522999983893, 38.059028000249008],
            [-84.546680000342747, 38.059068000143441],
            [-84.546875000336399, 38.059127999944117],
            [-84.547070000330081, 38.059193999809523],
            [-84.547253999554769, 38.059261999887212],
            [-84.547420999959357, 38.059332000171636],
            [-84.547594000211717, 38.059413999874003],
            [-84.547831000038187, 38.059534999698293],
            [-84.548180000017638, 38.05972900032593],
            [-84.548240000292097, 38.059762000348712],
            [-84.548298999843325, 38.059795999777862],
            [-84.548277000102019, 38.059846999953002],
            [-84.548270000429326, 38.059876000119971],
            [-84.548417999668999, 38.060138999938495],
            [-84.548452999829124, 38.060200999814498],
            [-84.548493999836992, 38.060274000274276],
            [-84.548503000057821, 38.060288999981864],
            [-84.548775999869306, 38.060189999874581],
            [-84.548914999786462, 38.060138999938495],
            [-84.549189000321178, 38.060038000085008],
            [-84.550032000045036, 38.059695000158285],
            [-84.551116999618259, 38.05922700007352],
            [-84.551965000263309, 38.058827000306948],
            [-84.552315999892571, 38.058654999756307],
            [-84.552814999659873, 38.058400000030097],
            [-84.553233999959531, 38.058179000303134],
            [-84.554243000263057, 38.057625999755075],
            [-84.554624000029563, 38.05740200003617],
            [-84.55526300043725, 38.057012999908764],
            [-84.556077999673704, 38.056492999827562],
            [-84.556143999795964, 38.056446000134684],
            [-84.556749999693366, 38.056019000112187],
            [-84.557110000441796, 38.055767000240266],
            [-84.557856999906178, 38.055208000124694],
            [-84.558945999677348, 38.05433199989475],
            [-84.55980299964493, 38.053574999842915],
            [-84.56013300025613, 38.053275000220253],
            [-84.56060500025923, 38.052816000002288],
            [-84.561269999707861, 38.052127000174515],
            [-84.561562999610814, 38.051812999779315],
            [-84.562053000055599, 38.051270999807279],
            [-84.562581999960102, 38.050638999921915],
            [-84.563155000245544, 38.04990099993946],
            [-84.563833999937884, 38.048990999673308],
            [-84.564397000177578, 38.048130000102248],
            [-84.564661999593142, 38.047703999964092],
            [-84.565112999679855, 38.046911000346739],
            [-84.565361000275274, 38.046444999785223],
            [-84.565632000436949, 38.045916000286496]
          ]
        ]
      },
      "properties": {
        "AREALAND": "70985937",
        "AREAWATER": "735667",
        "BASENAME": "13",
        "CENTLAT": "+38.0282467",
        "CENTLON": "-084.4950110",
        "FUNCSTAT": "N",
        "GEOID": "21013",
        "HU100": null,
        "INTPTLAT": "+38.0283608",
        "INTPTLON": "-084.4945320",
        "LDTYP": "O",
        "LSADC": "LU",
        "LSY": "2024",
        "MTFCC": "G5210",
        "NAME": "State Senate District 13",
        "OBJECTID": 10,
        "OID": "2129035951825356",
        "POP100": null,
        "SLDU": "013",
        "STATE": "21"
      }
    }
  ]
}
