{
  "type": "FeatureCollection",
  "features": [
    {
      "type": "Feature",
      "id": 182,
      "geometry": {
        "type": "Polygon",
        "coordinates": [
          [
            [-104.89998200032731, 41.094005999776343],
            [-104.8999809996041, 41.093938999830691],
            [-104.8999749997563, 41.093444999890409],
            [-104.89991399965695, 41.09294200012372],
            [-104.89973799992983, 41.092283999732103],
            [-104.8995239996696, 41.091713999693738],
            [-104.89914799992597, 41.091032999809826],
            [-104.89871500028092, 41.090389999678905],
            [-104.89810500018555, 41.089510999953404],
            [-104.89747599982361, 41.088571000032758],
            [-104.8970809998134, 41.087880999880319],
            [-104.89685900005556, 41.087362999735838],
            [-104.89668300032847, 41.086850999791608],
            [-104.89654900043413, 41.086432999986755],
            [-104.89641600036477, 41.085974000217298],
            [-104.89632699977798, 41.085666999663474],
            [-104.89614799967786, 41.084878999777189],
            [-104.89589900015582, 41.083831999978578],
            [-104.8956439998877, 41.082743999751855],
            [-104.89533799956594, 41.081464000283049],
            [-104.89509400006678, 41.080427999698266],
            [-104.89481500040752, 41.079395000162798],
            [-104.89457000018514, 41.078429999709819],
            [-104.89435299955184, 41.077458000082913],
            [-104.89402799986183, 41.076027000132612],
            [-104.89371900006536, 41.074648000261334],
            [-104.8934830000638, 41.073682000309645],
            [-104.89277300040931, 41.073684999666895],
            [-104.89230300005603, 41.073687000141263],
            [-104.88714199998402, 41.073710000174295],
            [-104.88678399978375, 41.073711999970676],
            [-104.88666900015602, 41.073713000207491],
            [-104.88564899998183, 41.073699999837018],
            [-104.88212900005001, 41.073653999755848],
            [-104.88191800016283, 41.073650999720016],
            [-104.87851600023183, 41.073607000081303],
            [-104.87496000031501, 41.073559999695988],
            [-104.87140600004801, 41.073514000194024],
            [-104.86854800009013, 41.073477999678047],
            [-104.86829100017216, 41.073474000070973],
            [-104.86750500034971, 41.073464999938381],
            [-104.86201100019177, 41.073466999742216],
            [-104.8616959996492, 41.073471000026935],
            [-104.86070800016036, 41.073471000026935],
            [-104.85748000030662, 41.076445999957052],
            [-104.8550929996286, 41.078662000335555],
            [-104.853466999557, 41.080149000151742],
            [-104.85142100025917, 41.08206599999297],
            [-104.8507769998286, 41.082693000082159],
            [-104.85061799981993, 41.082859000242507],
            [-104.85041500032868, 41.083078999678406],
            [-104.84972499986735, 41.08389200017897],
            [-104.84849200015614, 41.085346000225741],
            [-104.84815300022242, 41.085758999907142],
            [-104.84703400031403, 41.087095000204407],
            [-104.84620199956251, 41.088120999783762],
            [-104.84541499991515, 41.089079000104164],
            [-104.84448299960449, 41.0901880000972],
            [-104.8432440000455, 41.091682000198261],
            [-104.842378999682, 41.092697999759572],
            [-104.83972800031167, 41.095917000152909],
            [-104.83941799979196, 41.096291999742654],
            [-104.83905000044423, 41.096730000224866],
            [-104.8385419995578, 41.097403000263583],
            [-104.83821199984493, 41.097955000032648],
            [-104.83789100035288, 41.098603999734046],
            [-104.83749700016757, 41.09857300006832],
            [-104.83719900024174, 41.098554999906355],
            [-104.83703500021021, 41.098559000017978],
            [-104.83687899967629, 41.09856399998796],
            [-104.83650499958247, 41.098597000051051],
            [-104.83615700032625, 41.098650999810758],
            [-104.83575300009521, 41.098750999674827],
            [-104.83535800008499, 41.098896000256538],
            [-104.83510000034214, 41.09901299993701],
            [-104.8348519997467, 41.099148999940113],
            [-104.83469600011109, 41.099255000165385],
            [-104.83460499987447, 41.09931800003941],
            [-104.83435999965211, 41.099507999820027],
            [-104.83406099990137, 41.099780000202479],
            [-104.83317999964434, 41.100580000054926],
            [-104.83228199966889, 41.101396999889218],
            [-104.83198999959083, 41.101629999796401],
            [-104.83174500026678, 41.101796999985453],
            [-104.83147099973209, 41.101947000324202],
            [-104.83109099979048, 41.102113999707129],
            [-104.83062499963516, 41.102253999944907],
            [-104.83015299963205, 41.102332999855449],
            [-104.82967499978118, 41.102366999856251],
            [-104.82897000014957, 41.102373999814446],
            [-104.82770099955501, 41.102377999693473],
            [-104.82389600011618, 41.102393999884185],
            [-104.82262800024488, 41.102400000039303],
            [-104.82192400043819, 41.102402000316545],
            [-104.81981600031773, 41.102410999870997],
            [-104.81911300033596, 41.102413999947842],
            [-104.81895400032731, 41.102413000147905],
            [-104.81847999977605, 41.10241199967097],
            [-104.81832199959229, 41.10241199967097],
            [-104.81740699989842, 41.102404999716889],
            [-104.81737599993629, 41.102404999716889],
            [-104.81488200002644, 41.102400000039303],
            [-104.81466199991841, 41.102400000039303],
            [-104.81374800004946, 41.102403000116652],
            [-104.8137029998436, 41.102402000316545],
            [-104.81356800012438, 41.102402000316545],
            [-104.81352299991855, 41.102402000316545],
            [-104.81291000034845, 41.102399000239146],
            [-104.81255999964576, 41.102396999961819],
            [-104.81107400021456, 41.102392000283629],
            [-104.81046199957106, 41.102390000006082],
            [-104.81039799999698, 41.102390000006082],
            [-104.81020600037634, 41.102390000006082],
            [-104.81014299972884, 41.102390000006082],
            [-104.81002300007823, 41.102389000205768],
            [-104.80966499987794, 41.102389000205768],
            [-104.80954600005226, 41.102389000205768],
            [-104.80954500022735, 41.102434999805091],
            [-104.80954299967921, 41.102575999832936],
            [-104.80954299967921, 41.102622999774951],
            [-104.80954100002938, 41.102701000122984],
            [-104.80953900037957, 41.102937000195226],
            [-104.80953799965633, 41.103015999961102],
            [-104.80953600000652, 41.103080999868574],
            [-104.80953400035669, 41.103276999668751],
            [-104.80953400035669, 41.103342999780615],
            [-104.80953400035669, 41.103360999984204],
            [-104.80953299963348, 41.103382000215547],
            [-104.80953199980856, 41.103404000224991],
            [-104.80953199980856, 41.103473000237742],
            [-104.80953199980856, 41.103496000000227],
            [-104.80953000015873, 41.103592000128579],
            [-104.80952699978569, 41.103882999681311],
            [-104.80952599996078, 41.103979999696946],
            [-104.80952000011298, 41.104390999806462],
            [-104.80950500004437, 41.105627999950528],
            [-104.8095000000215, 41.106040000320455],
            [-104.80949599982354, 41.107759000003973],
            [-104.80949599982354, 41.107814000070668],
            [-104.8094849999529, 41.109653999809261],
            [-104.80878799981888, 41.109644999893717],
            [-104.80844399986231, 41.109642000147218],
            [-104.80838299976293, 41.109640999780467],
            [-104.80640199986411, 41.109618999829998],
            [-104.80639799966615, 41.109798000320538],
            [-104.80638400032073, 41.111450999741734],
            [-104.8062050002206, 41.111450000079323],
            [-104.80605200005974, 41.111452000080902],
            [-104.80603399961807, 41.113141000285445],
            [-104.80548999964495, 41.113136999708374],
            [-104.80469499960164, 41.113126000319767],
            [-104.8045220002476, 41.113123000055545],
            [-104.80391499962697, 41.113108999722868],
            [-104.80311399973588, 41.113113000301645],
            [-104.8017200003662, 41.113104999820671],
            [-104.80171399962012, 41.113206999958237],
            [-104.80170500029759, 41.113312000193098],
            [-104.80223000000413, 41.113314999771916],
            [-104.80312899980451, 41.11332500017182],
            [-104.8039310004188, 41.113332000315474],
            [-104.80451200020185, 41.113332000315474],
            [-104.80469899979961, 41.11332900006061],
            [-104.80547299992651, 41.113338000147962],
            [-104.8057680003776, 41.113334000259663],
            [-104.80577400022537, 41.113382999889282],
            [-104.805781999723, 41.113777000277949],
            [-104.80577699970013, 41.114012000174121],
            [-104.80576699965437, 41.114586000084309],
            [-104.8057619996315, 41.11489800025285],
            [-104.80574800028612, 41.115667999897617],
            [-104.80574400008815, 41.115949999670057],
            [-104.80464100007327, 41.115965999937586],
            [-104.8046200001569, 41.116478999935133],
            [-104.80461099993605, 41.116685000237311],
            [-104.80460799956302, 41.116763999705341],
            [-104.80454700036195, 41.116761000284114],
            [-104.80402099993216, 41.116753999829335],
            [-104.80402699977995, 41.116776999677192],
            [-104.80404500022162, 41.116845999849275],
            [-104.80405100006939, 41.116868999664952],
            [-104.80406600013804, 41.116927999890777],
            [-104.80401099988644, 41.116927000311819],
            [-104.80366500028003, 41.116922999965475],
            [-104.80364400036363, 41.116922999965475],
            [-104.80361199967825, 41.116929000146492],
            [-104.80358900011203, 41.116945000175434],
            [-104.80356300017277, 41.116964999867733],
            [-104.80354999975397, 41.116945000175434],
            [-104.80351100029425, 41.116884999708468],
            [-104.80349799987545, 41.116866000248471],
            [-104.80327100009472, 41.116863999735102],
            [-104.80259099967917, 41.116861000318444],
            [-104.80236499972335, 41.116860000061699],
            [-104.80224900027071, 41.116860000061699],
            [-104.80190100011617, 41.116861000318444],
            [-104.80178599959012, 41.116861999898411],
            [-104.80178800013827, 41.117049999845506],
            [-104.80179499981097, 41.11761399983979],
            [-104.80179800018401, 41.117801999663328],
            [-104.80179599963586, 41.117959999876113],
            [-104.80178999978808, 41.118437999840282],
            [-104.80178800013827, 41.118597000105872],
            [-104.80178700031334, 41.118662999707226],
            [-104.80178700031334, 41.118694000040485],
            [-104.80179999983385, 41.118861000143184],
            [-104.80180599968162, 41.118927999704312],
            [-104.80181599972735, 41.119045999785193],
            [-104.80075899974324, 41.119082999921716],
            [-104.80076100029139, 41.11951399982911],
            [-104.80074899969749, 41.11971499969124],
            [-104.8007550004436, 41.119756999837179],
            [-104.80074899969749, 41.12012000022029],
            [-104.80075200007055, 41.120519999952393],
            [-104.80073000032925, 41.120519999952393],
            [-104.80053399961234, 41.120531000132218],
            [-104.8004249998324, 41.120563999983887],
            [-104.80028199971726, 41.120606000263273],
            [-104.79985300027019, 41.120733999982193],
            [-104.79983700037666, 41.12073999981488],
            [-104.79971299962979, 41.120783999698837],
            [-104.79953199987982, 41.120205000172788],
            [-104.79390200017775, 41.121026999741893],
            [-104.79370499963593, 41.12105499973363],
            [-104.79359900022905, 41.121072999818686],
            [-104.79355499984811, 41.121079000297065],
            [-104.79401400033075, 41.121711999977478],
            [-104.79405500033863, 41.121765999677208],
            [-104.794180999837, 41.121929000042748],
            [-104.79422400039302, 41.121983999742604],
            [-104.79433099962483, 41.122155000299095],
            [-104.79465100019027, 41.122670000308396],
            [-104.79475900014532, 41.122840999754153],
            [-104.79465500038825, 41.122863000010589],
            [-104.79459500011379, 41.122877000293009],
            [-104.79419500008072, 41.123046000227781],
            [-104.79413999982911, 41.123068999900973],
            [-104.79277800024649, 41.123646999721529],
            [-104.79232399978673, 41.123841000084312],
            [-104.7919980002718, 41.123963000046615],
            [-104.79102099975532, 41.124330000069065],
            [-104.79069699989022, 41.124451999798978],
            [-104.78907800038964, 41.125092999800707],
            [-104.78724300008066, 41.125717000269603],
            [-104.787997999941, 41.126881999860316],
            [-104.78823200029271, 41.127232000151892],
            [-104.78861399988413, 41.127805000071262],
            [-104.78909799958282, 41.128549999936737],
            [-104.78920499971292, 41.128713999767463],
            [-104.78958600037775, 41.129298999731787],
            [-104.79005199963474, 41.13001700006631],
            [-104.79015200009218, 41.130181999667052],
            [-104.79045000001803, 41.130655999742729],
            [-104.79063900016391, 41.130951999985854],
            [-104.79078899995173, 41.131198999744868],
            [-104.79045000001803, 41.131195000268434],
            [-104.78919300001736, 41.131186999961578],
            [-104.78549700035848, 41.131161000310904],
            [-104.78392300016542, 41.131180999730823],
            [-104.78370300005739, 41.13117300009889],
            [-104.7830429997333, 41.131148999844036],
            [-104.78282299962527, 41.131142000247358],
            [-104.78243299963793, 41.131146999766045],
            [-104.78128100011757, 41.131164999789405],
            [-104.78079400004589, 41.1311689999443],
            [-104.78060400007506, 41.131162999711847],
            [-104.7805849998085, 41.130279000071148],
            [-104.77136400002952, 41.129759999992842],
            [-104.76722999980439, 41.129533000151682],
            [-104.76655899960966, 41.129494999752794],
            [-104.76682899994638, 41.128902000273882],
            [-104.76670000007498, 41.128894999760824],
            [-104.76629900021697, 41.128875000320654],
            [-104.76621399982815, 41.129078000072596],
            [-104.76605900001748, 41.129451000296164],
            [-104.76596100010816, 41.129689999803617],
            [-104.76587800026751, 41.129893999798682],
            [-104.76583700025962, 41.12999300006517],
            [-104.76577600016024, 41.130137999994552],
            [-104.7656049995577, 41.130554000332509],
            [-104.76547300021154, 41.130869999873923],
            [-104.76537299975411, 41.131114999862668],
            [-104.7649209998425, 41.13219499981588],
            [-104.76453000003025, 41.13313299984577],
            [-104.76380699995698, 41.134878000028195],
            [-104.76356699975747, 41.135435999873991],
            [-104.76310599962501, 41.136512999860273],
            [-104.76336799956583, 41.136514999774725],
            [-104.76415699976135, 41.136522000151281],
            [-104.76442000042539, 41.136525000022459],
            [-104.76470400010753, 41.136526999936549],
            [-104.76555600005221, 41.13653600022559],
            [-104.76584099955926, 41.136539000096164],
            [-104.76637799985969, 41.13653700018245],
            [-104.76798999968759, 41.136534000311819],
            [-104.76852799981292, 41.136534000311819],
            [-104.7685189995921, 41.136902000335439],
            [-104.76851100009449, 41.137312000059239],
            [-104.76850600007161, 41.138008000065653],
            [-104.7685040004218, 41.138376999867049],
            [-104.76850299969857, 41.138411000144004],
            [-104.76850299969857, 41.138512000265813],
            [-104.76850299969857, 41.138546999722443],
            [-104.76897800007472, 41.138535999856565],
            [-104.77040300030487, 41.13850400017472],
            [-104.77087899960762, 41.138494000228704],
            [-104.77129200005949, 41.13848400028111],
            [-104.7725309996185, 41.138454999680313],
            [-104.77294499989529, 41.138446000331079],
            [-104.77482899970973, 41.138421000102724],
            [-104.77674900040751, 41.13839499993626],
            [-104.77695100007388, 41.138391000222029],
            [-104.7782420004097, 41.138399000326849],
            [-104.77883099969038, 41.138400000255302],
            [-104.78060099970202, 41.138404999897425],
            [-104.7811909997059, 41.138406999754189],
            [-104.78126699987388, 41.138404999897425],
            [-104.78149500037783, 41.138402000112229],
            [-104.78157200037072, 41.138401000183748],
            [-104.78181900024293, 41.138401000183748],
            [-104.78256099968446, 41.138402000112229],
            [-104.78280900027988, 41.13840300004064],
            [-104.7829010003414, 41.13840300004064],
            [-104.78318000000064, 41.138405999825792],
            [-104.78327299988707, 41.138406999754189],
            [-104.78367600029321, 41.138407999682528],
            [-104.78488499971498, 41.138413999928829],
            [-104.7852880001211, 41.138416999713471],
            [-104.78572099976614, 41.138418000318211],
            [-104.78701999959959, 41.138421000102724],
            [-104.78745399996787, 41.138422999958955],
            [-104.78771400025886, 41.138422999958955],
            [-104.78849599988338, 41.138423999887046],
            [-104.78875699999926, 41.138424999815172],
            [-104.78901300009231, 41.138424999815172],
            [-104.78978100037142, 41.138424999815172],
            [-104.79003800028939, 41.138424999815172],
            [-104.79030600007798, 41.138424999815172],
            [-104.79111299981683, 41.138426999671275],
            [-104.79138200032867, 41.138428000275859],
            [-104.79164099989642, 41.138430000131883],
            [-104.7924209998711, 41.138437000304116],
            [-104.79268100016212, 41.138440000087705],
            [-104.79294599957767, 41.138441999943403],
            [-104.79373999979605, 41.1384480001866],
            [-104.79400599993483, 41.138450999969685],
            [-104.79425899965482, 41.138440000087705],
            [-104.79446299986932, 41.138423999887046],
            [-104.79466700008382, 41.138378999724665],
            [-104.79487899979593, 41.138313000332666],
            [-104.79517000004907, 41.138173999796862],
            [-104.7954839998684, 41.138670000003685],
            [-104.79552099967833, 41.13872000026111],
            [-104.79563200000642, 41.138871999970625],
            [-104.79566999964126, 41.138922999994548],
            [-104.79586200016018, 41.139228000065927],
            [-104.79623200005605, 41.139809999917787],
            [-104.79635400025478, 41.139972000206157],
            [-104.7968270000828, 41.14070700030949],
            [-104.79740799986583, 41.141586000068784],
            [-104.79793900031849, 41.142431999886284],
            [-104.7979819999762, 41.142500000277366],
            [-104.79802600035713, 41.142568999786377],
            [-104.79829199959761, 41.142969000000065],
            [-104.79855699991147, 41.14336899980345],
            [-104.79966999997208, 41.142954000086782],
            [-104.79989099990502, 41.142871000234237],
            [-104.80055600025197, 41.142623999774372],
            [-104.80077800000983, 41.142542000045992],
            [-104.80100200031579, 41.142456999938801],
            [-104.80167599998526, 41.142204000050171],
            [-104.80190100011617, 41.14212000005309],
            [-104.80212700007196, 41.14203500007546],
            [-104.80280499993943, 41.141782999788767],
            [-104.80303199972012, 41.141698999929027],
            [-104.80325100000324, 41.141615999841136],
            [-104.80391100032732, 41.141368000183405],
            [-104.80413100043535, 41.141286000237592],
            [-104.80435800021607, 41.141198000198187],
            [-104.80504299975618, 41.140935999827654],
            [-104.80527100026013, 41.140848999886281],
            [-104.80549300001799, 41.140766000075665],
            [-104.80616000001476, 41.140521000274852],
            [-104.80638299959752, 41.140439999843878],
            [-104.80650099959831, 41.140616999703866],
            [-104.80685700014877, 41.141150000249915],
            [-104.80697599997445, 41.141328000107158],
            [-104.80708999977728, 41.141506000157769],
            [-104.80743200008403, 41.142041999862883],
            [-104.80754599988683, 41.142220999875363],
            [-104.80765999968966, 41.142396999796759],
            [-104.80800399964626, 41.142926999828397],
            [-104.80811900017228, 41.143103999741356],
            [-104.8082329999751, 41.143276999760282],
            [-104.80857699993169, 41.143797000307387],
            [-104.80869199955943, 41.143970999694609],
            [-104.80880799991037, 41.144149000013016],
            [-104.80915900043796, 41.144683000098738],
            [-104.80927599971551, 41.144861999667384],
            [-104.80946800023446, 41.145154000095708],
            [-104.80954199985429, 41.145294999691075],
            [-104.80955799974784, 41.145404999783757],
            [-104.80955400044819, 41.145506999778611],
            [-104.80952299958771, 41.145611999746905],
            [-104.80939100024156, 41.145920999760399],
            [-104.81236499965209, 41.145947000325606],
            [-104.8125119999652, 41.145948000139029],
            [-104.81401599983805, 41.14596200023071],
            [-104.81419499993818, 41.145963000043913],
            [-104.81541599995384, 41.145973000204066],
            [-104.81556400009184, 41.145974000017048],
            [-104.81682399956722, 41.145976000319443],
            [-104.81822000038336, 41.14596499967017],
            [-104.81831099972163, 41.14596499967017],
            [-104.81834500005684, 41.14596499967017],
            [-104.81962600034694, 41.145970999901579],
            [-104.81974799964736, 41.145970999901579],
            [-104.8210330001354, 41.145969000275457],
            [-104.82111199977813, 41.145969000275457],
            [-104.82116299983177, 41.145969000275457],
            [-104.82241900000751, 41.145981000060509],
            [-104.82248099993177, 41.145981999873378],
            [-104.82252299976457, 41.145981999873378],
            [-104.82381800029837, 41.145994000332529],
            [-104.82396999973604, 41.145995000145192],
            [-104.82424599992055, 41.145995000145192],
            [-104.82507699994886, 41.145995999957833],
            [-104.8253539999583, 41.145996999770475],
            [-104.82562500011996, 41.146000999697378],
            [-104.82644100007963, 41.146013000153005],
            [-104.82671300006619, 41.146017000078935],
            [-104.82699599992343, 41.146021000004566],
            [-104.82784600021829, 41.146032999780111],
            [-104.82812999990043, 41.146036999704826],
            [-104.82872199955412, 41.146039000005295],
            [-104.83000000036949, 41.146052000265811],
            [-104.83027499983078, 41.146053999889354],
            [-104.8310990001864, 41.14606000011262],
            [-104.83137500037093, 41.146061999735913],
            [-104.83274299980134, 41.146074999991875],
            [-104.83348699979101, 41.146085000134953],
            [-104.83360999981467, 41.14608599994623],
            [-104.83397999971052, 41.146089000056492],
            [-104.83410399955906, 41.146089999867705],
            [-104.83553100033734, 41.146096999898781],
            [-104.83693200027804, 41.146107000038505],
            [-104.83720699973937, 41.146122999717718],
            [-104.83803500029292, 41.146171999894918],
            [-104.83825200002789, 41.146142000177342],
            [-104.83844700002156, 41.146229999670759],
            [-104.83856199964927, 41.146266000228898],
            [-104.83881299971945, 41.146341999839159],
            [-104.83881799974232, 41.146152000310202],
            [-104.83883100016111, 41.145676000276431],
            [-104.83888499968947, 41.145135000026329],
            [-104.83896900025339, 41.144659999884439],
            [-104.83939600005064, 41.142470000232876],
            [-104.83990200038895, 41.139647999905812],
            [-104.83992400013025, 41.139523000282907],
            [-104.83997000016099, 41.139281000319649],
            [-104.84002700006242, 41.138990999964697],
            [-104.84026499971378, 41.137768999739315],
            [-104.84036099997326, 41.137275000052441],
            [-104.84043999961598, 41.136902000335439],
            [-104.84014099986523, 41.136752000027215],
            [-104.83997900038185, 41.136660000173606],
            [-104.83851499979363, 41.13593199981154],
            [-104.83762199984105, 41.135486999863254],
            [-104.83713599959424, 41.135245999870172],
            [-104.8372090002875, 41.135174000166487],
            [-104.83795999994985, 41.135548000209539],
            [-104.83871599963508, 41.135926000014763],
            [-104.83953900016579, 41.136336999709968],
            [-104.84022500042913, 41.136663999993445],
            [-104.84031400011759, 41.136706000116519],
            [-104.84034199970667, 41.136720000151598],
            [-104.84045899988254, 41.136776000261939],
            [-104.84056400036285, 41.13683099969554],
            [-104.84058100008129, 41.136839999942922],
            [-104.84066999976973, 41.136885999759606],
            [-104.84074400028788, 41.13655000029695],
            [-104.84124100040536, 41.133993999701175],
            [-104.84128800026103, 41.13383700019984],
            [-104.84141600030755, 41.133400000285967],
            [-104.84149400012535, 41.133139999906639],
            [-104.84178500037848, 41.132345999739627],
            [-104.84181200014267, 41.132280999712009],
            [-104.84188099973963, 41.132117000001436],
            [-104.84205999983979, 41.1316990000402],
            [-104.84211000006852, 41.131580999705058],
            [-104.84252699982001, 41.130772999667009],
            [-104.84289300041621, 41.130159999834518],
            [-104.84293600007392, 41.130089000016923],
            [-104.84347300037436, 41.129307000268867],
            [-104.84385499996579, 41.128808000088007],
            [-104.84435799993103, 41.128229000307101],
            [-104.84486799956896, 41.127661999906941],
            [-104.84566400033546, 41.12688400006838],
            [-104.84638099966266, 41.126258000319851],
            [-104.84686100006168, 41.1258400002475],
            [-104.84771899985415, 41.12512800032674],
            [-104.84791399984783, 41.124964999786577],
            [-104.84794499980997, 41.124939999833977],
            [-104.84797800032025, 41.124912000146423],
            [-104.84849800000394, 41.124470999769791],
            [-104.8486929999976, 41.124307000161117],
            [-104.84917699969628, 41.123805000074277],
            [-104.84921699987923, 41.123765000115164],
            [-104.84968999970727, 41.123209000121022],
            [-104.85005299993041, 41.122702000270216],
            [-104.85039900043515, 41.122113999834298],
            [-104.85042799984915, 41.122066000132321],
            [-104.85062200001791, 41.12162299988664],
            [-104.85067999974423, 41.121476999902086],
            [-104.85078799969925, 41.121203999875306],
            [-104.85088300013381, 41.120901000308109],
            [-104.85098699989089, 41.120490000006292],
            [-104.85103399974655, 41.120248000210346],
            [-104.85108599962507, 41.119836999879723],
            [-104.85111800031045, 41.119481000126243],
            [-104.85112599980806, 41.119160000120672],
            [-104.85112099978519, 41.118939999699272],
            [-104.85249599978663, 41.118445000115472],
            [-104.85255500023615, 41.118425000197355],
            [-104.85326499989064, 41.118169999861493],
            [-104.85330000005074, 41.120133999734385],
            [-104.85331500011935, 41.120395999951036],
            [-104.85337799986854, 41.120401000288524],
            [-104.853550000296, 41.120310000041727],
            [-104.85364900003019, 41.120391000289906],
            [-104.85412299968313, 41.120036999897728],
            [-104.8544449998984, 41.120124999902103],
            [-104.85524699961439, 41.120123000164767],
            [-104.85641300027676, 41.119996999672225],
            [-104.85653799995023, 41.119782999946288],
            [-104.85703099986974, 41.11974099981699],
            [-104.85703300041787, 41.119765000184181],
            [-104.85762599989648, 41.119721999830233],
            [-104.85757099964489, 41.119456000114702],
            [-104.85738400004713, 41.119087000136417],
            [-104.85730600022934, 41.118975999671051],
            [-104.85791799997453, 41.118846000131064],
            [-104.85798599974659, 41.119039999797657],
            [-104.85846899962036, 41.118933000153639],
            [-104.85823400034204, 41.119996999672225],
            [-104.86081500029049, 41.120003000248971],
            [-104.86235699979817, 41.119756000301308],
            [-104.86320899974288, 41.11928199998728],
            [-104.86111999988901, 41.11725300031047],
            [-104.86007399977555, 41.116834000148209],
            [-104.85985200001771, 41.116745000210315],
            [-104.85973400001691, 41.116696999965562],
            [-104.85961400036634, 41.116654000308714],
            [-104.85946500040342, 41.116609000102514],
            [-104.85926299983873, 41.116558000327856],
            [-104.85912200027175, 41.11652999977121],
            [-104.85897900015659, 41.116506999836758],
            [-104.85883500021656, 41.116490000115434],
            [-104.85868999955329, 41.116478999935133],
            [-104.85854499978832, 41.116472000127047],
            [-104.85839900019847, 41.116472000127047],
            [-104.85825299971027, 41.116477000086704],
            [-104.85810799994532, 41.116487000004902],
            [-104.85796300018036, 41.116503000141591],
            [-104.85788299981444, 41.116509999946373],
            [-104.85782000006525, 41.116524000230449],
            [-104.85767899959994, 41.116550000266678],
            [-104.85753899985785, 41.116581999828668],
            [-104.85740199959049, 41.116619000000611],
            [-104.85705599998408, 41.116045000270937],
            [-104.85702699967179, 41.115995999921182],
            [-104.85892300008011, 41.115263000322706],
            [-104.86028100036312, 41.114761000090297],
            [-104.86010499973767, 41.114686000048181],
            [-104.86019199977633, 41.114649999753865],
            [-104.86036099983072, 41.114582000272101],
            [-104.86012300017936, 41.114487000261072],
            [-104.85996699964544, 41.114424000049695],
            [-104.8620909996594, 41.113610999729097],
            [-104.86211900014681, 41.113599999743144],
            [-104.86421800004642, 41.112819000089381],
            [-104.86728799971641, 41.111665000236201],
            [-104.8693699998976, 41.110879000189165],
            [-104.8696519999299, 41.110772999774476],
            [-104.8706160000276, 41.110411000171176],
            [-104.87177900031691, 41.109950000028789],
            [-104.87314199972447, 41.109281999790412],
            [-104.87402600035452, 41.108788000179281],
            [-104.87475899957523, 41.108313000146019],
            [-104.87575000033543, 41.107626000070688],
            [-104.87617200010982, 41.107340000161713],
            [-104.87687099989365, 41.106867999679686],
            [-104.87899099970964, 41.105417000025149],
            [-104.87991700017251, 41.10485000019365],
            [-104.88098800040034, 41.104266000025568],
            [-104.88215300033947, 41.103709000243313],
            [-104.8834639998685, 41.103183000010247],
            [-104.88450400013416, 41.102832000290732],
            [-104.88512400027527, 41.102635999839407],
            [-104.88604700036508, 41.102373000013834],
            [-104.88638200010084, 41.102283000300119],
            [-104.88735399969613, 41.102021000220738],
            [-104.88999800029211, 41.101303000247562],
            [-104.89012799998845, 41.101267000061064],
            [-104.89232999982022, 41.100670999898107],
            [-104.8935809999731, 41.100334999798335],
            [-104.89430400004638, 41.100129000317544],
            [-104.89452900017727, 41.100065000031883],
            [-104.89505600043195, 41.099882000055501],
            [-104.89575100001781, 41.099592000217626],
            [-104.89641700018969, 41.099252999792292],
            [-104.89682100042073, 41.099012000085288],
            [-104.89753699992299, 41.098517999708285],
            [-104.89797200011616, 41.098133999825087],
            [-104.89836499957823, 41.097744999695912],
            [-104.89869199981639, 41.097372999907726],
            [-104.89896200015313, 41.097001000043704],
            [-104.89926299955368, 41.096530000283522],
            [-104.89957800009628, 41.095864000076126],
            [-104.89978700033363, 41.095344000095047],
            [-104.8999189996798, 41.094671999865398],
            [-104.89994999964193, 41.094373000064913],
            [-104.89998200032731, 41.094005999776343]
          ]
        ]
      },
      "properties": {
        "AREALAND": "37298311",
        "AREAWATER": "116951",
        "BASENAME": "8",
        "CENTLAT": "+41.1109276",
        "CENTLON": "-104.8406420",
        "FUNCSTAT": "N",
        "GEOID": "56008",
        "HU100": null,
        "INTPTLAT": "+41.1122817",
        "INTPTLON": "-104.8394987",
        "LDTYP": "O",
        "LSADC": "LU",
        "LSY": "2024",
        "MTFCC": "G5210",
        "NAME": "State Senate District 8",
        "OBJECTID": 182,
        "OID": "2129035951824651",
        "POP100": null,
        "SLDU": "008",
        "STATE": "56"
      }
    }
  ]
}
