{
  "type": "FeatureCollection",
  "features": [
    {
      "type": "Feature",
      "id": 401,
      "geometry": {
        "type": "Polygon",
        "coordinates": [
          [
            [-96.023945000347581, 41.232627000149314],
            [-96.023946000172501, 41.232532000250963],
            [-96.023920000233218, 41.231944999801001],
            [-96.023868000354696, 41.231211000136682],
            [-96.02387800040043, 41.23066400027416],
            [-96.023891999745814, 41.229680000135538],
            [-96.023890000095975, 41.22885000029703],
            [-96.023888000446163, 41.227314000118362],
            [-96.023904000339712, 41.227076999693402],
            [-96.023912999662201, 41.226719999911907],
            [-96.023905999989523, 41.225859999955929],
            [-96.023909000362565, 41.225671999844842],
            [-96.023915000210337, 41.225326999941942],
            [-96.023910000187485, 41.22515199975556],
            [-96.023905999989523, 41.225009999758242],
            [-96.023900999966642, 41.224848000241124],
            [-96.0238330001946, 41.224621999944034],
            [-96.023803000057356, 41.224142999808585],
            [-96.023864000156735, 41.223941999822408],
            [-96.02386499998164, 41.223726000227622],
            [-96.023865999806546, 41.223507999956958],
            [-96.023863000331815, 41.22343000002455],
            [-96.02387800040043, 41.222497000325404],
            [-96.023880000050241, 41.222411999877338],
            [-96.023890999920908, 41.222280000011814],
            [-96.023890000095975, 41.222106999784614],
            [-96.023894000293936, 41.221680999976947],
            [-96.02389500011887, 41.221644000303606],
            [-96.02389500011887, 41.221575000272537],
            [-96.02389599994379, 41.221538999874866],
            [-96.02389599994379, 41.221512000239322],
            [-96.023896999768695, 41.221440000030505],
            [-96.023899000316817, 41.221194999805398],
            [-96.023905000164604, 41.219718999892834],
            [-96.023904000339712, 41.219605000060284],
            [-96.023859000133854, 41.21507999972615],
            [-96.023855999760812, 41.214310000307982],
            [-96.023864000156735, 41.213508999840279],
            [-96.023850999737945, 41.213089000286814],
            [-96.023847000438295, 41.212694999824798],
            [-96.023854000110987, 41.212620000279308],
            [-96.023855999760812, 41.21255200033773],
            [-96.023859000133854, 41.212496000094227],
            [-96.023854999935892, 41.212282000170312],
            [-96.023843000240333, 41.211853000090301],
            [-96.02384599971505, 41.211459999783372],
            [-96.023837000392561, 41.210836999856845],
            [-96.02383200036968, 41.210720000232953],
            [-96.023793999836528, 41.209797000219126],
            [-96.023777999942993, 41.209031000250832],
            [-96.023776000293182, 41.208904000083734],
            [-96.023774999569952, 41.208815000069855],
            [-96.023774999569952, 41.2087210002502],
            [-96.023771000270301, 41.208050999852865],
            [-96.023787999988741, 41.207332999891015],
            [-96.023792000186702, 41.207115999955079],
            [-96.0237999996843, 41.206788999698233],
            [-96.023768999722165, 41.20528300011479],
            [-96.023779999592833, 41.20465599976793],
            [-96.023784999615685, 41.203801999972043],
            [-96.023782000140955, 41.203089999753992],
            [-96.023793999836528, 41.202924999802448],
            [-96.023802000232436, 41.2028150002795],
            [-96.0237999996843, 41.202406000302425],
            [-96.02381300010309, 41.20205700012523],
            [-96.023783999790794, 41.201797999970005],
            [-96.023781000316035, 41.201376999941772],
            [-96.023771000270301, 41.200227999833515],
            [-96.023776000293182, 41.199938000108737],
            [-96.023778999767913, 41.199826999953302],
            [-96.023793999836528, 41.199048000318776],
            [-96.023791000361797, 41.197307999991757],
            [-96.023777000118073, 41.194405000151505],
            [-96.023772999920126, 41.193444999760295],
            [-96.023760000399648, 41.193282999805774],
            [-96.023716999843643, 41.191662999843423],
            [-96.023731000087338, 41.191429000095646],
            [-96.023729000437513, 41.191252000207498],
            [-96.023721999866495, 41.191083000276357],
            [-96.023813999928009, 41.190697000285581],
            [-96.023748999630698, 41.190697000285581],
            [-96.023680000033707, 41.19069599980277],
            [-96.02359600036813, 41.190694999995976],
            [-96.022156000069373, 41.190688999802852],
            [-96.021986000190054, 41.190687999995944],
            [-96.021407000056826, 41.190684999899112],
            [-96.020766999824232, 41.190683000285155],
            [-96.020766999824232, 41.190692999706307],
            [-96.020181000018297, 41.190698000092347],
            [-96.019991000047511, 41.190698999899105],
            [-96.01900900040647, 41.190706999704588],
            [-96.018098999837122, 41.190713999702574],
            [-96.017601999719673, 41.190718000280569],
            [-96.017414000297009, 41.190722000182241],
            [-96.014998000204997, 41.19073900026882],
            [-96.014661999746025, 41.190741999687162],
            [-96.014245999819408, 41.19074499978133],
            [-96.014162000153817, 41.190727999696371],
            [-96.013986000426726, 41.190730999791235],
            [-96.012619999747798, 41.190708999993824],
            [-96.012582000112971, 41.190708000187215],
            [-96.011929000359899, 41.190698000092347],
            [-96.011151999859962, 41.190702999801942],
            [-96.00983600030807, 41.190712000089505],
            [-96.009821000239455, 41.190712000089505],
            [-96.009675999576189, 41.190708999993824],
            [-96.009407999787584, 41.190705000091306],
            [-96.00931699955099, 41.190702999801942],
            [-96.009261000372803, 41.190701999995248],
            [-96.009134000151192, 41.190699999705842],
            [-96.008709999828682, 41.190691999899457],
            [-96.008681000414668, 41.190691000092599],
            [-96.008554000193058, 41.190688999802852],
            [-96.007595999943149, 41.190671999703298],
            [-96.007048999596975, 41.190670000088936],
            [-96.006241999858119, 41.190667999798556],
            [-96.006217999568662, 41.190667999798556],
            [-96.005917999993017, 41.190667999798556],
            [-96.005214000186328, 41.190666999991336],
            [-96.005194000094832, 41.190666999991336],
            [-96.004963999941069, 41.190666999991336],
            [-96.004946000397723, 41.190666999991336],
            [-96.004620999809376, 41.190666000184088],
            [-96.003214999845824, 41.190666000184088],
            [-96.001993000005271, 41.190671999703298],
            [-96.000920000127621, 41.190677999898014],
            [-95.999821000310718, 41.190684000092141],
            [-95.99935500015539, 41.190681999802138],
            [-95.999334000238989, 41.190681999802138],
            [-95.99841100014919, 41.190678999705078],
            [-95.998057000146858, 41.190677999898014],
            [-95.997841000236789, 41.190677000090943],
            [-95.997466000318084, 41.19067499980072],
            [-95.996828999560208, 41.190680000188088],
            [-95.994892000042313, 41.190698000092347],
            [-95.99488000034674, 41.190698000092347],
            [-95.994377000381505, 41.190705000091306],
            [-95.993507999820039, 41.190712000089505],
            [-95.993491000101614, 41.190712000089505],
            [-95.993087999695476, 41.190713999702574],
            [-95.993013000250713, 41.190715000185108],
            [-95.992828000302779, 41.190716999798084],
            [-95.992174999651397, 41.190723999795004],
            [-95.992111000077301, 41.190725000277389],
            [-95.992007000320228, 41.190726000083728],
            [-95.991743999656194, 41.190729000178678],
            [-95.991687999579696, 41.190729999984967],
            [-95.991527999746125, 41.190730999791235],
            [-95.991399999699595, 41.190732000273449],
            [-95.990876999642865, 41.190736999980501],
            [-95.990071999553834, 41.190740999881065],
            [-95.989905999872477, 41.190741999687162],
            [-95.989653000152501, 41.190743000169213],
            [-95.989368999572037, 41.190743999975282],
            [-95.989323000439612, 41.190743999975282],
            [-95.988617000084759, 41.190747999875427],
            [-95.987430000404316, 41.19075300025721],
            [-95.986650000429648, 41.1907570001568],
            [-95.986620000292405, 41.1907570001568],
            [-95.986266000290087, 41.190758999768498],
            [-95.985794000286973, 41.190761000056142],
            [-95.984595000012646, 41.190765999760934],
            [-95.984504999600958, 41.190767000242666],
            [-95.984236999812353, 41.190768000048365],
            [-95.983877999787154, 41.190768999854058],
            [-95.98246400032599, 41.190774000234285],
            [-95.982380999586994, 41.190774000234285],
            [-95.98189799971324, 41.190775999845414],
            [-95.981865000101266, 41.190777000326996],
            [-95.981569999650176, 41.190778999938075],
            [-95.981412000364728, 41.190778999938075],
            [-95.980803999919189, 41.190782999836088],
            [-95.980367999901091, 41.190785999928373],
            [-95.980157999838823, 41.1907880002152],
            [-95.980116000006021, 41.1907880002152],
            [-95.979524000352313, 41.190791000307307],
            [-95.979426000443027, 41.190792000112651],
            [-95.978109000167919, 41.190796999815063],
            [-95.978033999824831, 41.190796999815063],
            [-95.977654999708164, 41.190798000296326],
            [-95.977626000294165, 41.190798000296326],
            [-95.977408999660867, 41.190799000101556],
            [-95.977380000246868, 41.190799000101556],
            [-95.977015000373882, 41.190799999906766],
            [-95.976119000048243, 41.190806999894868],
            [-95.976058999773798, 41.190806999894868],
            [-95.975084999630354, 41.190813999882174],
            [-95.974689999620139, 41.190816999973094],
            [-95.974671000251874, 41.190816999973094],
            [-95.974574000167522, 41.190816999973094],
            [-95.973492999893949, 41.190819000258919],
            [-95.973316000341939, 41.190819000258919],
            [-95.973199999990982, 41.190819000258919],
            [-95.972215999801804, 41.190821999673602],
            [-95.970183000024434, 41.190838999734211],
            [-95.969767999922738, 41.190841999823938],
            [-95.968816000418926, 41.19084499991358],
            [-95.96744100041748, 41.19084899980755],
            [-95.96739600021165, 41.19084899980755],
            [-95.966425000441262, 41.190851999896822],
            [-95.964985999967411, 41.190858000075039],
            [-95.964000999953328, 41.190861999968163],
            [-95.963585999851631, 41.190864000252667],
            [-95.962545999585942, 41.190866999665289],
            [-95.962532000240557, 41.190866999665289],
            [-95.962475000339154, 41.190866999665289],
            [-95.961392000415771, 41.190869999753779],
            [-95.960984999811686, 41.190869999753779],
            [-95.9600500000263, 41.190871000233876],
            [-95.958926000095047, 41.190871000233876],
            [-95.958897999607643, 41.190871000233876],
            [-95.957693000383841, 41.190875999930306],
            [-95.955221000215332, 41.190886999801883],
            [-95.955160999940858, 41.190886999801883],
            [-95.954898000175135, 41.19088800028176],
            [-95.954740999816281, 41.190889000085612],
            [-95.953631999953643, 41.190895000260404],
            [-95.952841000108307, 41.190899999955008],
            [-95.952827999689504, 41.190899999955008],
            [-95.950967000339602, 41.190910000019024],
            [-95.950414999970548, 41.190913000105496],
            [-95.950392000404321, 41.190913000105496],
            [-95.950100000326287, 41.190910999822542],
            [-95.950072999663789, 41.190910999822542],
            [-95.950020999785252, 41.190912000302006],
            [-95.949928999723753, 41.190913999908965],
            [-95.949392000321623, 41.190927000056732],
            [-95.949055999862637, 41.190933000228036],
            [-95.9480599999779, 41.190951000062725],
            [-95.947948999649824, 41.190952999668504],
            [-95.94793299975629, 41.190952999668504],
            [-95.946031000398492, 41.190950000259818],
            [-95.945550999999469, 41.190960000316203],
            [-95.945526999710012, 41.190960000316203],
            [-95.943929000125834, 41.190978000143424],
            [-95.943625000352213, 41.190982000029273],
            [-95.943211999900342, 41.190979999748379],
            [-95.943092000249749, 41.190978999945905],
            [-95.943072999983173, 41.190978999945905],
            [-95.940655000241321, 41.190985000112484],
            [-95.939751000418084, 41.190988000195524],
            [-95.939799999923579, 41.191097000191249],
            [-95.939936000366018, 41.19139300000819],
            [-95.940512000126176, 41.192693999705533],
            [-95.940531000392753, 41.192749000221596],
            [-95.940974000083557, 41.193685000332984],
            [-95.94134300015449, 41.194494999909999],
            [-95.941471000201005, 41.194771000290459],
            [-95.94158500000384, 41.195021999910203],
            [-95.941639000430499, 41.195141000042696],
            [-95.941672999867379, 41.195216000020686],
            [-95.941943000204105, 41.195681999860099],
            [-95.942226000061325, 41.196098000047279],
            [-95.942585000086524, 41.196500999904231],
            [-95.942915999624333, 41.196830000301091],
            [-95.943112000341216, 41.197025000170818],
            [-95.943928000300915, 41.197807999694263],
            [-95.945264999769194, 41.19904099986006],
            [-95.946365000309342, 41.200087999800516],
            [-95.946803999802157, 41.200518999957772],
            [-95.947255999713775, 41.200998000069092],
            [-95.947709000348624, 41.201507999767166],
            [-95.947797000212162, 41.201616000179335],
            [-95.948238000253141, 41.202158999813669],
            [-95.948332999789386, 41.202288999795805],
            [-95.948347000033081, 41.202332000081441],
            [-95.948629000065381, 41.202720999950813],
            [-95.948763999784589, 41.202933000141456],
            [-95.948900000227027, 41.203168999902992],
            [-95.949182000259341, 41.203772999883846],
            [-95.949250000031412, 41.203968000019955],
            [-95.949340000443101, 41.204528000299632],
            [-95.94936800003218, 41.20477199983015],
            [-95.949379999727739, 41.205008999982198],
            [-95.949383000100781, 41.205601999775837],
            [-95.949388000123662, 41.207234000171432],
            [-95.949390999598393, 41.207893999977948],
            [-95.949429000131545, 41.208168999734681],
            [-95.949428000306639, 41.208300999693961],
            [-95.949438000352387, 41.209537000091856],
            [-95.949455000070813, 41.209773999880404],
            [-95.949471999789253, 41.209893999736806],
            [-95.949489000406004, 41.210011999673796],
            [-95.949538999736404, 41.210249999953028],
            [-95.949568999873634, 41.210505999905898],
            [-95.949598000185958, 41.210595999825607],
            [-95.949717999836565, 41.21090400005555],
            [-95.949761000392556, 41.211004999973227],
            [-95.949800999677223, 41.211098999890389],
            [-95.949875000195391, 41.211249999848349],
            [-95.949953999838101, 41.21139099982112],
            [-95.950009000089679, 41.211490000008681],
            [-95.950152000204824, 41.211711000275884],
            [-95.950285000274206, 41.211889999896179],
            [-95.950428000389337, 41.212064999753665],
            [-95.950568999956332, 41.212226999849406],
            [-95.950696000177928, 41.212332999836796],
            [-95.951798000367901, 41.213522000230725],
            [-95.952292000112308, 41.214095000111165],
            [-95.952373000303155, 41.214271000274486],
            [-95.952512000220338, 41.214476000052038],
            [-95.952675000426964, 41.21470499994377],
            [-95.952963000307051, 41.215209000284148],
            [-95.953087000155605, 41.21545600016605],
            [-95.953241000141389, 41.215798999913339],
            [-95.953375000035706, 41.216133999813792],
            [-95.953461000249419, 41.216382999761876],
            [-95.95352800019657, 41.216611999734951],
            [-95.953619000433164, 41.216975999856935],
            [-95.953691000403197, 41.21730600010666],
            [-95.9537480003046, 41.217506000143928],
            [-95.953724000015157, 41.217746000327409],
            [-95.953739999908677, 41.217976000324505],
            [-95.953743000281719, 41.218234999961147],
            [-95.953735999710702, 41.218525999740827],
            [-95.95371899999229, 41.218801000079679],
            [-95.953662000090873, 41.219311000215214],
            [-95.95362399955772, 41.219513000287598],
            [-95.9535730004024, 41.219722000010258],
            [-95.953523999998609, 41.219910000334657],
            [-95.953390999929226, 41.22042300001609],
            [-95.953154000102757, 41.221040999773336],
            [-95.952538000159592, 41.222053000295631],
            [-95.952516000418299, 41.222084999722888],
            [-95.952421999808664, 41.222225999989988],
            [-95.95239199967142, 41.222262000009479],
            [-95.952266000173054, 41.222502000308531],
            [-95.952239000408866, 41.222543000156136],
            [-95.952217999594154, 41.222596999916156],
            [-95.951883999683304, 41.223452000309436],
            [-95.951852999721169, 41.223706999969501],
            [-95.951852999721169, 41.224086000056786],
            [-95.951871999987745, 41.224427999849283],
            [-95.951964999874164, 41.224801000043378],
            [-95.952071000179373, 41.225023999847799],
            [-95.952133000103672, 41.225139000325306],
            [-95.952237999685636, 41.225329999802057],
            [-95.952251000104425, 41.225354000029334],
            [-95.952263999624904, 41.225377000295225],
            [-95.952287999914361, 41.225422000175151],
            [-95.952318000051577, 41.225468999926541],
            [-95.952366999557071, 41.225541999703445],
            [-95.952405999915129, 41.22560200006069],
            [-95.952585000015262, 41.225821999998651],
            [-95.952735999628018, 41.225980999975143],
            [-95.952902000207672, 41.226134999860001],
            [-95.953123000140621, 41.226333999985734],
            [-95.953161999600368, 41.22636899983322],
            [-95.953231999920561, 41.226432999853273],
            [-95.953666000288834, 41.226577000007204],
            [-95.953729000038024, 41.226597000041011],
            [-95.95376500002304, 41.226608999923258],
            [-95.954129999896026, 41.226715000251232],
            [-95.954156999660199, 41.226722999708116],
            [-95.954192999645215, 41.226738999970223],
            [-95.954237999851046, 41.226758000023011],
            [-95.954215000284819, 41.226788999919457],
            [-95.954083999865276, 41.226964999706858],
            [-95.954050000428381, 41.227009999845144],
            [-95.954115999652316, 41.227066999750669],
            [-95.954317000392095, 41.227218999931424],
            [-95.954361999699614, 41.22725399998081],
            [-95.954448999738247, 41.227333000004023],
            [-95.954702000356548, 41.227582999799253],
            [-95.954885999581236, 41.227790000249406],
            [-95.95504299994009, 41.227988000154866],
            [-95.955153000443261, 41.22814700026936],
            [-95.95530900007887, 41.228364999938059],
            [-95.955426000254732, 41.228661999999787],
            [-95.955469999737346, 41.228841999749136],
            [-95.955495999676629, 41.228933000011864],
            [-95.955529000186885, 41.229091999855044],
            [-95.95556299962378, 41.229295999903435],
            [-95.955565999996821, 41.22945099997829],
            [-95.955569000369863, 41.229621999917825],
            [-95.955923000372195, 41.229592999789702],
            [-95.956038999824841, 41.229581999667829],
            [-95.955976000075651, 41.22972899997653],
            [-95.955879999816176, 41.229940999802871],
            [-95.955648999837493, 41.230612000165131],
            [-95.955489000003922, 41.231117999937062],
            [-95.95529200036043, 41.231781000191496],
            [-95.955241000306799, 41.232057999889896],
            [-95.955027000046556, 41.232938000187843],
            [-95.954826000205102, 41.233605000207724],
            [-95.954504999814731, 41.234524000087305],
            [-95.954243999698818, 41.235528000279544],
            [-95.954097000284051, 41.236206999690125],
            [-95.954006999872362, 41.23698900003177],
            [-95.95400199984951, 41.237057000236099],
            [-95.95396500003956, 41.237551000212804],
            [-95.953918000183918, 41.23844399968543],
            [-95.953908999963076, 41.239003000282402],
            [-95.953913000161037, 41.239153000248947],
            [-95.954284999706715, 41.23914600002847],
            [-95.954468999829729, 41.239156999892096],
            [-95.954494999768997, 41.238993999881657],
            [-95.954500999616783, 41.238839999887951],
            [-95.954509999837626, 41.238745999985404],
            [-95.954493000119186, 41.238186999892399],
            [-95.957804999638512, 41.238175000108676],
            [-95.957801000338875, 41.237826000255893],
            [-95.957905000095934, 41.237836999666143],
            [-95.959024999829253, 41.2378380001037],
            [-95.960178000072816, 41.2378380001037],
            [-95.960328999685558, 41.23784999994929],
            [-95.960465999952916, 41.237861000030982],
            [-95.961686000143644, 41.237861999792685],
            [-95.963019000312286, 41.237860000269308],
            [-95.964278999787666, 41.237861000030982],
            [-95.965534000138504, 41.237858000070283],
            [-95.967539000326795, 41.237858999832049],
            [-95.967785000374079, 41.237861000030982],
            [-95.968043999941855, 41.237863999991525],
            [-95.968681999626313, 41.237866000190365],
            [-95.969921999908536, 41.23786699995194],
            [-95.971081999824804, 41.237867999713558],
            [-95.971932999944585, 41.237869000150681],
            [-95.972182000364953, 41.237869999912213],
            [-95.973415000076145, 41.237869999912213],
            [-95.97341699972597, 41.238442000179795],
            [-95.974624000396233, 41.23844399968543],
            [-95.975664999588503, 41.238445000113686],
            [-95.975820000297517, 41.238439000245776],
            [-95.975821999947328, 41.237057000236099],
            [-95.975826999970195, 41.235666999665497],
            [-95.97582899962002, 41.234239999958753],
            [-95.977025000419616, 41.234243999902539],
            [-95.979002000120502, 41.2342470000291],
            [-95.980633000214965, 41.234251999789322],
            [-95.981836999613861, 41.234253000281797],
            [-95.982929999582993, 41.234254999915514],
            [-95.983038000436338, 41.234236999831872],
            [-95.983153000064064, 41.234217999925846],
            [-95.983293999631044, 41.23421899974327],
            [-95.984235000162542, 41.234221999870982],
            [-95.985320999560642, 41.234221999870982],
            [-95.985431000063826, 41.234217000108409],
            [-95.985894999671018, 41.234209000217334],
            [-95.986517000360237, 41.234235000197557],
            [-95.986631000163072, 41.234248999663002],
            [-95.986723000224572, 41.234259999675196],
            [-95.987832999912143, 41.23425899985839],
            [-95.989029999638319, 41.234255999732383],
            [-95.990237000308582, 41.234255999732383],
            [-95.990235999585366, 41.233800999744297],
            [-95.990243000156369, 41.231540000311284],
            [-95.990247000354316, 41.23062599973084],
            [-95.990243000156369, 41.229092999750868],
            [-95.990234999760446, 41.226997000108675],
            [-95.991198000033222, 41.226997000108675],
            [-95.992032000434591, 41.227002999675527],
            [-95.994057999640944, 41.22699199979354],
            [-95.99510200010458, 41.22699199979354],
            [-95.995087999860885, 41.227169000311001],
            [-95.995076000165326, 41.228717999914863],
            [-95.995081000188179, 41.228813999850694],
            [-95.995072999792256, 41.228908999746999],
            [-95.995060000271792, 41.230545999759286],
            [-95.995063999571443, 41.230579000308339],
            [-95.995072999792256, 41.230598999793607],
            [-95.995087999860885, 41.230613000037707],
            [-95.995132000241824, 41.230627000278758],
            [-95.996029000392369, 41.23062599973084],
            [-95.997221999920598, 41.230623999986065],
            [-95.997462999945014, 41.230618000075872],
            [-95.997777999589289, 41.230812999915877],
            [-95.99814599983533, 41.231053999773678],
            [-95.998904999893611, 41.231527999982895],
            [-95.999642000210585, 41.231994999822582],
            [-95.999998999687634, 41.232210999800557],
            [-96.000320000078005, 41.232429000105562],
            [-96.000720999935993, 41.232704000079472],
            [-96.001137999687515, 41.233039999695791],
            [-96.001447000382313, 41.233332000308245],
            [-96.001597999995056, 41.233484999939499],
            [-96.0017350002624, 41.233632000254637],
            [-96.001999999677963, 41.233959000087218],
            [-96.002214999763112, 41.234254000098645],
            [-96.002300000151934, 41.234371000185625],
            [-96.002489000297828, 41.234681000223475],
            [-96.002583000009153, 41.234858000191615],
            [-96.002725000299378, 41.235154999805481],
            [-96.002808999964955, 41.235348999823252],
            [-96.00290299967628, 41.235608000234393],
            [-96.003008000156584, 41.235952000140578],
            [-96.003030999722796, 41.236062000015281],
            [-96.003082999601332, 41.236360999807829],
            [-96.003128999632096, 41.236670999865694],
            [-96.003142000050872, 41.236853000086363],
            [-96.003145000423942, 41.237118999705139],
            [-96.003178000035888, 41.237497999734998],
            [-96.002958999752778, 41.237565000319137],
            [-96.002122999701598, 41.237870999673788],
            [-96.002624000017022, 41.237872000110862],
            [-96.002755000436593, 41.23788399995022],
            [-96.002865000041453, 41.237870999673788],
            [-96.003705000290594, 41.237869000150681],
            [-96.00473100031256, 41.237869999912213],
            [-96.005522999982816, 41.237872000110862],
            [-96.005948000130246, 41.237880000229168],
            [-96.007144000031531, 41.237883000188852],
            [-96.008339000107895, 41.237884999711525],
            [-96.009577999666902, 41.237886000148386],
            [-96.009797999774932, 41.237886000148386],
            [-96.010017999882947, 41.237886999909719],
            [-96.010458999923927, 41.237886999909719],
            [-96.010761000047708, 41.237887999670967],
            [-96.010949000368683, 41.237887999670967],
            [-96.011953999575937, 41.237892999828297],
            [-96.012309000301485, 41.237903000141678],
            [-96.012555000348797, 41.237909999819756],
            [-96.01335000039208, 41.237836999666143],
            [-96.013838000288715, 41.23779200022485],
            [-96.013920000304481, 41.237784999858604],
            [-96.013984999703496, 41.237779999693082],
            [-96.014428000292597, 41.237678000150524],
            [-96.014887999701827, 41.237543999820808],
            [-96.015197000396626, 41.237444000121663],
            [-96.015785999677277, 41.23722700009975],
            [-96.016153999923318, 41.237069999998909],
            [-96.016493999681927, 41.236934999997914],
            [-96.01659900016223, 41.236895000169241],
            [-96.016841000011553, 41.236798000162189],
            [-96.016974000080964, 41.236743999970535],
            [-96.017252999740222, 41.236633999892462],
            [-96.017980000011448, 41.236360000023168],
            [-96.019379000302308, 41.235872999723313],
            [-96.020765999999313, 41.235310000175815],
            [-96.021062000275322, 41.235233999739457],
            [-96.021110999780817, 41.235222000089152],
            [-96.021151999788685, 41.235204000271715],
            [-96.021304000124658, 41.235146000225974],
            [-96.022086999574071, 41.234887999818085],
            [-96.022202000100123, 41.234842999697648],
            [-96.02320300000774, 41.234660000149674],
            [-96.02392799973083, 41.234510999818205],
            [-96.02392400043118, 41.234364000128558],
            [-96.023921999883029, 41.234294000192392],
            [-96.023922999707963, 41.234120000180624],
            [-96.02392400043118, 41.233886000249882],
            [-96.023945000347581, 41.232627000149314]
          ]
        ]
      },
      "properties": {
        "AREALAND": "30624791",
        "AREAWATER": "100121",
        "BASENAME": "5",
        "CENTLAT": "+41.2125059",
        "CENTLON": "-095.9865520",
        "FUNCSTAT": "N",
        "GEOID": "31005",
        "HU100": null,
        "INTPTLAT": "+41.2116707",
        "INTPTLON": "-095.9872807",
        "LDTYP": "O",
        "LSADC": "LU",
        "LSY": "2024",
        "MTFCC": "G5210",
        "NAME": "State Senate District 5",
        "OBJECTID": 401,
        "OID": "2129035951822191",
        "POP100": null,
        "SLDU": "005",
        "STATE": "31"
      }
    }
  ]
}
