{
  "type": "FeatureCollection",
  "features": [
    {
      "type": "Feature",
      "id": 2365,
      "geometry": {
        "type": "Polygon",
        "coordinates": [
          [
            [-84.567979999858593, 38.037020999951658],
            [-84.56790299986568, 38.036717999790532],
            [-84.56777499981915, 38.036321999805828],
            [-84.567589999871231, 38.035910000307695],
            [-84.567405999748217, 38.035520000131285],
            [-84.567219999975393, 38.035200000013845],
            [-84.567317000059759, 38.03517199973362],
            [-84.567187000363418, 38.034968999858314],
            [-84.566794999827934, 38.034428000193017],
            [-84.566508999597673, 38.034068999939798],
            [-84.565340000358887, 38.032686999805634],
            [-84.5648139999291, 38.032058000229654],
            [-84.564551999988268, 38.031758999980454],
            [-84.564192000138164, 38.031322000087854],
            [-84.562193999622593, 38.028947000188367],
            [-84.561800000335595, 38.028495999793421],
            [-84.56137600001307, 38.028044000305357],
            [-84.56083899971263, 38.027510000184677],
            [-84.560789000382243, 38.027465999871332],
            [-84.560166999692996, 38.02691599973928],
            [-84.560112000339728, 38.026871999776766],
            [-84.559994000338946, 38.02677699996061],
            [-84.559684999644148, 38.026530000003625],
            [-84.559238999580316, 38.026178999712407],
            [-84.557791999608853, 38.025118000206554],
            [-84.5574700002919, 38.024887000100861],
            [-84.556870000242284, 38.024439999804144],
            [-84.555809000060208, 38.023665999979464],
            [-84.555576000431699, 38.023491999781974],
            [-84.555368000019229, 38.023332000162938],
            [-84.555203000162791, 38.023204999712448],
            [-84.554937999848931, 38.022976999716498],
            [-84.554592000242522, 38.022680999693847],
            [-84.554341000172343, 38.022435000013218],
            [-84.55427099985215, 38.022365999764624],
            [-84.55401899995708, 38.022091000179557],
            [-84.553778999757569, 38.021813999682834],
            [-84.553573999718154, 38.021550000235244],
            [-84.553315000150377, 38.021188000009467],
            [-84.553208000020248, 38.021030000214395],
            [-84.553062000430401, 38.02078999966789],
            [-84.552886999629877, 38.020480999850179],
            [-84.552725999971415, 38.020164999701379],
            [-84.55258600022934, 38.019866999710118],
            [-84.552556999917016, 38.019778999784869],
            [-84.552427000220675, 38.019439000110346],
            [-84.552356000075548, 38.019232999881517],
            [-84.552304000197012, 38.019059999750411],
            [-84.551833999843737, 38.017407000076695],
            [-84.55151099980354, 38.016247000156852],
            [-84.55141799991712, 38.01595599994247],
            [-84.551347999596928, 38.0157000001021],
            [-84.551301999566178, 38.01553100022624],
            [-84.550591999911688, 38.013011000108357],
            [-84.550427999880156, 38.012410999915417],
            [-84.549938000333725, 38.010672999653316],
            [-84.549750000012736, 38.010082000333149],
            [-84.549539999950468, 38.009520000081011],
            [-84.549397999660229, 38.009199999647215],
            [-84.54925700009322, 38.008907999651605],
            [-84.549041000183166, 38.008503999843967],
            [-84.548804000356697, 38.008108999659626],
            [-84.548672999937139, 38.007906999955992],
            [-84.548635000302312, 38.007851999887755],
            [-84.548411999821226, 38.007533000093808],
            [-84.548210000154853, 38.007263000044546],
            [-84.547984000199051, 38.006984999987772],
            [-84.547836999885959, 38.006814000256718],
            [-84.5475869996407, 38.006538000209552],
            [-84.547483999708547, 38.006433000141932],
            [-84.547324999699882, 38.006270999783005],
            [-84.546800999818245, 38.005780000012926],
            [-84.546722000175535, 38.005714000134802],
            [-84.546513999763079, 38.005537000007457],
            [-84.546224000233153, 38.005301999809994],
            [-84.545820999827029, 38.004997999955165],
            [-84.545621999635401, 38.004854000217364],
            [-84.545198000211172, 38.00457299970325],
            [-84.544983999950944, 38.004439999661287],
            [-84.544646999667052, 38.004241000297547],
            [-84.544398999969928, 38.004104000343453],
            [-84.544116000112723, 38.003960000265572],
            [-84.543690999965264, 38.003745000158816],
            [-84.543357000054428, 38.003598000226674],
            [-84.542607000216989, 38.003293999677709],
            [-84.542228999925214, 38.003155999883404],
            [-84.539699999855273, 38.002272999904697],
            [-84.536062999747628, 38.001001999776619],
            [-84.533665999922164, 38.000168999790432],
            [-84.53324699962252, 38.000021999768386],
            [-84.531165000339669, 37.999292000013178],
            [-84.530411000304255, 37.99903799981977],
            [-84.526678999762041, 37.997865000248474],
            [-84.526204000284196, 37.997714000197128],
            [-84.521813999966028, 37.996329000220705],
            [-84.521791000399816, 37.996415999694875],
            [-84.521772000133225, 37.996489000028475],
            [-84.521437000397484, 37.997748000118619],
            [-84.521270999817816, 37.998262000217572],
            [-84.520773999700353, 37.999790999846283],
            [-84.520488000368402, 38.000591000104329],
            [-84.52037200001746, 38.000919000271232],
            [-84.519950000243057, 38.002115999891807],
            [-84.51980399975487, 38.00253400022374],
            [-84.519477000415037, 38.003459000106425],
            [-84.519442000254941, 38.003568999714076],
            [-84.518663000105178, 38.005765999915056],
            [-84.518262000247177, 38.006912000192763],
            [-84.518233999759786, 38.006992000274565],
            [-84.517682000289057, 38.008545999976711],
            [-84.516724000039133, 38.011283000044507],
            [-84.516672999985516, 38.011441000327643],
            [-84.516503999931118, 38.011862000100258],
            [-84.51628600037121, 38.012413000051623],
            [-84.516079999608579, 38.012984999961134],
            [-84.515692000169381, 38.014081999845295],
            [-84.515389000220694, 38.01495000006733],
            [-84.515169999937555, 38.015579000021233],
            [-84.515025000172599, 38.015985999820984],
            [-84.514960999700193, 38.01615700009723],
            [-84.514692999911588, 38.016958000139908],
            [-84.514595000002288, 38.01723299987912],
            [-84.514355999627696, 38.017921999656195],
            [-84.514189999946339, 38.018400999654197],
            [-84.520662000445697, 38.020308999794892],
            [-84.520202000138141, 38.021210000285365],
            [-84.519744000378736, 38.022109999669404],
            [-84.518356999783435, 38.024831000137127],
            [-84.518001000131292, 38.025531000145833],
            [-84.517158000407406, 38.027186000281425],
            [-84.516640000373556, 38.028202999688638],
            [-84.516392999603028, 38.028687000351368],
            [-84.516078999783673, 38.029314000186666],
            [-84.515294999611029, 38.029139000117901],
            [-84.513173000145201, 38.028671999829172],
            [-84.512737000127117, 38.028577000224267],
            [-84.511875999961575, 38.028373999761762],
            [-84.510733999588638, 38.028115999721692],
            [-84.510675999862329, 38.028300000188771],
            [-84.51040899989863, 38.029052999688368],
            [-84.510044000025658, 38.029967999937313],
            [-84.509857000427886, 38.030438999744],
            [-84.509741000076957, 38.03073500026634],
            [-84.509470999740202, 38.031555999844535],
            [-84.509248999982361, 38.031514000160968],
            [-84.509125999958712, 38.031489999825595],
            [-84.509048000140908, 38.031481000139983],
            [-84.508960000277369, 38.031481000139983],
            [-84.5088649998428, 38.031491000340893],
            [-84.508770000306569, 38.031522000035153],
            [-84.508669999849133, 38.031573999903756],
            [-84.508387999816833, 38.031750000327897],
            [-84.508294999930413, 38.03181299999509],
            [-84.508007000050327, 38.032009000106733],
            [-84.506717000437703, 38.032915000010036],
            [-84.506536999614326, 38.033041000116441],
            [-84.506050000440922, 38.033382999919198],
            [-84.505741999571043, 38.033601999947294],
            [-84.505647999859718, 38.033674000269095],
            [-84.50544700001825, 38.0338490001173],
            [-84.505356999606576, 38.033918000164924],
            [-84.505036999939435, 38.034140000030952],
            [-84.504759999930002, 38.034318000195981],
            [-84.504078999689526, 38.034795000326042],
            [-84.502767000335595, 38.035711999813671],
            [-84.501182000271882, 38.036832000075336],
            [-84.500971000384695, 38.036983999943168],
            [-84.499788000003875, 38.037831000062823],
            [-84.499324000396697, 38.037423000178016],
            [-84.498963999648268, 38.037105000054602],
            [-84.498485999797381, 38.036676999973679],
            [-84.498132999619955, 38.036361000338893],
            [-84.495458999785086, 38.038241999651575],
            [-84.495888999955397, 38.038617000290287],
            [-84.495016999919216, 38.039246999842163],
            [-84.494292000196111, 38.039760000052404],
            [-84.494170999822302, 38.039845999938677],
            [-84.494031000080199, 38.039945999662969],
            [-84.493866000223761, 38.039468000129219],
            [-84.493835000261626, 38.039378000291308],
            [-84.49337699960391, 38.038123999862826],
            [-84.492799000193912, 38.038530999668247],
            [-84.492393000313044, 38.038817000128731],
            [-84.491410999773677, 38.039517000214602],
            [-84.490224999918127, 38.040357999803533],
            [-84.490833000363679, 38.040910999925472],
            [-84.490865999975654, 38.040941000199041],
            [-84.491002000418078, 38.041057000339343],
            [-84.491092999756376, 38.041001000001813],
            [-84.491265000183816, 38.040924999677323],
            [-84.491375999613581, 38.040893999717809],
            [-84.491487999766576, 38.040870000333527],
            [-84.491614999988187, 38.040864999812278],
            [-84.491736000361996, 38.04087399975981],
            [-84.491844000317045, 38.040893000038402],
            [-84.491944999701076, 38.040923000319353],
            [-84.492213000387977, 38.041036999718372],
            [-84.492903999775905, 38.04136500001534],
            [-84.493188000356326, 38.041498999933999],
            [-84.493529999764775, 38.04166399996155],
            [-84.493867000048681, 38.041829000324803],
            [-84.494017999661423, 38.041908000122639],
            [-84.494159999951634, 38.042003000124957],
            [-84.494250000363323, 38.042077000004149],
            [-84.495220000308791, 38.04295000007496],
            [-84.495897000351306, 38.043551000295878],
            [-84.496208999622525, 38.043833000280053],
            [-84.496688000196642, 38.044263000252457],
            [-84.497526999722552, 38.04501700010627],
            [-84.497721999716234, 38.045200999856462],
            [-84.497806000280136, 38.045317999941602],
            [-84.497865999656284, 38.045419999917677],
            [-84.497905999839247, 38.045537999976297],
            [-84.497910000037209, 38.045591999735812],
            [-84.497925000105809, 38.045639000031272],
            [-84.497940999999344, 38.045670000104245],
            [-84.497978999634185, 38.045719999897628],
            [-84.498012999969362, 38.045763999857336],
            [-84.49805599962707, 38.045809000110367],
            [-84.498404999606521, 38.046126999930976],
            [-84.498854999868328, 38.046526000174758],
            [-84.499155000342284, 38.04681500003948],
            [-84.499280999840664, 38.046943999782194],
            [-84.499371000252353, 38.047048000220904],
            [-84.499524000413231, 38.047212999770316],
            [-84.49980100042265, 38.047499000277853],
            [-84.500730000360264, 38.048345000165675],
            [-84.501655999924807, 38.047700999789889],
            [-84.504135999590915, 38.045934999964224],
            [-84.505190000100313, 38.04519699995911],
            [-84.506098999946417, 38.044566000323748],
            [-84.506801999928186, 38.044081999882501],
            [-84.507134000189211, 38.043859000093441],
            [-84.507304999893449, 38.043743999787679],
            [-84.507443999810604, 38.043650999912785],
            [-84.508135000096829, 38.043228000246444],
            [-84.50907300025527, 38.042797000202093],
            [-84.510376000286684, 38.042188999698119],
            [-84.510465999800033, 38.042146999744524],
            [-84.510337999753517, 38.041776999954571],
            [-84.510324000408133, 38.041732000053351],
            [-84.511712999754963, 38.040978000330846],
            [-84.512267999598734, 38.040677000341354],
            [-84.512501000125553, 38.040897000170936],
            [-84.51490200014895, 38.043220000235948],
            [-84.516691000427159, 38.045004000052593],
            [-84.517057000125078, 38.046179000041619],
            [-84.517288000103761, 38.046922000160187],
            [-84.517432000043797, 38.047411999885504],
            [-84.51761199996885, 38.048246000172156],
            [-84.517540999823737, 38.048253000054629],
            [-84.516407999671642, 38.048383999954858],
            [-84.516736999559612, 38.049814000279497],
            [-84.516339000074666, 38.049873000328496],
            [-84.516380000082549, 38.05007299984117],
            [-84.516237999792324, 38.05007299984117],
            [-84.515795999926453, 38.050098000007132],
            [-84.515488999779791, 38.050140999904698],
            [-84.515174000135517, 38.050197999878087],
            [-84.514856000118215, 38.050251999737434],
            [-84.514403000381677, 38.050316000017013],
            [-84.513986999556749, 38.050361999851795],
            [-84.513819000225567, 38.050375999918771],
            [-84.51361099981311, 38.050394000304159],
            [-84.513319999559982, 38.050411999977733],
            [-84.513219000175951, 38.05041899965309],
            [-84.512410999713865, 38.050473000056826],
            [-84.512122999833778, 38.050495000026494],
            [-84.511033000237717, 38.0505639999528],
            [-84.510249000065073, 38.050595000062529],
            [-84.510059999919179, 38.050601000173543],
            [-84.509975000428668, 38.050604000228823],
            [-84.509813000046961, 38.050599999919257],
            [-84.509735000229171, 38.050596999863799],
            [-84.509360000310437, 38.050587000149534],
            [-84.508807000116477, 38.050587000149534],
            [-84.507579000428137, 38.05067699965057],
            [-84.507231000273606, 38.050691999910384],
            [-84.50714699970969, 38.050690999657355],
            [-84.506981999853252, 38.050665999693912],
            [-84.506534999964515, 38.050546999864224],
            [-84.506339999970848, 38.05048799965099],
            [-84.505400999987501, 38.050167999860385],
            [-84.504867999885022, 38.050548000119178],
            [-84.503911000358343, 38.051221999806465],
            [-84.503092999850509, 38.051797999749262],
            [-84.50434300017848, 38.052915000181834],
            [-84.505749000142032, 38.054165999916322],
            [-84.505799000370757, 38.054203999936064],
            [-84.506017999755557, 38.054366999927367],
            [-84.506247999909334, 38.054516999776574],
            [-84.506472000215325, 38.054655999961327],
            [-84.507114999922635, 38.0550559998902],
            [-84.507376999863453, 38.05521799991498],
            [-84.507412999848469, 38.055241000064107],
            [-84.50919999957857, 38.056418999665375],
            [-84.509629999748867, 38.056680000248214],
            [-84.510073000337954, 38.056955000123587],
            [-84.510454000104488, 38.057186000238907],
            [-84.511518999586201, 38.057850000203032],
            [-84.512901999983541, 38.058763999831442],
            [-84.513163000099453, 38.058941000120122],
            [-84.513743000057588, 38.059333000306538],
            [-84.514117000151415, 38.059575000022917],
            [-84.514404000206582, 38.059755000152194],
            [-84.514663999599264, 38.059928999785598],
            [-84.515753000268745, 38.060642999827024],
            [-84.516174000218228, 38.06090099985807],
            [-84.51674599978044, 38.064523000191592],
            [-84.517001999873486, 38.066143000346393],
            [-84.517073999843504, 38.06664499982967],
            [-84.517129000095082, 38.066947999902055],
            [-84.517196000042233, 38.067408999939204],
            [-84.517314000043015, 38.068111999671331],
            [-84.517463000005932, 38.06907699993878],
            [-84.517529999953084, 38.069514000102437],
            [-84.51758400037977, 38.069832000187468],
            [-84.517643999755904, 38.070277999952552],
            [-84.517730999794523, 38.070810000111891],
            [-84.517821000206226, 38.071409000071121],
            [-84.5180379999412, 38.072733999764907],
            [-84.518078000124177, 38.073007000226745],
            [-84.518104999888351, 38.073187999787315],
            [-84.518121999606777, 38.073290999763195],
            [-84.518217000041346, 38.073864000159666],
            [-84.51825999969904, 38.074152000341044],
            [-84.518345999912768, 38.074720000026765],
            [-84.518356999783435, 38.074822000043469],
            [-84.518362999631208, 38.07488300028357],
            [-84.51837100002713, 38.074946000315869],
            [-84.51844700019511, 38.07495199984465],
            [-84.520203999787952, 38.075103999765297],
            [-84.521228000160107, 38.075191999686616],
            [-84.522650000017208, 38.075299000042939],
            [-84.523014000065274, 38.075309999832783],
            [-84.523455999931159, 38.075296000292845],
            [-84.523891000124337, 38.07525999974613],
            [-84.524315000446862, 38.075199999738459],
            [-84.524707000084035, 38.075130999704186],
            [-84.525287999867075, 38.07497799991863],
            [-84.525568000249564, 38.074890999662095],
            [-84.526113999872507, 38.074689000236106],
            [-84.526479999570384, 38.074522999765144],
            [-84.527185999925237, 38.074118999736882],
            [-84.527406999858187, 38.073976999946112],
            [-84.527600000202028, 38.073839000333521],
            [-84.527883999884153, 38.073619999737417],
            [-84.528447999948753, 38.07313000009411],
            [-84.528612999805205, 38.072992000297809],
            [-84.529186999915552, 38.072481000219753],
            [-84.531117999585689, 38.070801000308848],
            [-84.531168999639306, 38.070754999883881],
            [-84.531218000043111, 38.070713000054887],
            [-84.533388000087825, 38.068812999709486],
            [-84.536985000012521, 38.065715000278509],
            [-84.537624000420209, 38.065165000266312],
            [-84.537671000275878, 38.065125000168386],
            [-84.537831999934355, 38.064986000064913],
            [-84.538182999563631, 38.064718999740997],
            [-84.53847899983964, 38.06448299974268],
            [-84.538765000069901, 38.064279999797478],
            [-84.538878000047802, 38.064206999797975],
            [-84.539257000164511, 38.063962999697253],
            [-84.539430000416843, 38.063856999805772],
            [-84.539656000372673, 38.063734999980795],
            [-84.539972999666759, 38.063555999817211],
            [-84.540309999950651, 38.063400999709039],
            [-84.540638000013701, 38.063221000061112],
            [-84.541108000366989, 38.063013999812462],
            [-84.541558999555377, 38.062830000278637],
            [-84.542044999802201, 38.062638000271775],
            [-84.542479999995365, 38.062470999944523],
            [-84.543415999605656, 38.062136000171769],
            [-84.544301999885548, 38.061817999876396],
            [-84.5453670002656, 38.0614419998481],
            [-84.546206999616402, 38.061132000248996],
            [-84.546663999550887, 38.060951999970385],
            [-84.548399000300748, 38.060326000237602],
            [-84.548456000202151, 38.060304999807997],
            [-84.548503000057821, 38.060288999981864],
            [-84.548775999869306, 38.060189999874581],
            [-84.548914999786462, 38.060138999938495],
            [-84.549189000321178, 38.060038000085008],
            [-84.550032000045036, 38.059695000158285],
            [-84.551116999618259, 38.05922700007352],
            [-84.551965000263309, 38.058827000306948],
            [-84.552315999892571, 38.058654999756307],
            [-84.552814999659873, 38.058400000030097],
            [-84.553233999959531, 38.058179000303134],
            [-84.554243000263057, 38.057625999755075],
            [-84.554624000029563, 38.05740200003617],
            [-84.55526300043725, 38.057012999908764],
            [-84.556077999673704, 38.056492999827562],
            [-84.556143999795964, 38.056446000134684],
            [-84.556749999693366, 38.056019000112187],
            [-84.557110000441796, 38.055767000240266],
            [-84.557856999906178, 38.055208000124694],
            [-84.558945999677348, 38.05433199989475],
            [-84.55980299964493, 38.053574999842915],
            [-84.56013300025613, 38.053275000220253],
            [-84.56060500025923, 38.052816000002288],
            [-84.561269999707861, 38.052127000174515],
            [-84.561562999610814, 38.051812999779315],
            [-84.562053000055599, 38.051270999807279],
            [-84.562581999960102, 38.050638999921915],
            [-84.563155000245544, 38.04990099993946],
            [-84.563833999937884, 38.048990999673308],
            [-84.564397000177578, 38.048130000102248],
            [-84.564661999593142, 38.047703999964092],
            [-84.565112999679855, 38.046911000346739],
            [-84.565361000275274, 38.046444999785223],
            [-84.565632000436949, 38.045916000286496],
            [-84.565727999798085, 38.045739999946917],
            [-84.565469000230308, 38.045761999924096],
            [-84.565119000425952, 38.045792000332469],
            [-84.561164000300963, 38.046117000313572],
            [-84.559994000338946, 38.046195999729704],
            [-84.558922000286231, 38.046283000152201],
            [-84.557246999810815, 38.046415999955826],
            [-84.5559560003733, 38.046521000039718],
            [-84.554245999737788, 38.046659000244382],
            [-84.554248000285938, 38.04659799981691],
            [-84.554249999935763, 38.046547999915688],
            [-84.554265999829283, 38.046141999708169],
            [-84.553527999687404, 38.046108999911226],
            [-84.553548999603805, 38.045648000099419],
            [-84.554177000140825, 38.045664999910805],
            [-84.554218999973614, 38.045187000214732],
            [-84.552607000145727, 38.044808999678011],
            [-84.552731999819187, 38.041961000064674],
            [-84.55296299979787, 38.041961000064674],
            [-84.553151000118831, 38.041236000347759],
            [-84.55296299979787, 38.041169999854084],
            [-84.553156000141712, 38.040646999959627],
            [-84.553230999586475, 38.040662999834581],
            [-84.553820999590357, 38.038882000206279],
            [-84.553761000214223, 38.037703999983385],
            [-84.553183999730805, 38.035469999740734],
            [-84.553874000192124, 38.035176999936041],
            [-84.55363800019056, 38.034374999751947],
            [-84.55354399958091, 38.034041999707703],
            [-84.553534000433501, 38.033938999674305],
            [-84.553540000281274, 38.033814999957151],
            [-84.553571000243409, 38.033655000240195],
            [-84.553668000327789, 38.033438999714107],
            [-84.553891999735455, 38.033517000292008],
            [-84.554188999836398, 38.03360299972622],
            [-84.55425499995863, 38.03362199976862],
            [-84.554336999974382, 38.033646000113066],
            [-84.554552000059559, 38.033700999929266],
            [-84.554986000427817, 38.033824999839418],
            [-84.555304000445119, 38.033928999807607],
            [-84.555958999848031, 38.034158000162705],
            [-84.556194999849581, 38.034245999799708],
            [-84.557288999643617, 38.034634000154796],
            [-84.561873999955452, 38.03621600021134],
            [-84.56317899963669, 38.036668000217894],
            [-84.563334000345691, 38.036725000067598],
            [-84.56341200016351, 38.03675900029198],
            [-84.56358299986772, 38.036859999720946],
            [-84.563120000085448, 38.037094999912625],
            [-84.56273299957283, 38.037285000253966],
            [-84.562478000203029, 38.037429999680157],
            [-84.563553999555396, 38.038250999921466],
            [-84.564699000301374, 38.039002000306702],
            [-84.565930000362769, 38.037884999846021],
            [-84.566051999663173, 38.037879000107935],
            [-84.566527000039343, 38.037472999942757],
            [-84.566646999689937, 38.037394000312958],
            [-84.566664000306687, 38.037346999677787],
            [-84.567881999949279, 38.03704400015787],
            [-84.567979999858593, 38.037020999951658]
          ]
        ]
      },
      "properties": {
        "AREALAND": "28098863",
        "AREAWATER": "48035",
        "BASENAME": "75",
        "CENTLAT": "+38.0364271",
        "CENTLON": "-084.5323523",
        "FUNCSTAT": "N",
        "GEOID": "21075",
        "HU100": null,
        "INTPTLAT": "+38.0359166",
        "INTPTLON": "-084.5330258",
        "LDTYP": "O",
        "LSADC": "LL",
        "LSY": "2024",
        "MTFCC": "G5220",
        "NAME": "State House District 75",
        "OBJECTID": 2365,
        "OID": "2139035951825546",
        "POP100": null,
        "SLDL": "075",
        "STATE": "21"
      }
    }
  ]
}
