{
  "type": "FeatureCollection",
  "features": [
    {
      "type": "Feature",
      "id": 938,
      "geometry": {
        "type": "Polygon",
        "coordinates": [
          [
            [-104.84773700029582, 41.176157999731181],
            [-104.84774300014362, 41.17495299995236],
            [-104.84768299986914, 41.174944000203361],
            [-104.84719699962234, 41.174944000203361],
            [-104.84574100032837, 41.174945000250666],
            [-104.84525599990647, 41.17494600029795],
            [-104.8447639998119, 41.174945000250666],
            [-104.84329000007625, 41.174942000108715],
            [-104.84294899959441, 41.174942000108715],
            [-104.84294899959441, 41.174748000103918],
            [-104.84294699994457, 41.174112000185843],
            [-104.84294600011967, 41.173267000149721],
            [-104.84294600011967, 41.171278000068988],
            [-104.84294699994457, 41.168984999704087],
            [-104.84294899959441, 41.167945999948159],
            [-104.84294799976949, 41.16783099970381],
            [-104.84286800030186, 41.167825000120679],
            [-104.84264599964571, 41.16770299991186],
            [-104.84250900027666, 41.167662000189779],
            [-104.84209800037294, 41.167616999805531],
            [-104.84195899955743, 41.167598000159963],
            [-104.84173000012689, 41.167566999943418],
            [-104.84154400035408, 41.167532999907245],
            [-104.84098899961197, 41.167431999854735],
            [-104.84080399966403, 41.167398999910958],
            [-104.84074299956467, 41.167384999663412],
            [-104.84056299963962, 41.167343000255279],
            [-104.84050300026348, 41.167330000159254],
            [-104.84044499963883, 41.167315999896971],
            [-104.8402739999346, 41.167277000261464],
            [-104.84021700003322, 41.1672640001524],
            [-104.84014099986523, 41.167243000074762],
            [-104.84006499969725, 41.167221999990389],
            [-104.84003499956, 41.167211999690259],
            [-104.83968999977851, 41.167106000337107],
            [-104.83949499978485, 41.167045999759637],
            [-104.8393159996847, 41.166990999970935],
            [-104.83892400004754, 41.166822999814109],
            [-104.83774900006266, 41.166319000140525],
            [-104.83735800025039, 41.166151000289553],
            [-104.837301000349, 41.166121999752399],
            [-104.83713300011951, 41.166035000092741],
            [-104.837077000043, 41.166006999687987],
            [-104.83580199960068, 41.165353000018172],
            [-104.8350769998776, 41.164982000136064],
            [-104.83336999961513, 41.163880999950209],
            [-104.83220899987397, 41.163012999970846],
            [-104.83133600001284, 41.16235999974009],
            [-104.83107099969899, 41.162144999991639],
            [-104.83099500042931, 41.162087000092832],
            [-104.83056100006105, 41.161752000150877],
            [-104.8290710004319, 41.160606000014468],
            [-104.82902600022605, 41.160586999688711],
            [-104.82889700035464, 41.160533999747557],
            [-104.82873900017088, 41.160498000260787],
            [-104.82855699969768, 41.16048800028711],
            [-104.82840100006206, 41.160513000218437],
            [-104.82841299975765, 41.160538000140178],
            [-104.82844899974263, 41.160612999848304],
            [-104.82846200016144, 41.160638999997623],
            [-104.82825999959677, 41.160662000017034],
            [-104.82843600022217, 41.16109499984681],
            [-104.82848800010071, 41.161285000031121],
            [-104.82854599982703, 41.161498000066942],
            [-104.82860100007861, 41.161875999759715],
            [-104.82862199999502, 41.162286999807066],
            [-104.8285650000936, 41.163961000289014],
            [-104.82867100039881, 41.16408700020191],
            [-104.82817500010626, 41.16408899995173],
            [-104.82668700012694, 41.164093999664004],
            [-104.82619099983438, 41.164097000302739],
            [-104.82566799977764, 41.164093000127359],
            [-104.8241019999805, 41.164081999812815],
            [-104.8235799997487, 41.164078999849686],
            [-104.82324400018801, 41.164078000312806],
            [-104.82223599970941, 41.164077000099617],
            [-104.82190099997365, 41.164077000099617],
            [-104.82162200031439, 41.164074999673204],
            [-104.82078500043829, 41.164071000172768],
            [-104.82050699970564, 41.164069999959473],
            [-104.82026800022935, 41.164066999995796],
            [-104.81955400037691, 41.164061000067974],
            [-104.81931599982721, 41.164059000317359],
            [-104.81890800029653, 41.164065000245358],
            [-104.81884399982413, 41.164062999818583],
            [-104.81828999980526, 41.164050999961709],
            [-104.8176939999536, 41.164020000095931],
            [-104.81743399966258, 41.163979000098195],
            [-104.81711399999547, 41.163929999704372],
            [-104.81697099988031, 41.163898000241694],
            [-104.81662299972577, 41.163820000260237],
            [-104.81612700033153, 41.163662999799264],
            [-104.81570600038205, 41.163505000092826],
            [-104.81535099965649, 41.16332100025415],
            [-104.81490499959267, 41.163070999726436],
            [-104.81375800009519, 41.162291000092694],
            [-104.81332499955182, 41.161996000183102],
            [-104.81210600008431, 41.161228999884507],
            [-104.81091400038099, 41.160826000039222],
            [-104.80994299971228, 41.160553999679365],
            [-104.80920600029364, 41.160354999680649],
            [-104.80917600015641, 41.1603249996896],
            [-104.8091689995854, 41.160344999685186],
            [-104.80915799971474, 41.161845999788582],
            [-104.80915699988984, 41.162024999841066],
            [-104.80914299964613, 41.164056999890398],
            [-104.80913799962326, 41.164456000002453],
            [-104.80912699975261, 41.165550000013177],
            [-104.8091259999277, 41.165651999774404],
            [-104.80912199972973, 41.166051999825463],
            [-104.80911699970686, 41.166207000287748],
            [-104.80910699966111, 41.166522999815278],
            [-104.80910300036147, 41.166674999995351],
            [-104.8090990001635, 41.166830999831376],
            [-104.80909699961536, 41.166996000138049],
            [-104.80909300031573, 41.167493000239809],
            [-104.80909300031573, 41.167658999714291],
            [-104.80908599974471, 41.168365999772867],
            [-104.80907499987406, 41.169406999894576],
            [-104.8090640000034, 41.170487000158531],
            [-104.80905800015563, 41.171195000235329],
            [-104.80905599960749, 41.171333999742522],
            [-104.80905399995767, 41.171522999893369],
            [-104.80904399991192, 41.172505999749127],
            [-104.80904100043719, 41.172834999684945],
            [-104.80903399986619, 41.173475000108802],
            [-104.80902800001842, 41.174047000309947],
            [-104.80901399977471, 41.174312999768404],
            [-104.80898899966034, 41.174500000007029],
            [-104.80894400035282, 41.174741999801839],
            [-104.80882899982677, 41.174966999935059],
            [-104.80871300037414, 41.175155999747268],
            [-104.80858299977949, 41.175313999758508],
            [-104.80868099968878, 41.175409000266505],
            [-104.80873699976526, 41.175463999750299],
            [-104.80881999960594, 41.175469999986241],
            [-104.80897100011698, 41.175478999662978],
            [-104.80906499982832, 41.175480999741232],
            [-104.80906200035359, 41.175526000133416],
            [-104.80905300013276, 41.175712000254549],
            [-104.80909599979046, 41.175711000218953],
            [-104.8097460000688, 41.175713000290123],
            [-104.80975500028964, 41.174884000041985],
            [-104.81026300027773, 41.174902000231398],
            [-104.8102590000798, 41.175243000142977],
            [-104.81024999985895, 41.176118999949672],
            [-104.81024599966101, 41.176571000170995],
            [-104.81024499983609, 41.176696000155836],
            [-104.81143200041484, 41.176701000258454],
            [-104.8126049998516, 41.17670699970494],
            [-104.8126049998516, 41.176650999891251],
            [-104.81260999987448, 41.176110999714204],
            [-104.81262099974514, 41.175019999697739],
            [-104.81262099974514, 41.174992999798476],
            [-104.81262699959291, 41.174909999938343],
            [-104.81354399983493, 41.174909999938343],
            [-104.81354200018512, 41.17492900016817],
            [-104.81353700016224, 41.174955000046673],
            [-104.81354200018512, 41.175231000305111],
            [-104.81372100028526, 41.175222999961186],
            [-104.81383199971503, 41.175232999714758],
            [-104.81385099998161, 41.174965999888087],
            [-104.81384900033179, 41.174943000156048],
            [-104.81384699978364, 41.174918999692018],
            [-104.81495499982137, 41.174942000108715],
            [-104.81496700041527, 41.175331999829723],
            [-104.81539500003743, 41.175334999953812],
            [-104.81546799983236, 41.175337000036457],
            [-104.81546500035765, 41.175466999868341],
            [-104.81545899961154, 41.175724000004301],
            [-104.81497900011084, 41.175719999862572],
            [-104.81497300026304, 41.176553999786769],
            [-104.81496900006508, 41.17665499997613],
            [-104.81496599969203, 41.176743999772889],
            [-104.8161459996998, 41.176763000146913],
            [-104.81614200040016, 41.17704100025562],
            [-104.81613099963118, 41.177875000263924],
            [-104.81612800015645, 41.178153999708194],
            [-104.81612700033153, 41.17821500025233],
            [-104.8161249997834, 41.178353999739336],
            [-104.81612399995848, 41.178398000191585],
            [-104.81612399995848, 41.178459999826025],
            [-104.81583000023063, 41.178442999932088],
            [-104.81581900035998, 41.178776999744109],
            [-104.81580500011626, 41.179362000039553],
            [-104.81580299956812, 41.179809000328824],
            [-104.81579800044355, 41.181150999747345],
            [-104.81579699972035, 41.181598999942132],
            [-104.81586600021562, 41.181598999942132],
            [-104.81599400026215, 41.181598999942132],
            [-104.81607200007996, 41.181608000128975],
            [-104.81614099967692, 41.181617000314517],
            [-104.8161320003544, 41.181645000132747],
            [-104.81610700024005, 41.181729000191659],
            [-104.81609899984413, 41.18175799990528],
            [-104.81603199989698, 41.181980999721944],
            [-104.81588299993408, 41.182481000201221],
            [-104.81584699994906, 41.182582999970769],
            [-104.81580699976608, 41.182639000121441],
            [-104.81578900022274, 41.182666000249355],
            [-104.81563799971168, 41.182798000263901],
            [-104.81572800012336, 41.182872000258108],
            [-104.81599799956179, 41.183096000260825],
            [-104.81608799997346, 41.183170999840002],
            [-104.81617099981416, 41.183239999809665],
            [-104.81623899958622, 41.183288000039624],
            [-104.81638300042457, 41.183388999986107],
            [-104.81650499972501, 41.183446000041087],
            [-104.81663500031966, 41.183490999693596],
            [-104.81675999999312, 41.183518000146321],
            [-104.8169480003141, 41.183559000086404],
            [-104.81688200019187, 41.183752999685581],
            [-104.81685399970445, 41.183879000072295],
            [-104.81684299983378, 41.183967000284383],
            [-104.81684100018398, 41.18398699982442],
            [-104.81683500033621, 41.185234999738995],
            [-104.81683399961297, 41.185657999921375],
            [-104.81704899969812, 41.185657000037637],
            [-104.81769800015155, 41.185656000153891],
            [-104.81791400006162, 41.185656000153891],
            [-104.81803000041258, 41.185658999805085],
            [-104.8183989995852, 41.185668999993531],
            [-104.81844700016408, 41.185669999877085],
            [-104.818588999556, 41.185673000203721],
            [-104.81989800033351, 41.185702000198994],
            [-104.82327900034812, 41.185719000236872],
            [-104.82326400027951, 41.185635999771499],
            [-104.82327199977711, 41.185389000224014],
            [-104.82327299960203, 41.185282999858778],
            [-104.82328099999795, 41.184297000026689],
            [-104.82330100008944, 41.18342100007051],
            [-104.82330299973924, 41.18333299980074],
            [-104.82342900013596, 41.183341999749274],
            [-104.82347699981653, 41.183346000101565],
            [-104.82360300021321, 41.18338800006773],
            [-104.8237279998867, 41.183446999958591],
            [-104.82375499965087, 41.183467000333472],
            [-104.82416899992765, 41.183772999967061],
            [-104.82422099980619, 41.183811999923691],
            [-104.82431700006566, 41.183861000321642],
            [-104.82433299995917, 41.183867999699387],
            [-104.82438300018789, 41.183890999677928],
            [-104.82439999990632, 41.183899000315236],
            [-104.82444299956406, 41.183918999876028],
            [-104.82459400007509, 41.183955000016589],
            [-104.82469399963422, 41.183964999789232],
            [-104.8248059997872, 41.183977999964576],
            [-104.82501800039762, 41.183955000016589],
            [-104.82558900013494, 41.183821999718113],
            [-104.82588600023585, 41.183754000274476],
            [-104.82589799993141, 41.183750999859917],
            [-104.82593800011439, 41.183741999967644],
            [-104.82595099963486, 41.183740000141647],
            [-104.82645000030047, 41.183744999706533],
            [-104.8273890002838, 41.183754000274476],
            [-104.82794999997536, 41.183759999751004],
            [-104.82844999956755, 41.183764999990395],
            [-104.82855599987278, 41.183762000252429],
            [-104.82870499983568, 41.183762000252429],
            [-104.82871400005654, 41.183623000073446],
            [-104.83078500036706, 41.183634999726046],
            [-104.83081299995614, 41.184988999925011],
            [-104.83177700005383, 41.184873999851661],
            [-104.83299700024456, 41.185141999744822],
            [-104.83309299960571, 41.185152000012266],
            [-104.83508400044862, 41.18536199986665],
            [-104.83719500004378, 41.185563000081572],
            [-104.83746500038053, 41.186484999948846],
            [-104.83746700003034, 41.186988999971213],
            [-104.8374789997259, 41.189349000130335],
            [-104.83751499971092, 41.189349000130335],
            [-104.83762299966595, 41.189349999957692],
            [-104.8376600003742, 41.189350999785034],
            [-104.83776400013127, 41.189357000100827],
            [-104.83797400019355, 41.189369999881727],
            [-104.83798400023929, 41.185749000094127],
            [-104.83798099986625, 41.183681999752579],
            [-104.83801500020142, 41.183681999752579],
            [-104.83819299957835, 41.183681999752579],
            [-104.83832200034809, 41.183680999838678],
            [-104.83871200033543, 41.183679999924749],
            [-104.83884299985668, 41.183679999924749],
            [-104.83892400004754, 41.183679999924749],
            [-104.83908300005621, 41.183680999838678],
            [-104.83917000009484, 41.183681999752579],
            [-104.8392520001106, 41.18368299966648],
            [-104.83928300007274, 41.18368299966648],
            [-104.8393790003322, 41.18368299966648],
            [-104.83941100011926, 41.18368299966648],
            [-104.83957099995284, 41.18368299966648],
            [-104.8400549996515, 41.183685000170307],
            [-104.8402160002083, 41.183686000084144],
            [-104.84041700004975, 41.183686000084144],
            [-104.84102299994714, 41.183686999997974],
            [-104.84122499961353, 41.183687999911797],
            [-104.84157899961585, 41.183689999739386],
            [-104.84176100008904, 41.18367700018289],
            [-104.8418149996174, 41.183663000033604],
            [-104.84212299958897, 41.183585999835074],
            [-104.84260200016308, 41.183347000020582],
            [-104.84272699983654, 41.183303000188829],
            [-104.84285700043121, 41.183266999689842],
            [-104.84299100032551, 41.183239999809665],
            [-104.84312799969454, 41.183221999883372],
            [-104.84326699961173, 41.183212999918396],
            [-104.84340600042721, 41.18321800019956],
            [-104.84350900035938, 41.183228000084732],
            [-104.84354399962116, 41.183231999767941],
            [-104.84367900023869, 41.18325900032746],
            [-104.84394399965423, 41.183330999962251],
            [-104.84407900027176, 41.183386000230911],
            [-104.84442400005327, 41.183528999901938],
            [-104.84448000012976, 41.183552999915428],
            [-104.84458600043497, 41.183601999831097],
            [-104.8449689998513, 41.183805999775835],
            [-104.84509299969986, 41.183864000055074],
            [-104.84520999987572, 41.183910000006847],
            [-104.84533200007446, 41.183940999926733],
            [-104.84545400027321, 41.183962000060419],
            [-104.84559200036546, 41.183977999964576],
            [-104.84582800036701, 41.183969000103453],
            [-104.84609899963034, 41.183969000103453],
            [-104.84691499959003, 41.183970000012955],
            [-104.84718699957661, 41.183970999922458],
            [-104.84727199996543, 41.183965999698799],
            [-104.84752899988337, 41.183953000197093],
            [-104.84761500009709, 41.183948999881885],
            [-104.84763199981553, 41.184648000047844],
            [-104.84768299986914, 41.186744999720474],
            [-104.84770100031081, 41.187445000318583],
            [-104.84771399983129, 41.187437999971074],
            [-104.84771399983129, 41.185970000083714],
            [-104.8477149996562, 41.184262999884233],
            [-104.8477149996562, 41.182745999962144],
            [-104.84771999967906, 41.18104599991338],
            [-104.84772399987703, 41.179854999748365],
            [-104.84772600042517, 41.179429999986837],
            [-104.84773100044805, 41.177776999939596],
            [-104.84773700029582, 41.176157999731181]
          ]
        ]
      },
      "properties": {
        "AREALAND": "6373321",
        "AREAWATER": "0",
        "BASENAME": "7",
        "CENTLAT": "+41.1740141",
        "CENTLON": "-104.8276232",
        "FUNCSTAT": "N",
        "GEOID": "56007",
        "HU100": null,
        "INTPTLAT": "+41.1740141",
        "INTPTLON": "-104.8276232",
        "LDTYP": "O",
        "LSADC": "LL",
        "LSY": "2024",
        "MTFCC": "G5220",
        "NAME": "State House District 7",
        "OBJECTID": 938,
        "OID": "2139035951824718",
        "POP100": null,
        "SLDL": "007",
        "STATE": "56"
      }
    }
  ]
}
