{
  "type": "FeatureCollection",
  "features": [
    {
      "type": "Feature",
      "id": 2129,
      "geometry": {
        "type": "Polygon",
        "coordinates": [
          [
            [-97.838424000032376, 30.201222000326108],
            [-97.838302999658552, 30.201161999982983],
            [-97.837030999589288, 30.200515999820549],
            [-97.836136999811785, 30.20006700010692],
            [-97.835453999921484, 30.199893999912792],
            [-97.835048000040615, 30.199881000002598],
            [-97.834667000274109, 30.19972500017008],
            [-97.835205000399455, 30.199025999811234],
            [-97.833168000424124, 30.19806700036138],
            [-97.831481000253163, 30.1980229998419],
            [-97.831396999689261, 30.198221999705577],
            [-97.831360999704259, 30.198714000294885],
            [-97.830659000445692, 30.198622999796829],
            [-97.830324999636517, 30.198420999943369],
            [-97.830897000097067, 30.197467000123662],
            [-97.829019999955293, 30.19648999974472],
            [-97.828784999778662, 30.196947999674421],
            [-97.828725000402528, 30.197044000277874],
            [-97.828675999998708, 30.197152000262626],
            [-97.828451999692732, 30.197547999969395],
            [-97.828265000094973, 30.197881000360418],
            [-97.828039000139171, 30.198171999968821],
            [-97.827838000297717, 30.198365000256533],
            [-97.827776000373433, 30.198410999862961],
            [-97.82766000002249, 30.198497999751922],
            [-97.827494000341133, 30.198597999645223],
            [-97.827366000294617, 30.198666000042628],
            [-97.827265999837181, 30.198714000294885],
            [-97.826989999652653, 30.198825000012164],
            [-97.825653000184374, 30.199095999915262],
            [-97.825546000054246, 30.199107999928135],
            [-97.825474000084213, 30.199121999941255],
            [-97.824839999699421, 30.199188999976517],
            [-97.82404800002918, 30.199200999978054],
            [-97.823928000378572, 30.199201999978097],
            [-97.823822999898269, 30.199207999978235],
            [-97.823099000000084, 30.199247999969856],
            [-97.822380000124781, 30.199325999906769],
            [-97.822248999705224, 30.199337999891561],
            [-97.822143000298325, 30.199365999850404],
            [-97.821462000057849, 30.199546000172184],
            [-97.820919999734542, 30.199793999783129],
            [-97.820795999885988, 30.199869000084011],
            [-97.82069399977874, 30.199930999647798],
            [-97.820584000173881, 30.200004999852368],
            [-97.820215000102934, 30.200263999742369],
            [-97.819497000052536, 30.200735999755786],
            [-97.819393000295463, 30.2008020002616],
            [-97.819329999647962, 30.200856000148434],
            [-97.819229000263931, 30.200958999922374],
            [-97.818973999995805, 30.201341000148012],
            [-97.818910000421695, 30.201429999731559],
            [-97.818854000345212, 30.201517000057972],
            [-97.81853200012992, 30.202041000344245],
            [-97.818209999914657, 30.202529999805051],
            [-97.818138999769559, 30.202642999808031],
            [-97.818082999693047, 30.202617999901047],
            [-97.818026999616563, 30.202592999987647],
            [-97.817958999844492, 30.202702000060356],
            [-97.817614999887894, 30.203192000078818],
            [-97.817454000229418, 30.203435999992688],
            [-97.816685000125403, 30.203043999747315],
            [-97.816556000253968, 30.202925999617285],
            [-97.816458000344682, 30.202557999632383],
            [-97.814981000235989, 30.202842999612187],
            [-97.814192999865398, 30.20317899982782],
            [-97.813750000174608, 30.202376000224213],
            [-97.813432000157292, 30.202487999660946],
            [-97.812938000412871, 30.202893000081961],
            [-97.81227499971574, 30.202349000313202],
            [-97.811986999835668, 30.202137999833464],
            [-97.81175300038224, 30.202025999998511],
            [-97.8114119999004, 30.201873000378466],
            [-97.810358000289327, 30.201351999908979],
            [-97.807337999949738, 30.199964000176028],
            [-97.806197000300031, 30.199429999726487],
            [-97.805455999785096, 30.199087999905878],
            [-97.804606000388546, 30.198655999987157],
            [-97.804218000051023, 30.198469000315086],
            [-97.804120999966642, 30.198421999951321],
            [-97.803423999832631, 30.198090999860042],
            [-97.802145000090675, 30.197518000235615],
            [-97.800287000215476, 30.196603999719525],
            [-97.799447999791255, 30.196260000115569],
            [-97.798876000229043, 30.195954999829436],
            [-97.798318000012216, 30.195740000256421],
            [-97.797584999893203, 30.19538200019656],
            [-97.796459000312112, 30.19485299996137],
            [-97.795246999618982, 30.194229999941186],
            [-97.794255999757112, 30.193723000179897],
            [-97.793914000348664, 30.194183999934197],
            [-97.793469000109738, 30.194867999847173],
            [-97.793244999803747, 30.195202000026033],
            [-97.793047000335335, 30.195494999863683],
            [-97.792677000439483, 30.196085000156046],
            [-97.792431000392199, 30.196464999827889],
            [-97.791995000374101, 30.197108000110589],
            [-97.791164000345816, 30.198447000147638],
            [-97.791119999964863, 30.198517999893969],
            [-97.791089000002728, 30.198565000211843],
            [-97.790892000359236, 30.198860000141892],
            [-97.790615000349803, 30.199274999955016],
            [-97.790392999693637, 30.199596999983552],
            [-97.790114000034379, 30.200004999852368],
            [-97.789918000215792, 30.200373000064836],
            [-97.789442000014731, 30.201144000338715],
            [-97.788901000414654, 30.20172199969317],
            [-97.788308999862636, 30.201768000060198],
            [-97.787277999817803, 30.201310000038642],
            [-97.786922000165632, 30.201139999640947],
            [-97.785676999860556, 30.200544000220749],
            [-97.784502999700578, 30.202424000220244],
            [-97.783823000183318, 30.203834999900835],
            [-97.782340000226853, 30.206778999919521],
            [-97.782330000181119, 30.206799999854631],
            [-97.781555000229304, 30.208364000321335],
            [-97.78154299963542, 30.208386999731751],
            [-97.781513000396515, 30.208448000234789],
            [-97.781453000122056, 30.208523000152312],
            [-97.781423999809746, 30.208558999844055],
            [-97.780330999840629, 30.209928999889307],
            [-97.779756999730253, 30.210571999946708],
            [-97.779238999696403, 30.211249000188296],
            [-97.778970999907799, 30.211929000042108],
            [-97.778953000364453, 30.211975000296327],
            [-97.778512000323488, 30.212862999875565],
            [-97.777344000011283, 30.214083000044582],
            [-97.777226000010515, 30.214236000090096],
            [-97.776789000167511, 30.214786999804918],
            [-97.776425000119431, 30.215390000318177],
            [-97.775991999576078, 30.21608000011366],
            [-97.774762000237914, 30.218040999921268],
            [-97.774199999823139, 30.218932000039317],
            [-97.77287699970023, 30.221042999870047],
            [-97.771594999585218, 30.223104999683894],
            [-97.77136399960655, 30.223515000174988],
            [-97.770881999557702, 30.224267000173498],
            [-97.770432000194219, 30.224971000014506],
            [-97.769988999605118, 30.225666000340983],
            [-97.769672000311019, 30.226184999919894],
            [-97.769466000446698, 30.226517999656348],
            [-97.76934800044593, 30.226706999802357],
            [-97.769241000315816, 30.226880000204808],
            [-97.768871000419949, 30.227464000347496],
            [-97.768534999960977, 30.227955000173335],
            [-97.768091000445267, 30.22869500008774],
            [-97.767636999985513, 30.229449999914433],
            [-97.766801999759252, 30.230728999787193],
            [-97.765998000393438, 30.232010999873811],
            [-97.765733999904484, 30.232410000319675],
            [-97.765312999955, 30.233118999902324],
            [-97.765010999831219, 30.23357200029081],
            [-97.764844000324942, 30.233822000363514],
            [-97.764505000391239, 30.234444999644332],
            [-97.763951000372359, 30.235272999989057],
            [-97.763834000196496, 30.235507000087956],
            [-97.763485000217045, 30.235975999793219],
            [-97.763213000230479, 30.236468000195124],
            [-97.76302800028256, 30.236733999995753],
            [-97.762101999819691, 30.238202999952644],
            [-97.761617000296098, 30.238959999683914],
            [-97.761160000361627, 30.239675000003984],
            [-97.75962200015357, 30.242111000050333],
            [-97.760514000281248, 30.242532999818803],
            [-97.761366000225948, 30.242778999826111],
            [-97.762245999759728, 30.24304099985077],
            [-97.763141000260461, 30.243332000143553],
            [-97.763896000120781, 30.243572000080597],
            [-97.76433399978869, 30.243938999972983],
            [-97.765080000326506, 30.244263999889995],
            [-97.767810000237887, 30.245116999757954],
            [-97.768309000005175, 30.245365000118806],
            [-97.768581999816632, 30.245500999850766],
            [-97.768972999628872, 30.245999000161209],
            [-97.76898400039785, 30.246015999834302],
            [-97.768863999848932, 30.2461230000829],
            [-97.767339999884598, 30.247274000074498],
            [-97.766800000109427, 30.247682000091238],
            [-97.766693999804204, 30.247762000215406],
            [-97.7665299997727, 30.247886999745496],
            [-97.764836999753939, 30.249180999653962],
            [-97.76480699961671, 30.249204000383354],
            [-97.764449000314741, 30.249534999993163],
            [-97.764358999903052, 30.249634999998189],
            [-97.763825999800574, 30.250229999708591],
            [-97.762848000357508, 30.251364999648782],
            [-97.762733999656362, 30.251481000153881],
            [-97.762127999758974, 30.252200000336117],
            [-97.761504000318197, 30.253141999722409],
            [-97.760823000077735, 30.254303000345413],
            [-97.76015699990586, 30.255437999785162],
            [-97.760023000011572, 30.255666999744836],
            [-97.759311999633866, 30.256855999898285],
            [-97.757801999913212, 30.259388000258998],
            [-97.757072999992161, 30.260607999644122],
            [-97.756765000020593, 30.261123999723104],
            [-97.756282999971759, 30.261931999849274],
            [-97.755205000071228, 30.263772000179806],
            [-97.755144999796769, 30.263873999893733],
            [-97.755073999651671, 30.263995000177623],
            [-97.7548159999088, 30.264435000305667],
            [-97.754589000128078, 30.264815999820041],
            [-97.754251000019281, 30.264699000211959],
            [-97.752203999998201, 30.26398700001598],
            [-97.748613999746212, 30.263164000173916],
            [-97.747928000381179, 30.263006999724137],
            [-97.745006999775768, 30.262115000133701],
            [-97.744865000383868, 30.26250999964018],
            [-97.744566999559723, 30.263382000159741],
            [-97.743206999626906, 30.263030000319691],
            [-97.742103999612041, 30.262691000138396],
            [-97.74107599994025, 30.262394999879092],
            [-97.739999999689545, 30.262106999818847],
            [-97.739455999716427, 30.261969000298894],
            [-97.739351000134434, 30.261939000040247],
            [-97.738792000092701, 30.261781999959645],
            [-97.736766999812929, 30.261229999665268],
            [-97.736552999552686, 30.261207000199946],
            [-97.736516999567698, 30.261316999854397],
            [-97.736268999870575, 30.261855000043173],
            [-97.735746999638749, 30.262956000206021],
            [-97.735565999888777, 30.263400000051508],
            [-97.735499999766532, 30.263586999637248],
            [-97.735426000146688, 30.263795999939514],
            [-97.735411999902979, 30.263845000335763],
            [-97.7353840003139, 30.263939999926013],
            [-97.735377999567788, 30.263962000185508],
            [-97.735330999712133, 30.264121000115985],
            [-97.735288000054425, 30.264269000083431],
            [-97.735067000121489, 30.264861000049919],
            [-97.73472200034, 30.265792000282726],
            [-97.734386999705933, 30.266690000371124],
            [-97.734371999637318, 30.266732000250226],
            [-97.734036999901562, 30.267646000004532],
            [-97.733998000441815, 30.26775299996773],
            [-97.733692999944978, 30.268581999784349],
            [-97.73331800002623, 30.269606999898613],
            [-97.732995999810981, 30.270465000290759],
            [-97.732538000051576, 30.271718999906902],
            [-97.732497999868599, 30.271846000055515],
            [-97.732131000345788, 30.272874000305247],
            [-97.731842999567377, 30.273649000096906],
            [-97.73163099985527, 30.274340999810924],
            [-97.731578000151842, 30.27452900028954],
            [-97.73152200007533, 30.274724999695387],
            [-97.731445999907365, 30.274927000296355],
            [-97.731404000074576, 30.27503900010468],
            [-97.731179999768571, 30.275852999734692],
            [-97.730968000056464, 30.276458000317433],
            [-97.730785999583276, 30.27691400021396],
            [-97.730048000339707, 30.278505999968445],
            [-97.729338999611826, 30.279930000251063],
            [-97.728989999632361, 30.280653999770838],
            [-97.727937999671127, 30.282315999949262],
            [-97.72780700014988, 30.282502000032437],
            [-97.727401000269012, 30.283077999880099],
            [-97.726883000235134, 30.283840000098881],
            [-97.725797999763628, 30.285440999831113],
            [-97.72558299967848, 30.285778000003162],
            [-97.725149000208518, 30.28645700019452],
            [-97.725079999713245, 30.286555999945211],
            [-97.725000000245601, 30.286680999738536],
            [-97.724784000335532, 30.28701800030526],
            [-97.724228999593436, 30.287894999672819],
            [-97.72416500001934, 30.287997999789862],
            [-97.724033999599769, 30.2882120002145],
            [-97.723727000351431, 30.288695000036924],
            [-97.72337499999891, 30.289242000171168],
            [-97.723042999737913, 30.289755999729703],
            [-97.720990999693953, 30.292907000012917],
            [-97.72058700036122, 30.293550000149896],
            [-97.720130000426735, 30.294283999630029],
            [-97.719718999624675, 30.294945000358457],
            [-97.71808099985752, 30.297611000300364],
            [-97.717293000385226, 30.298848999628792],
            [-97.716573999611612, 30.299989999836693],
            [-97.716422000173949, 30.300221999809292],
            [-97.715351999771045, 30.301873999989393],
            [-97.715329000204832, 30.301911000116558],
            [-97.715267000280548, 30.302011000285471],
            [-97.71521299985389, 30.302095999767122],
            [-97.714273000045637, 30.303605000142365],
            [-97.71407800005197, 30.303917999925186],
            [-97.712923000158554, 30.305706999656557],
            [-97.712523000125486, 30.306331999850052],
            [-97.712422999668036, 30.306486999864635],
            [-97.711825000166556, 30.307417000233656],
            [-97.710885000358317, 30.308910999815609],
            [-97.710447999617003, 30.309590000378069],
            [-97.710392000438802, 30.309671000110562],
            [-97.710338999837063, 30.309749999699005],
            [-97.710296000179341, 30.309815000245223],
            [-97.710225999859134, 30.309915000106578],
            [-97.710031999690386, 30.31024900022236],
            [-97.709429999990945, 30.311346000168189],
            [-97.709654000296936, 30.311452000145795],
            [-97.710076999896245, 30.311667000201926],
            [-97.710911000297571, 30.312087999930494],
            [-97.71240400029977, 30.312789999985405],
            [-97.713881000408463, 30.313479999659432],
            [-97.715068000088934, 30.314008000053413],
            [-97.71462799987286, 30.315025000276854],
            [-97.714946999715096, 30.315069999967413],
            [-97.715118000317645, 30.315033999751311],
            [-97.715341999725311, 30.314987000074002],
            [-97.715376999885407, 30.314979999790154],
            [-97.715453000053401, 30.314964999623346],
            [-97.715514999977671, 30.314952000200652],
            [-97.716741000016185, 30.315557000018355],
            [-97.717643000189597, 30.315987999845472],
            [-97.718527999746271, 30.316421999627032],
            [-97.717825999589394, 30.317465999693535],
            [-97.717099000216493, 30.318604000097729],
            [-97.716325999914488, 30.319751000283507],
            [-97.715858999934269, 30.319525999965819],
            [-97.715961000041503, 30.320681999944856],
            [-97.716432000219697, 30.326031999919575],
            [-97.716472000402675, 30.326264000280428],
            [-97.716485999748059, 30.326379999867111],
            [-97.716494999968901, 30.3266120001791],
            [-97.716484999923139, 30.326845000193355],
            [-97.71645599961083, 30.327058000090791],
            [-97.716432000219697, 30.327193999826704],
            [-97.716361999899505, 30.327447000269675],
            [-97.716397000059601, 30.327602000227479],
            [-97.716152999662143, 30.329395999827142],
            [-97.716106999631364, 30.329604000037069],
            [-97.716064999798576, 30.329884000218538],
            [-97.71604700025523, 30.330095000047852],
            [-97.716038999859322, 30.330375999816539],
            [-97.716041000407444, 30.330465000367038],
            [-97.716052000278111, 30.33065899998002],
            [-97.716084999890072, 30.330938000036465],
            [-97.716137999593528, 30.331217000073483],
            [-97.716191000195266, 30.331424000087456],
            [-97.716279000058819, 30.331695999650428],
            [-97.716387000013853, 30.331961000162718],
            [-97.716479999900287, 30.332156000110935],
            [-97.716570000311961, 30.332326000206233],
            [-97.717211000369474, 30.333586000013057],
            [-97.718531999944233, 30.336183000275401],
            [-97.718561000256543, 30.336224999857873],
            [-97.718582000172944, 30.336282000203784],
            [-97.719121999948101, 30.337342000250189],
            [-97.719007000320374, 30.337503000134685],
            [-97.718850999786454, 30.337719999897168],
            [-97.717876999643025, 30.339320999650031],
            [-97.717823000114663, 30.339410999946523],
            [-97.717350000286643, 30.340155999912344],
            [-97.716768999605279, 30.341068999839596],
            [-97.715957999668461, 30.3423489998649],
            [-97.714964000331847, 30.343974000183106],
            [-97.714950999913057, 30.343992000013618],
            [-97.714919999950922, 30.344038999727729],
            [-97.714836000285317, 30.344190000256479],
            [-97.714560999925709, 30.344653000369018],
            [-97.714406999939939, 30.344879999687674],
            [-97.713915999670249, 30.345607999647296],
            [-97.7133209996435, 30.346487999755492],
            [-97.713082999992125, 30.346836999921333],
            [-97.712786999716116, 30.34727300030579],
            [-97.712602999593102, 30.347543999983667],
            [-97.712543000216954, 30.347638999893359],
            [-97.712438999561584, 30.347805000085383],
            [-97.712406999774529, 30.347855999667534],
            [-97.712357000444129, 30.347936000280995],
            [-97.712275000428363, 30.348056999950838],
            [-97.712224000374718, 30.348131000194137],
            [-97.711732000280151, 30.348726000210853],
            [-97.711353999988376, 30.349182999653824],
            [-97.71048699997506, 30.350057000086426],
            [-97.709454000280374, 30.350717999789012],
            [-97.709152999981512, 30.350809999697379],
            [-97.707269000167045, 30.352111000103275],
            [-97.705638000072568, 30.353350999892804],
            [-97.704706999586847, 30.354045999716512],
            [-97.704068000077484, 30.354524000020071],
            [-97.702935999750295, 30.35533900004323],
            [-97.702688000053172, 30.355496999903131],
            [-97.70126299982303, 30.356569999697154],
            [-97.700386999588886, 30.357273000210807],
            [-97.700359999824713, 30.357308999627051],
            [-97.700107999929628, 30.357646999873126],
            [-97.699922999981695, 30.357908000156183],
            [-97.699707000071641, 30.358266000050246],
            [-97.698657999585123, 30.360085999715597],
            [-97.698085000197992, 30.361116999822865],
            [-97.697044999932331, 30.362984999721004],
            [-97.697013000145276, 30.363042999865453],
            [-97.696988999855833, 30.363085000322716],
            [-97.69697700016026, 30.363107000038358],
            [-97.696950000396086, 30.363154999753011],
            [-97.695997000169044, 30.364870000372687],
            [-97.694587000007502, 30.367360000183162],
            [-97.693008999616495, 30.370174999837499],
            [-97.692448999749828, 30.371170000039072],
            [-97.691611999873743, 30.372665000189915],
            [-97.691149000091471, 30.373467999776818],
            [-97.690775999822577, 30.374129999928208],
            [-97.69012499971933, 30.375256999971327],
            [-97.689784000135802, 30.375895000198856],
            [-97.689308999759632, 30.376738000137447],
            [-97.688948000084622, 30.377396000128801],
            [-97.688755999565686, 30.377685999616187],
            [-97.688286999935627, 30.37848200019009],
            [-97.687684000411281, 30.379540000093819],
            [-97.690195999864429, 30.380765999625847],
            [-97.690255000313982, 30.380795000240862],
            [-97.691648999683679, 30.381473999808119],
            [-97.693509000106985, 30.382380999632627],
            [-97.693796999987086, 30.382521000261974],
            [-97.694110999806441, 30.382662000372033],
            [-97.694783999650994, 30.382701000333586],
            [-97.695264999874937, 30.382672000284163],
            [-97.695924000374106, 30.382672000284163],
            [-97.6969939998787, 30.382687999831532],
            [-97.697900000250058, 30.382711999922513],
            [-97.698628000346204, 30.383023999794425],
            [-97.700318999816815, 30.383842999659208],
            [-97.700683999689801, 30.384051000376978],
            [-97.700923000064407, 30.384165999995115],
            [-97.701163000263918, 30.384279999813195],
            [-97.701758000290681, 30.384564000277113],
            [-97.702482000188837, 30.383599999921582],
            [-97.705046000418875, 30.384866999632763],
            [-97.704504999920474, 30.385876000350098],
            [-97.704918000372345, 30.386074000277208],
            [-97.705479000063917, 30.386341999680273],
            [-97.705853000157731, 30.386557999959667],
            [-97.706264999886386, 30.386743000091958],
            [-97.710334999639102, 30.38871700011844],
            [-97.710358000103625, 30.38872799980502],
            [-97.710429000248737, 30.388762999645063],
            [-97.710471000081526, 30.388782999769425],
            [-97.711180999736001, 30.389122999707425],
            [-97.713569000238934, 30.390280999771544],
            [-97.71392099969313, 30.390765999909107],
            [-97.713971999746747, 30.390821999873818],
            [-97.714002999708882, 30.390848999859131],
            [-97.714062999983355, 30.390931999738637],
            [-97.714888000163867, 30.39228199996754],
            [-97.715140000058938, 30.392719000346688],
            [-97.71614299961638, 30.393216999881329],
            [-97.716252000294631, 30.393271000070367],
            [-97.716279000058819, 30.393283999939264],
            [-97.716982000040602, 30.390842999949115],
            [-97.717110999912038, 30.390337999616964],
            [-97.717141000049281, 30.390221999910086],
            [-97.717151000095015, 30.390200000097064],
            [-97.717929000419858, 30.390278999789931],
            [-97.718510000202926, 30.390362000153708],
            [-97.719386000437069, 30.390599999797498],
            [-97.720455999941663, 30.390800999793942],
            [-97.721069000410083, 30.39092900017371],
            [-97.721764999820849, 30.39106799980889],
            [-97.721788000285386, 30.391073999705089],
            [-97.721816999699385, 30.391080000375752],
            [-97.721983000279053, 30.391124000375328],
            [-97.72277800032235, 30.391336999828948],
            [-97.723796999773299, 30.391545000091405],
            [-97.72424399966205, 30.391669999954114],
            [-97.724755999848128, 30.391867000175573],
            [-97.72564600032598, 30.392283999908084],
            [-97.725954000297548, 30.392428000171559],
            [-97.727530000140433, 30.393211000116743],
            [-97.729089000264892, 30.393960000034657],
            [-97.729429999848406, 30.394138999615787],
            [-97.729669000223026, 30.394251000295085],
            [-97.729622000367357, 30.394359000275042],
            [-97.729608999948553, 30.394377999692363],
            [-97.729602000275861, 30.394403999908565],
            [-97.729444999917035, 30.394767999884319],
            [-97.728683000384009, 30.396025999892665],
            [-97.728567000033067, 30.396425000217018],
            [-97.728295999871406, 30.39742600000087],
            [-97.727936000021288, 30.399299999693493],
            [-97.72785099963248, 30.399697000025739],
            [-97.727925999975554, 30.400234999836563],
            [-97.728043000151416, 30.402017000186486],
            [-97.728045999626161, 30.402089999625762],
            [-97.728059999869856, 30.40223400015331],
            [-97.728059999869856, 30.402428000001056],
            [-97.72807099974051, 30.402693999748795],
            [-97.728115999946354, 30.402932000336104],
            [-97.728096999679792, 30.403679000378101],
            [-97.728121999794141, 30.403830000238841],
            [-97.728317999612713, 30.40400299967428],
            [-97.728576000253895, 30.405491000339936],
            [-97.728848000240461, 30.406987000129512],
            [-97.729015999571629, 30.408808000050886],
            [-97.729090999914703, 30.409907999731136],
            [-97.729120000227027, 30.410327999649443],
            [-97.729150000364243, 30.411222999986176],
            [-97.729174999580295, 30.411566999919906],
            [-97.729574999613376, 30.411545000266727],
            [-97.730080000126762, 30.411613000305568],
            [-97.730999999843519, 30.412126999705205],
            [-97.731318999685755, 30.411616000010017],
            [-97.730109000439086, 30.410708999700006],
            [-97.730884000390873, 30.410198999728458],
            [-97.731630000030378, 30.409776999672783],
            [-97.733543000157141, 30.411080999876241],
            [-97.734252999811631, 30.410548000250433],
            [-97.734938000250068, 30.411093000308131],
            [-97.735442000040223, 30.410755999883786],
            [-97.73610999986191, 30.410337999828357],
            [-97.736780000231732, 30.409850999685965],
            [-97.737506999604648, 30.408669000096634],
            [-97.736350000061421, 30.40817800014544],
            [-97.736179000357197, 30.407786999849236],
            [-97.736300999657601, 30.407118000057881],
            [-97.736144000197086, 30.40613100037487],
            [-97.736031000219185, 30.405387999841938],
            [-97.736837999958041, 30.40523100026536],
            [-97.737489000061288, 30.405203000156437],
            [-97.738063999996555, 30.405276000312931],
            [-97.739068000277229, 30.405716999991274],
            [-97.740812000349592, 30.406580000206358],
            [-97.741666999769024, 30.406791999833583],
            [-97.742038000388106, 30.406794000251836],
            [-97.742871000066231, 30.407070000240587],
            [-97.74335800013796, 30.407338000145426],
            [-97.743983000301938, 30.407653000217699],
            [-97.744140999587387, 30.40772499989226],
            [-97.744220000128394, 30.407757000074938],
            [-97.744316000387869, 30.407766999742456],
            [-97.74471499969772, 30.407858000001571],
            [-97.744978000361769, 30.407882000106881],
            [-97.744989000232422, 30.407697999923663],
            [-97.744995000080223, 30.407588000347463],
            [-97.745096000362551, 30.406864000143159],
            [-97.745385000067557, 30.404130999798191],
            [-97.745585999908997, 30.402024999926027],
            [-97.745712000305687, 30.400707999981265],
            [-97.745734000047008, 30.400479999810955],
            [-97.7457409997197, 30.400402999619587],
            [-97.745748000290703, 30.400344999948572],
            [-97.745763000359332, 30.400216000008975],
            [-97.745795999971293, 30.399929000042647],
            [-97.745987999591904, 30.398267999859229],
            [-97.746059999561922, 30.397639999962735],
            [-97.746068999782764, 30.397557000359072],
            [-97.746113999988594, 30.396908000223164],
            [-97.746190000156588, 30.395831000178273],
            [-97.746274999647085, 30.394637999993343],
            [-97.746297000286702, 30.394357999938549],
            [-97.746314000005142, 30.394145999662019],
            [-97.746319999852915, 30.394050999988224],
            [-97.746314000005142, 30.393867999654788],
            [-97.74630599960922, 30.393625999623133],
            [-97.746187999608452, 30.392616999904643],
            [-97.746011999881347, 30.391867000175573],
            [-97.745968000398733, 30.391681000083175],
            [-97.745835000329336, 30.391384000038798],
            [-97.745452000014694, 30.390523000340867],
            [-97.744940999653537, 30.389638000094994],
            [-97.744927000308152, 30.389608000169453],
            [-97.744886000300269, 30.389524999940011],
            [-97.744765999751351, 30.389287999615586],
            [-97.743965999685187, 30.387699000299765],
            [-97.743703999744369, 30.38707999969661],
            [-97.742343999811538, 30.384362999848559],
            [-97.741983000136528, 30.383632000259613],
            [-97.741728999693308, 30.38313500036557],
            [-97.741451999683875, 30.382706000287783],
            [-97.741199999788805, 30.382394000175573],
            [-97.740870999900821, 30.381987000061983],
            [-97.740089000276328, 30.381250999720599],
            [-97.739122999630482, 30.380488999998629],
            [-97.738447000311211, 30.380070999816386],
            [-97.738299000173186, 30.379988000010606],
            [-97.738264000013103, 30.37996999982866],
            [-97.738187000020204, 30.379923000328215],
            [-97.738007000095138, 30.379817999796114],
            [-97.737951999843574, 30.379785999759179],
            [-97.737900999789943, 30.379755999908738],
            [-97.737854999759179, 30.379728999957944],
            [-97.737736999758411, 30.379659999705478],
            [-97.737616000282898, 30.379581999664687],
            [-97.737416000266364, 30.37945300020575],
            [-97.736350999886326, 30.378787999741139],
            [-97.736293000160003, 30.378753000203133],
            [-97.736175999984141, 30.378681999817701],
            [-97.736309000053538, 30.378305999776316],
            [-97.736361999756966, 30.3780079996477],
            [-97.736382999673367, 30.377886999827634],
            [-97.736439999574785, 30.377701000247701],
            [-97.736519999940725, 30.377579000314377],
            [-97.737474999817593, 30.375410999632471],
            [-97.738341000005988, 30.373446000067091],
            [-97.738541999847442, 30.372991000381273],
            [-97.739221000438107, 30.371355999645111],
            [-97.739392000142317, 30.370945000092746],
            [-97.73960600040256, 30.370436000015559],
            [-97.740225999645375, 30.368941999705349],
            [-97.740844999961567, 30.36744699998275],
            [-97.740865000053034, 30.367399000049428],
            [-97.741168999826655, 30.366561000195194],
            [-97.741395999607377, 30.366054000251214],
            [-97.742137000122312, 30.364399999963055],
            [-97.742937000188491, 30.362497999917647],
            [-97.743338999871384, 30.3614780000681],
            [-97.743419000237324, 30.361301000148721],
            [-97.743447999651323, 30.361194999868452],
            [-97.743478999613458, 30.361130999994671],
            [-97.74378400011031, 30.360438999847307],
            [-97.743815999897365, 30.360377999981488],
            [-97.74386299975302, 30.36030999993374],
            [-97.744124999693838, 30.359885000114446],
            [-97.744313999839719, 30.359577999617905],
            [-97.744925999584922, 30.358145999759707],
            [-97.745330999640871, 30.357338000223685],
            [-97.745959000177891, 30.355960000005023],
            [-97.746174000263053, 30.355525000303039],
            [-97.746293999913675, 30.355285999787824],
            [-97.746827999841031, 30.354127999866424],
            [-97.74736099994351, 30.352969000207235],
            [-97.74799000030545, 30.351603999676577],
            [-97.748350999980474, 30.350819999766529],
            [-97.748627999989907, 30.350221000026899],
            [-97.750268000305226, 30.346782999663851],
            [-97.750998999876089, 30.345116999906924],
            [-97.751546000222248, 30.343958999804983],
            [-97.754185999721955, 30.338200000360562],
            [-97.754358999974329, 30.337629000230383],
            [-97.75438900011153, 30.337527999828154],
            [-97.754497999891484, 30.337419999866146],
            [-97.755012999552292, 30.336232000174149],
            [-97.755277000041261, 30.336413000315421],
            [-97.755614000325153, 30.336592999969781],
            [-97.75601299963499, 30.336811999723263],
            [-97.757077000190122, 30.33743400032737],
            [-97.758210000342217, 30.335918000334786],
            [-97.758334000190771, 30.335790000042252],
            [-97.758452000191554, 30.335709000194637],
            [-97.758561999796413, 30.335652000290427],
            [-97.7587230003532, 30.335614000335873],
            [-97.758832000133154, 30.335353000290148],
            [-97.758913000324, 30.335195999862211],
            [-97.759069999784515, 30.334935000252898],
            [-97.759786000185102, 30.333865999663562],
            [-97.76036600014325, 30.333044000153503],
            [-97.760508000433475, 30.332857999810692],
            [-97.760684000160566, 30.332671999889914],
            [-97.760838999971256, 30.332563999998861],
            [-97.761055999706244, 30.332466000382343],
            [-97.761366000225948, 30.332373000093828],
            [-97.761825999635164, 30.33224300020111],
            [-97.762424999859874, 30.332062000104862],
            [-97.762746000250232, 30.331949000093552],
            [-97.762988999924488, 30.331835999951863],
            [-97.763127999841657, 30.331764000198401],
            [-97.763294000421325, 30.331661000319084],
            [-97.763568000057717, 30.331448999782399],
            [-97.763815999754826, 30.331226999818277],
            [-97.763980999611292, 30.331029999928091],
            [-97.764115000403905, 30.330839000132443],
            [-97.76425500014598, 30.330580000192015],
            [-97.764343000009518, 30.33033199961902],
            [-97.764481999926701, 30.329882999997778],
            [-97.764543999850972, 30.329706999753846],
            [-97.764645000133328, 30.329567999734124],
            [-97.763512999806139, 30.329023000208135],
            [-97.762599999762074, 30.328565999690429],
            [-97.760180000370397, 30.327390999679398],
            [-97.759438000030556, 30.327152999720912],
            [-97.758780000254617, 30.326861999819897],
            [-97.758586999910762, 30.326691000066322],
            [-97.75850499989501, 30.326616999899027],
            [-97.757852000141938, 30.326156000301172],
            [-97.75762199998816, 30.325968999796899],
            [-97.757344999978727, 30.325731999747862],
            [-97.757236000198773, 30.325616000169155],
            [-97.757174000274503, 30.325569999629707],
            [-97.757000000197223, 30.325493000144956],
            [-97.756279999598689, 30.325125999684374],
            [-97.756129999810867, 30.325050000120672],
            [-97.755990999893697, 30.325013000199558],
            [-97.755802999572722, 30.325007000127194],
            [-97.755902000205225, 30.321464999755353],
            [-97.755899999657089, 30.321366999888969],
            [-97.756137000381869, 30.321378999703779],
            [-97.756128999985947, 30.320995000247549],
            [-97.756178000389752, 30.319739000269262],
            [-97.7563299998274, 30.318528999688212],
            [-97.756575999874713, 30.316608999744396],
            [-97.756782999563939, 30.314842000185003],
            [-97.757031000159373, 30.313487999663113],
            [-97.757055000448815, 30.313328999854935],
            [-97.757166999703486, 30.312849999644165],
            [-97.757204000411747, 30.312616999690889],
            [-97.757426000169588, 30.310955000371358],
            [-97.757704999828846, 30.309546999803491],
            [-97.757807999761013, 30.309067999720686],
            [-97.757914000066208, 30.30908799985356],
            [-97.758223999687601, 30.309144999705712],
            [-97.759326999702481, 30.309376000073378],
            [-97.759889000117269, 30.309515999702214],
            [-97.760761000153451, 30.309733999856203],
            [-97.761623999968805, 30.309950000227808],
            [-97.762142000002669, 30.3102080000047],
            [-97.762674000280228, 30.310480000314605],
            [-97.762844999984452, 30.309349999743606],
            [-97.762913999581414, 30.308807000288322],
            [-97.763031999582211, 30.308276000019845],
            [-97.763397000353493, 30.307529000174764],
            [-97.763600999669691, 30.307195000096687],
            [-97.763932000105797, 30.306842999980784],
            [-97.764203000267443, 30.306523999801808],
            [-97.764686000141211, 30.305836000173006],
            [-97.764811999639576, 30.305680999904691],
            [-97.764864000416438, 30.305561999997678],
            [-97.764902000051279, 30.305338000145845],
            [-97.764746000415656, 30.304717999881177],
            [-97.764346000382574, 30.303395000369655],
            [-97.76430600019961, 30.303033999993534],
            [-97.762869000273909, 30.302348000142381],
            [-97.759720000062856, 30.300877000068681],
            [-97.758974000423365, 30.300511000227456],
            [-97.758836000331115, 30.30044400022517],
            [-97.758603999629202, 30.300398000278101],
            [-97.758452000191554, 30.300407000320043],
            [-97.758258999847712, 30.300423999879897],
            [-97.758231000258618, 30.3004249996258],
            [-97.758206999969175, 30.300236000157756],
            [-97.758218999664734, 30.298857999812917],
            [-97.758366999802732, 30.297973000248653],
            [-97.758518000313785, 30.297304999768841],
            [-97.758549000275949, 30.297110000262773],
            [-97.759489999909093, 30.293682999631521],
            [-97.759780000337329, 30.292814000183398],
            [-97.760021000361746, 30.292174000140967],
            [-97.760000000445345, 30.292165000119063],
            [-97.759841000436694, 30.292083000053971],
            [-97.760063000194535, 30.291608999923245],
            [-97.760249999792293, 30.291210000256516],
            [-97.760486999618763, 30.290708000251989],
            [-97.760825999552466, 30.290154000030707],
            [-97.761126000026422, 30.289668000068787],
            [-97.762183000010552, 30.288095999665281],
            [-97.762834999938704, 30.287169000298732],
            [-97.763742000134982, 30.28587699966339],
            [-97.764365999575745, 30.28496299979529],
            [-97.765076000128545, 30.283839000183924],
            [-97.765149999748374, 30.283721999977846],
            [-97.765292000038613, 30.283455000278067],
            [-97.765724999683655, 30.282602999750541],
            [-97.766940999676422, 30.280124999778376],
            [-97.767293999853834, 30.279528999711022],
            [-97.767334999861731, 30.279461000155319],
            [-97.767370999846733, 30.279404000114916],
            [-97.768050000437384, 30.278420000242011],
            [-97.768066000330933, 30.278386999668427],
            [-97.768127000430283, 30.278307999637303],
            [-97.768606999930995, 30.277677000179764],
            [-97.768774000335569, 30.277453000249768],
            [-97.768827000039025, 30.277381000108264],
            [-97.768888000138389, 30.277296000153409],
            [-97.769005000314252, 30.277134999872771],
            [-97.76913900020854, 30.276963000268985],
            [-97.769217999851264, 30.276862000176273],
            [-97.769355999943528, 30.276686000142639],
            [-97.769391000103624, 30.276638999926011],
            [-97.769570000203771, 30.276414999954159],
            [-97.770043000031777, 30.275763000021744],
            [-97.770120999849595, 30.275655000257327],
            [-97.770535000126387, 30.275084000303451],
            [-97.77059299985271, 30.274999999915792],
            [-97.770617000142153, 30.274963999727653],
            [-97.770727999571918, 30.274805000290339],
            [-97.771044999764328, 30.274350999927957],
            [-97.771146999871576, 30.274219999865302],
            [-97.771465999713797, 30.273813999958211],
            [-97.771113000434696, 30.273456000156393],
            [-97.770588999654748, 30.272923000049826],
            [-97.766083999708854, 30.269866000352319],
            [-97.764609000148312, 30.269106999665944],
            [-97.761033999964923, 30.267268000085366],
            [-97.761376000271696, 30.267034999677026],
            [-97.761827000358394, 30.266753999884141],
            [-97.761982999994004, 30.266663000273066],
            [-97.762157000071269, 30.266573999983592],
            [-97.762234000064169, 30.266528999762887],
            [-97.762326000125668, 30.266490000072224],
            [-97.76244499995137, 30.266427999795933],
            [-97.762501999852773, 30.266391000250657],
            [-97.762691999823573, 30.266300999620906],
            [-97.76277300001442, 30.266278999885508],
            [-97.762839000136665, 30.266252999768575],
            [-97.762948999741511, 30.266185000325553],
            [-97.763008000191064, 30.266161000373955],
            [-97.763126000191846, 30.266136000321172],
            [-97.763168999849555, 30.266119000250587],
            [-97.763254000238362, 30.266077000109242],
            [-97.763378000086931, 30.265999999674143],
            [-97.763470000148416, 30.265954999966233],
            [-97.763618000286442, 30.265856000381145],
            [-97.763687999708324, 30.265838000163715],
            [-97.763784999792691, 30.265785000366424],
            [-97.763845999892069, 30.265731999764647],
            [-97.764033000388139, 30.265630999753711],
            [-97.764229000206697, 30.265516999870076],
            [-97.764285000283223, 30.265483000287499],
            [-97.764368000123881, 30.265462999797322],
            [-97.764440000093913, 30.265423999683176],
            [-97.764544999675891, 30.265375000074904],
            [-97.764620999843856, 30.265346000184351],
            [-97.76471000043064, 30.265319999820342],
            [-97.764788000248458, 30.265290999913557],
            [-97.76493499966324, 30.265211000099598],
            [-97.764947000257109, 30.265194999973787],
            [-97.764963999975549, 30.265184000370702],
            [-97.76503199974762, 30.265176000305939],
            [-97.765087999824104, 30.265147999686143],
            [-97.76528000034304, 30.265069999968077],
            [-97.765372000404554, 30.265030999697832],
            [-97.765446000024397, 30.264983000000505],
            [-97.765543000108764, 30.264929999741703],
            [-97.765605999857954, 30.264870000248639],
            [-97.765666000132413, 30.264838999991806],
            [-97.765726000406872, 30.264791000200631],
            [-97.765801999676555, 30.264747000048157],
            [-97.765867999798786, 30.264699000211959],
            [-97.765916000377672, 30.264672999676684],
            [-97.766056999944681, 30.264618999915648],
            [-97.766133999937566, 30.264581999688676],
            [-97.766316000410754, 30.264531000212692],
            [-97.766412999596824, 30.264516000087905],
            [-97.766549000039262, 30.264484999719372],
            [-97.766645000298738, 30.264451999891932],
            [-97.766703999849966, 30.264420000166275],
            [-97.766784000215907, 30.264403999911565],
            [-97.766868999706404, 30.264362999925908],
            [-97.767040000308938, 30.264294999949783],
            [-97.767143000241091, 30.264263000172907],
            [-97.76722199988383, 30.264231999724505],
            [-97.767364999998961, 30.264188000097434],
            [-97.767401999808882, 30.264164999773129],
            [-97.767546999573838, 30.264110999732665],
            [-97.767606000023378, 30.264095000203501],
            [-97.76767499962034, 30.264080000012164],
            [-97.767791999796216, 30.264064999818483],
            [-97.7680379998435, 30.264057999779055],
            [-97.768262999974411, 30.264063999702046],
            [-97.768415000310355, 30.264062000245048],
            [-97.768678999901013, 30.264036000316928],
            [-97.768810000320585, 30.264027000041839],
            [-97.768931999621003, 30.264032999966712],
            [-97.769067000238522, 30.264056999662554],
            [-97.769344000247955, 30.264096000319672],
            [-97.769386999905663, 30.264087000050015],
            [-97.770911999694931, 30.263741000352301],
            [-97.771142999673614, 30.263662000171841],
            [-97.77130000003244, 30.263626999826041],
            [-97.771506999721666, 30.26360099978281],
            [-97.771799999624648, 30.263584000049221],
            [-97.771936000067072, 30.263580999685125],
            [-97.772143999581232, 30.263591000122428],
            [-97.772316000008672, 30.263610000096957],
            [-97.772352999818594, 30.26361600004731],
            [-97.772428000161682, 30.263611000218013],
            [-97.772465999796495, 30.263610000096957],
            [-97.772943999647396, 30.263643000207363],
            [-97.77300100044711, 30.263671999824982],
            [-97.773059999998338, 30.263677999771563],
            [-97.773205999588214, 30.263677999771563],
            [-97.773512999734862, 30.263657000344882],
            [-97.773894000399693, 30.263644000328089],
            [-97.774060999905956, 30.263644000328089],
            [-97.77475100036726, 30.263657999689613],
            [-97.774826999636929, 30.263651999741828],
            [-97.775440999930254, 30.263556999872936],
            [-97.77560300031196, 30.263529999689236],
            [-97.77590399971254, 30.263479999789251],
            [-97.776490000416786, 30.263345000242545],
            [-97.77659499999875, 30.263318000000549],
            [-97.776789999992417, 30.263269000117145],
            [-97.777010000100461, 30.263196000308888],
            [-97.777073999674542, 30.263171000277058],
            [-97.777206999743953, 30.263097999620022],
            [-97.777976999672887, 30.262876000041384],
            [-97.778114999765151, 30.262844999930984],
            [-97.778196999780903, 30.262841000191329],
            [-97.778384000276972, 30.262856999924825],
            [-97.778463999744602, 30.262852000056874],
            [-97.778537000437851, 30.262848999670425],
            [-97.778811000074228, 30.262850999928084],
            [-97.779375000138828, 30.262877000169919],
            [-97.779539999995293, 30.262880999908099],
            [-97.779601999919564, 30.262877000169919],
            [-97.779699000003944, 30.262850999928084],
            [-97.779835000446383, 30.262794999682207],
            [-97.779893999997626, 30.262770999677901],
            [-97.77998500023422, 30.262745000183862],
            [-97.780345999909244, 30.262684000001034],
            [-97.780479999803546, 30.26265700035319],
            [-97.780728000398966, 30.262598999733964],
            [-97.780878000186803, 30.262554000019207],
            [-97.780987999791662, 30.262508000151541],
            [-97.781156999846047, 30.262406999927919],
            [-97.781552999681168, 30.262214999746465],
            [-97.781873000246634, 30.26208899969005],
            [-97.781977999828612, 30.262037999695167],
            [-97.782067000415381, 30.261982999899207],
            [-97.782187000065989, 30.261889000106066],
            [-97.782264999883793, 30.261841999787812],
            [-97.782358999595118, 30.261796000362484],
            [-97.782402999976057, 30.261780999819962],
            [-97.78255500031203, 30.26174299993529],
            [-97.782679000160584, 30.261729000300758],
            [-97.782802000184219, 30.261714999888376],
            [-97.783025999591885, 30.261670999909335],
            [-97.783173999729897, 30.261656000123565],
            [-97.783348999632082, 30.261651000194462],
            [-97.783510000188883, 30.261639000053247],
            [-97.783603999900222, 30.26162099983868],
            [-97.783706999832376, 30.261586000317191],
            [-97.783798999893875, 30.261541000138227],
            [-97.783947000031873, 30.261443000125446],
            [-97.784120000284247, 30.261299999725406],
            [-97.784151000246382, 30.261283999738229],
            [-97.784188000056304, 30.261273999841901],
            [-97.784361000308664, 30.261260000140499],
            [-97.784558999777076, 30.26119700029578],
            [-97.78482300026603, 30.261096000275611],
            [-97.784913999604299, 30.261052000019223],
            [-97.785012000411925, 30.260992999856093],
            [-97.785053000419794, 30.260960999779101],
            [-97.785371000437124, 30.260654999777103],
            [-97.785409000071937, 30.260613999777956],
            [-97.785482999691794, 30.260510000252058],
            [-97.785546000339295, 30.260394000322744],
            [-97.785559999684679, 30.26033900038194],
            [-97.785558999859788, 30.260307000091835],
            [-97.785533999745425, 30.260234999788953],
            [-97.785506999981237, 30.260190999922731],
            [-97.785358000018334, 30.26006400021587],
            [-97.785182000291229, 30.259924999994105],
            [-97.785120000366945, 30.259896000045874],
            [-97.785050999871672, 30.259874999810414],
            [-97.784864000273899, 30.259853000187096],
            [-97.784730000379611, 30.259831999942456],
            [-97.784687999648497, 30.259811999853067],
            [-97.78433299982126, 30.259537999925683],
            [-97.784276999744762, 30.259480999955215],
            [-97.784230999714012, 30.259416000193461],
            [-97.784199999751877, 30.259350000224291],
            [-97.784186000406478, 30.259276999830494],
            [-97.784186000406478, 30.259191000327998],
            [-97.784207000322866, 30.259005000298295],
            [-97.784245999782627, 30.258797000056461],
            [-97.784275000094937, 30.258698000237999],
            [-97.784317999752645, 30.258591999890669],
            [-97.78444699962408, 30.258334000133701],
            [-97.784577000218732, 30.258101000251973],
            [-97.784685999998686, 30.257944000243057],
            [-97.784771000387508, 30.257848000104044],
            [-97.785003000191082, 30.25765299977537],
            [-97.785172000245481, 30.257510000064173],
            [-97.785243000390608, 30.257465999753041],
            [-97.785374999736774, 30.257406000355086],
            [-97.785624999982005, 30.257314999840368],
            [-97.785834000219396, 30.257250000197008],
            [-97.785865000181531, 30.257238000293967],
            [-97.785953000045069, 30.257205999769393],
            [-97.786116000251695, 30.257123999977981],
            [-97.786293999628626, 30.257015999883269],
            [-97.786433000444092, 30.256956000210412],
            [-97.786743999890405, 30.256847999930962],
            [-97.786842999624611, 30.256813999674705],
            [-97.787431999803573, 30.256599999845733],
            [-97.787709999637926, 30.256523999932035],
            [-97.787918999875302, 30.256449000153538],
            [-97.788328000129212, 30.256272999993229],
            [-97.788465000396556, 30.256224999894798],
            [-97.788674999560541, 30.256143000060344],
            [-97.788800000132312, 30.256085000249602],
            [-97.789001999798671, 30.255967000127676],
            [-97.789183000446968, 30.255885000077836],
            [-97.789642999856184, 30.255654999648353],
            [-97.789739999940565, 30.255616999721266],
            [-97.790103000163725, 30.255513999763185],
            [-97.790278000065911, 30.255455000152953],
            [-97.790601999930999, 30.255316999821336],
            [-97.790750000069011, 30.255245999946318],
            [-97.790894999833981, 30.255187000175049],
            [-97.791185000262189, 30.255094000292715],
            [-97.791259999706966, 30.255090000237384],
            [-97.791325000004278, 30.255083999766118],
            [-97.791674999808649, 30.254923000304203],
            [-97.791822999946646, 30.254893999654989],
            [-97.792176000124073, 30.254785000001185],
            [-97.792295999774666, 30.254742000232611],
            [-97.792727999594803, 30.254564999904314],
            [-97.792949000426063, 30.254490999619971],
            [-97.793158999590034, 30.254433000385724],
            [-97.793397000139706, 30.254345000090755],
            [-97.793644000011909, 30.254267000327754],
            [-97.793755000340013, 30.254206999751631],
            [-97.793822000287165, 30.254177000225809],
            [-97.793854000074205, 30.254169000040299],
            [-97.794007000235069, 30.254155000102102],
            [-97.794475000040222, 30.254085999823364],
            [-97.794532999766545, 30.254067999776375],
            [-97.794792000232633, 30.253936000365844],
            [-97.795081999762544, 30.253817999990176],
            [-97.795241999596115, 30.253739000363094],
            [-97.7954590002294, 30.25360799995741],
            [-97.795633000306665, 30.253491999635958],
            [-97.795716000147351, 30.253426999790658],
            [-97.79577700024673, 30.253357000326993],
            [-97.795810999683596, 30.253304000001489],
            [-97.795908999592896, 30.253123000050593],
            [-97.795976000438344, 30.253022000263112],
            [-97.79601099970013, 30.252950000051573],
            [-97.796057999555799, 30.252809000163456],
            [-97.796122999853125, 30.252645000154551],
            [-97.796135000446995, 30.252588000063678],
            [-97.796136000271929, 30.252520999928191],
            [-97.796111000157566, 30.252367999702276],
            [-97.796081000020337, 30.252305999821822],
            [-97.796070000149683, 30.252272999781962],
            [-97.796081000020337, 30.252222000121684],
            [-97.796233000356281, 30.251820999694704],
            [-97.796259000295564, 30.251717000170053],
            [-97.79628199986179, 30.251545999734851],
            [-97.796300000303461, 30.251336000277117],
            [-97.796364999702462, 30.25104599988142],
            [-97.796378999946157, 30.250890999961157],
            [-97.796476000030552, 30.250357999970909],
            [-97.796484000426474, 30.250215999985041],
            [-97.796496000122033, 30.250115000312899],
            [-97.796531000282116, 30.2499549999512],
            [-97.796599000054186, 30.249793000357453],
            [-97.796613000297896, 30.249701000287207],
            [-97.796635999864108, 30.249418000028715],
            [-97.796647999559681, 30.249317000312175],
            [-97.79670899965906, 30.24910099990916],
            [-97.796773000131466, 30.24874799983068],
            [-97.796775999606211, 30.248652000016452],
            [-97.79675399986489, 30.248531000230127],
            [-97.796726000275811, 30.248294000043764],
            [-97.796706000184315, 30.248216000132459],
            [-97.796675000222166, 30.248149000119383],
            [-97.796619000145682, 30.248071000092956],
            [-97.796573999939838, 30.248027999713663],
            [-97.796501999969806, 30.247977999682067],
            [-97.796414999931173, 30.247884999959108],
            [-97.796279000387059, 30.247762000215406],
            [-97.796215999739559, 30.24771599962817],
            [-97.796184999777395, 30.247701000039307],
            [-97.796113999632283, 30.247680999807976],
            [-97.796024000118933, 30.247669999795374],
            [-97.795856999714346, 30.247671000078803],
            [-97.795495000214416, 30.247677000226826],
            [-97.795383000061435, 30.2476880002386],
            [-97.795345000426593, 30.247691999819303],
            [-97.795207000334329, 30.247721999773457],
            [-97.794993000074072, 30.247756000072524],
            [-97.794808999951059, 30.247795999724602],
            [-97.794491999758662, 30.247883000172731],
            [-97.794244000061539, 30.247944000235794],
            [-97.794161000220868, 30.247957000002636],
            [-97.793907999602581, 30.247980000242528],
            [-97.793811000416497, 30.248002999701008],
            [-97.793772999883359, 30.248011999892537],
            [-97.793622000270602, 30.24803399983989],
            [-97.793481999630217, 30.248043000028574],
            [-97.79326900009319, 30.248038999686123],
            [-97.793151999917342, 30.248024000146636],
            [-97.792966000144489, 30.247975999897523],
            [-97.7927839996713, 30.247936000318713],
            [-97.792648999952092, 30.247895999947652],
            [-97.792565000286501, 30.247875000250687],
            [-97.792377999790432, 30.247845999848831],
            [-97.792265999637436, 30.247848999917569],
            [-97.79216799972815, 30.247833000067345],
            [-97.79208900008544, 30.247804999935088],
            [-97.792016000290488, 30.247765999793096],
            [-97.791892000441948, 30.24767599994351],
            [-97.791704000120973, 30.247562000170877],
            [-97.791254999684085, 30.247309000039664],
            [-97.791140000056359, 30.247239000096865],
            [-97.791016000207804, 30.247130999998618],
            [-97.790936999666769, 30.247081000286592],
            [-97.790888000161274, 30.247059999639418],
            [-97.790844999605241, 30.247051999650417],
            [-97.790719000106876, 30.247049000333373],
            [-97.790666000403434, 30.247041999857178],
            [-97.790549000227571, 30.247004999992651],
            [-97.790457000166043, 30.246965000018559],
            [-97.789799000390104, 30.246594000161934],
            [-97.789700999582507, 30.246542000362933],
            [-97.789570999886166, 30.246460999725802],
            [-97.789478999824667, 30.246395000364437],
            [-97.789410000227676, 30.246329999703704],
            [-97.789334999884616, 30.246240000090882],
            [-97.7891089999288, 30.245930999887403],
            [-97.789000999973752, 30.245794999974581],
            [-97.788948000270338, 30.245709000309169],
            [-97.788898999866518, 30.245601000081294],
            [-97.788869999554208, 30.245510999800782],
            [-97.788851000185943, 30.245418000070938],
            [-97.788841000140209, 30.245250999993093],
            [-97.788805000155193, 30.245106000234369],
            [-97.78876400014731, 30.244879999873334],
            [-97.788720999591291, 30.24465100037834],
            [-97.788703999872851, 30.244539000054829],
            [-97.788703999872851, 30.244456000238578],
            [-97.788713999918585, 30.244424999746922],
            [-97.78876400014731, 30.244351000361164],
            [-97.788779000215911, 30.244299999692942],
            [-97.788795000109445, 30.244224999894623],
            [-97.788814000376036, 30.243747999713662],
            [-97.788824000421769, 30.243649999798116],
            [-97.788865000429638, 30.243430999926687],
            [-97.788898000041613, 30.243313000126697],
            [-97.788944999897268, 30.243200999830385],
            [-97.789011000019514, 30.243084999638345],
            [-97.789137000416218, 30.242908000038128],
            [-97.7892989998996, 30.242697999967426],
            [-97.789386999763138, 30.242569999815107],
            [-97.789493000068362, 30.242421000185622],
            [-97.789564000213474, 30.242338000132602],
            [-97.789657000099893, 30.242251999769984],
            [-97.789805000237891, 30.242137000349583],
            [-97.789857999941347, 30.242102999658378],
            [-97.789934000109326, 30.242068999731487],
            [-97.790023999622704, 30.242045999660153],
            [-97.79016400026309, 30.242020999677724],
            [-97.790416000158174, 30.24198999997002],
            [-97.790520999740153, 30.241982999909549],
            [-97.791068999911246, 30.241982999909549],
            [-97.79133199967697, 30.241966999880212],
            [-97.791528000393882, 30.24194800037553],
            [-97.791659999740034, 30.241923000368178],
            [-97.791988999628003, 30.24185000021717],
            [-97.792083000237639, 30.241836999642405],
            [-97.792185000344901, 30.241836000075718],
            [-97.79226099961457, 30.241846999965269],
            [-97.792336999782535, 30.241870000083221],
            [-97.792428999844077, 30.241913999618944],
            [-97.792508000385098, 30.241964999973344],
            [-97.792619999639754, 30.24206199967664],
            [-97.792711999701282, 30.242166000108131],
            [-97.792761000105074, 30.242242000264341],
            [-97.792788999694167, 30.242302000387042],
            [-97.792822000204438, 30.242437999701611],
            [-97.792879000105856, 30.242543000070857],
            [-97.792992000083757, 30.242708000202676],
            [-97.793089999993043, 30.242831000064271],
            [-97.793191000275385, 30.24293999978774],
            [-97.793306999728031, 30.243045999951079],
            [-97.793382000071091, 30.243103999699219],
            [-97.793445999645201, 30.243136000161073],
            [-97.793486999653084, 30.243146000351818],
            [-97.793613000049774, 30.243153999882807],
            [-97.793880000013473, 30.243150000117389],
            [-97.793968999701931, 30.243162999742403],
            [-97.794053000265833, 30.243186999881335],
            [-97.794184999612, 30.243245999874674],
            [-97.79446800036753, 30.243389999722854],
            [-97.795050999800409, 30.243671999946038],
            [-97.79532000031223, 30.243783999705634],
            [-97.795576000405276, 30.243877999751742],
            [-97.79561900006297, 30.24389900030285],
            [-97.795710000299579, 30.24395400013605],
            [-97.795812000406826, 30.244032000326431],
            [-97.795911000141018, 30.244121999633425],
            [-97.795954999623646, 30.244156999945307],
            [-97.796072999624414, 30.244240000014109],
            [-97.796409999908306, 30.244451999750108],
            [-97.79656300006917, 30.24454000037008],
            [-97.796819999987136, 30.244673999839979],
            [-97.797183000210296, 30.244842999970718],
            [-97.797307000058865, 30.244891000198216],
            [-97.797495000379826, 30.24494399963001],
            [-97.7976350001219, 30.244971999801436],
            [-97.798242999669128, 30.245073999637963],
            [-97.798295000446004, 30.245124000371256],
            [-97.798425999967236, 30.245166999693318],
            [-97.798492999914387, 30.245179000294872],
            [-97.799209000314974, 30.245201000100487],
            [-97.799443999593294, 30.24521700037927],
            [-97.799766999633491, 30.245269999635241],
            [-97.800113999963116, 30.245304000006726],
            [-97.800277999994663, 30.245310000299348],
            [-97.80059699983687, 30.245285999902801],
            [-97.80094499999143, 30.245254999672991],
            [-97.801011999938581, 30.245242999856767],
            [-97.801119999893601, 30.245209000240234],
            [-97.80181299982965, 30.244911999756848],
            [-97.802172999679755, 30.244794999719758],
            [-97.802231000304388, 30.244777000298665],
            [-97.802289000030711, 30.244759999635171],
            [-97.802416000252322, 30.244718999985874],
            [-97.802487000397434, 30.244692000056059],
            [-97.80274000011741, 30.244579000240439],
            [-97.802928000438399, 30.244515999785538],
            [-97.803029999647336, 30.244471999862675],
            [-97.803269000021928, 30.244329000365273],
            [-97.80345200032005, 30.244240000014109],
            [-97.803818000017927, 30.244073999806346],
            [-97.803911999729252, 30.244027999820755],
            [-97.804551999961845, 30.243665000005372],
            [-97.804635999627436, 30.243613999757113],
            [-97.804799999658968, 30.243506000330928],
            [-97.805126999897112, 30.243304999832592],
            [-97.805700000182568, 30.243007000248397],
            [-97.805871999711698, 30.242916999920254],
            [-97.805967999971173, 30.242848999841858],
            [-97.806136000200652, 30.242713000319917],
            [-97.806315000300799, 30.242548999755993],
            [-97.806418000232966, 30.242442999832605],
            [-97.806515000317347, 30.242336000233326],
            [-97.806623000272367, 30.242198000099403],
            [-97.806730000402496, 30.242016000301348],
            [-97.806773000060204, 30.241950000282742],
            [-97.806908999604332, 30.241771999847025],
            [-97.807056999742329, 30.241602999867503],
            [-97.80717200026838, 30.241487000117456],
            [-97.807377000307795, 30.241302999858377],
            [-97.807556000407942, 30.241168999672308],
            [-97.807625000004904, 30.241091999888166],
            [-97.807813000325879, 30.240844000384826],
            [-97.807948999869993, 30.240653000318908],
            [-97.808018000365294, 30.240567999613546],
            [-97.808105000403927, 30.240483999967324],
            [-97.808136000366062, 30.24045800000685],
            [-97.808295000374713, 30.240326000161005],
            [-97.808492999843125, 30.240162999854022],
            [-97.808644000354192, 30.240000000052735],
            [-97.808770999677492, 30.239900000331275],
            [-97.808908999769741, 30.239810999849464],
            [-97.809015000074936, 30.239750000170293],
            [-97.809164000037853, 30.239673000050477],
            [-97.809332000267361, 30.239605000055818],
            [-97.809424000328846, 30.239578999862758],
            [-97.809446999895073, 30.239574999951859],
            [-97.809544999804388, 30.239555999984812],
            [-97.809682000071717, 30.239542999882627],
            [-97.809805999920272, 30.239542999882627],
            [-97.809945999662361, 30.239557999940647],
            [-97.810041000096916, 30.239578999862758],
            [-97.810129999785389, 30.23960899996549],
            [-97.810216999824021, 30.239650999783439],
            [-97.810298000014882, 30.239703999712898],
            [-97.810327000327192, 30.239729999872832],
            [-97.810339000022751, 30.239740999998151],
            [-97.810360999764058, 30.239759999929475],
            [-97.810425000236478, 30.239840999881388],
            [-97.810471000267228, 30.239910000075202],
            [-97.810555999757739, 30.240071999664966],
            [-97.810773000391009, 30.240520999958932],
            [-97.810852000033748, 30.24068399967226],
            [-97.810873999775055, 30.240769000277243],
            [-97.810878999797936, 30.240866999961419],
            [-97.810857000056615, 30.241108000059889],
            [-97.810815000223812, 30.241773999757815],
            [-97.810759000147314, 30.242066000262348],
            [-97.810699999697775, 30.242317000023906],
            [-97.810669999560545, 30.24247900030263],
            [-97.810658999689906, 30.242592999763787],
            [-97.810662999887867, 30.24271700010312],
            [-97.810672000108681, 30.242773999712227],
            [-97.810987999577875, 30.2426130002547],
            [-97.814135000139075, 30.241088999613126],
            [-97.814557999738369, 30.240885000098661],
            [-97.814989999558506, 30.240659000119372],
            [-97.815017000221005, 30.240644000229462],
            [-97.815137999696518, 30.240589000095941],
            [-97.816486999758681, 30.239923999714925],
            [-97.816864000225536, 30.239733999777432],
            [-97.817600999644199, 30.239368999663572],
            [-97.817783000117387, 30.239284999768671],
            [-97.818194999846042, 30.239097000113336],
            [-97.818789000047886, 30.238861000053536],
            [-97.818947000231631, 30.238795999842178],
            [-97.819783000282811, 30.238442999997304],
            [-97.820000000017799, 30.238365000027631],
            [-97.820866000206181, 30.238043999978679],
            [-97.820944999848905, 30.238010000199772],
            [-97.821636999960035, 30.237720999664283],
            [-97.822303000131896, 30.237431000219708],
            [-97.822710999662576, 30.237189000028376],
            [-97.822794000401572, 30.237140999919628],
            [-97.822960000082929, 30.237044999631802],
            [-97.823263000031631, 30.236831000204905],
            [-97.823724000164091, 30.236445999986802],
            [-97.824056000425088, 30.236143000109429],
            [-97.82412800039512, 30.236079000054318],
            [-97.824309000145092, 30.235813999661449],
            [-97.824487000420319, 30.235545999662222],
            [-97.824613999743605, 30.235281000160839],
            [-97.824713000376121, 30.235054000078481],
            [-97.824773999577175, 30.234936000310743],
            [-97.825094000142641, 30.234426999879954],
            [-97.825753999568391, 30.233273999913791],
            [-97.825582999864181, 30.233143000165477],
            [-97.825350000235687, 30.232963999646479],
            [-97.826023999905146, 30.232071999698665],
            [-97.826095000050259, 30.231952999788991],
            [-97.826260999731602, 30.231694999933666],
            [-97.82651900037277, 30.2312769996757],
            [-97.82704400007934, 30.23042300031641],
            [-97.827399999731483, 30.229791999768295],
            [-97.827769999627336, 30.229221000173467],
            [-97.827940000404965, 30.229002999673668],
            [-97.828122999804748, 30.228768999617667],
            [-97.828274000315801, 30.228601000268952],
            [-97.828547999952193, 30.228317999793028],
            [-97.828681000021589, 30.228175000079297],
            [-97.829666999860592, 30.22711700002429],
            [-97.830126000343213, 30.226622000233341],
            [-97.830723999844693, 30.22598699966786],
            [-97.831328999917204, 30.22532799982292],
            [-97.831697999988137, 30.224965999771033],
            [-97.832112000264928, 30.224576999917417],
            [-97.832896000437557, 30.22384799963784],
            [-97.83315900020331, 30.223624000358711],
            [-97.833980000185846, 30.222807999945623],
            [-97.834190000248128, 30.222570000070011],
            [-97.834230000431106, 30.222517999981346],
            [-97.834733000396341, 30.221876999914592],
            [-97.835880999718739, 30.220171999866398],
            [-97.836183999667455, 30.219724000355235],
            [-97.836233999896166, 30.219650000229208],
            [-97.836265999683221, 30.219609000198346],
            [-97.836286999599608, 30.219582000358059],
            [-97.836202000109111, 30.219402999993012],
            [-97.836032000229793, 30.219139000252227],
            [-97.835864999825233, 30.218946000337425],
            [-97.835713000387571, 30.21876100000733],
            [-97.83558699999088, 30.218605999630711],
            [-97.835269999798456, 30.218238999868706],
            [-97.834848000024081, 30.217655999874605],
            [-97.834350000081713, 30.216993999866418],
            [-97.83422799988297, 30.216863999986433],
            [-97.834082000293108, 30.216588000209125],
            [-97.833088000058169, 30.21538399975195],
            [-97.832002999586663, 30.21449899994721],
            [-97.831042999686929, 30.214023999628573],
            [-97.830498999713797, 30.213730999827906],
            [-97.830345999552918, 30.213688999806227],
            [-97.830877000005572, 30.212890999868399],
            [-97.830955999648296, 30.212754000188266],
            [-97.831845000301243, 30.211336000374626],
            [-97.831933999989673, 30.211208999639567],
            [-97.832041999944721, 30.211026000046374],
            [-97.832242999786175, 30.210759999797521],
            [-97.832579000245161, 30.210377999641572],
            [-97.833381999786042, 30.209329999654756],
            [-97.833420000319194, 30.209278000330698],
            [-97.834898000252807, 30.206990999687338],
            [-97.835590000363936, 30.205863000126438],
            [-97.836127999590943, 30.204978000088261],
            [-97.836645999624821, 30.204128999615413],
            [-97.837089000213922, 30.203389999628854],
            [-97.837310999971763, 30.203053000172503],
            [-97.837568999714634, 30.202592999987647],
            [-97.837965000448065, 30.201942000038674],
            [-97.838424000032376, 30.201222000326108]
          ]
        ]
      },
      "properties": {
        "AREALAND": "92144751",
        "AREAWATER": "252516",
        "BASENAME": "49",
        "CENTLAT": "+30.2953482",
        "CENTLON": "-097.7557976",
        "FUNCSTAT": "N",
        "GEOID": "48049",
        "HU100": null,
        "INTPTLAT": "+30.2943871",
        "INTPTLON": "-097.7562946",
        "LDTYP": "O",
        "LSADC": "LL",
        "LSY": "2024",
        "MTFCC": "G5220",
        "NAME": "State House District 49",
        "OBJECTID": 2129,
        "OID": "2139035951823815",
        "POP100": null,
        "SLDL": "049",
        "STATE": "48"
      }
    }
  ]
}
