{
  "type": "FeatureCollection",
  "features": [
    {
      "type": "Feature",
      "id": 4656,
      "geometry": {
        "type": "Polygon",
        "coordinates": [
          [
            [-84.574742999712726, 38.105886000028107],
            [-84.575326999868835, 38.105030999812307],
            [-84.574106999678094, 38.104238999725652],
            [-84.573551000009402, 38.103870999805707],
            [-84.573289999893504, 38.103701000323184],
            [-84.572632000117551, 38.103273000223737],
            [-84.572515999766608, 38.103192999986504],
            [-84.572228999711427, 38.102997000342782],
            [-84.571876000432326, 38.102742999935757],
            [-84.571399000406345, 38.102380000109036],
            [-84.570943000296765, 38.102008999947387],
            [-84.570669999586968, 38.101774999924665],
            [-84.570421999889874, 38.101555000029428],
            [-84.568165999631418, 38.099510000250959],
            [-84.567262999633073, 38.098683999981894],
            [-84.567179999792415, 38.098608000181287],
            [-84.566941000316135, 38.098378999997308],
            [-84.566512999795634, 38.097959000218182],
            [-84.566189999755451, 38.097641000143078],
            [-84.566039999967614, 38.09749399989412],
            [-84.566092999671071, 38.097449999935229],
            [-84.566120000333555, 38.097400000142571],
            [-84.566125000356436, 38.097360000001025],
            [-84.566106999914766, 38.0972849998534],
            [-84.566066999731788, 38.097205000129534],
            [-84.566003999982598, 38.097098000017283],
            [-84.565920000317021, 38.096975000170417],
            [-84.565866999715269, 38.096912999651856],
            [-84.565141999992164, 38.095949000124044],
            [-84.563565000324374, 38.093930000106582],
            [-84.563447000323592, 38.093817000046769],
            [-84.563012999955333, 38.093459000174143],
            [-84.561458999853755, 38.092268000159983],
            [-84.561377999662895, 38.092190999657419],
            [-84.561326999609278, 38.092120000021872],
            [-84.561278000103783, 38.092040999987908],
            [-84.561246000316729, 38.091954999925427],
            [-84.561213999631363, 38.091829999818614],
            [-84.561180000194497, 38.091728000195197],
            [-84.5611390001866, 38.091638000284561],
            [-84.561088999957903, 38.091576000187359],
            [-84.561025000383808, 38.091539999878734],
            [-84.560956999713412, 38.091528999702341],
            [-84.560895999614047, 38.091527000312837],
            [-84.560836000237913, 38.091544000071039],
            [-84.56074800037436, 38.091590999839411],
            [-84.560504999801793, 38.091737999942787],
            [-84.5603850001512, 38.091831000216196],
            [-84.560253999731628, 38.091698000237301],
            [-84.559712000306646, 38.091168000129002],
            [-84.559195000097702, 38.090690000009047],
            [-84.559002999578766, 38.090520999971488],
            [-84.558463999628501, 38.090049999988842],
            [-84.55811399982413, 38.08978200023364],
            [-84.557764999844679, 38.089501000276705],
            [-84.557336000397598, 38.089175999955557],
            [-84.556849000325883, 38.088823999781255],
            [-84.556580999638967, 38.088635999773089],
            [-84.556434000224186, 38.088531999756434],
            [-84.558022999587536, 38.086617999722669],
            [-84.559020000195517, 38.085417999832735],
            [-84.560596999863293, 38.086082000226185],
            [-84.561376999837989, 38.085143000177233],
            [-84.563155000245544, 38.083012000076863],
            [-84.562751000014515, 38.08292399966642],
            [-84.562516999662762, 38.082869000063134],
            [-84.562232000155731, 38.082792000266267],
            [-84.561905999742507, 38.082685000266935],
            [-84.561673000113998, 38.082597000169969],
            [-84.561042000102233, 38.082340000108104],
            [-84.559927000391809, 38.081859000057619],
            [-84.559315999573201, 38.081608999750458],
            [-84.558745999660829, 38.081393000001668],
            [-84.5583990002295, 38.081270999724076],
            [-84.557347000268265, 38.080889000227771],
            [-84.55702800042603, 38.08076199989948],
            [-84.556876000090057, 38.080689999927237],
            [-84.556719999556123, 38.080609999717765],
            [-84.556425999828264, 38.080437000326633],
            [-84.556213000291237, 38.080296999771797],
            [-84.556060000130358, 38.080179999743933],
            [-84.555628000310236, 38.079794000077086],
            [-84.555249000193541, 38.079399000334725],
            [-84.555132000017679, 38.079278000128156],
            [-84.554961000313469, 38.079083999718065],
            [-84.554718999565807, 38.078807999705703],
            [-84.554454999975164, 38.078489999752662],
            [-84.554096999774885, 38.078025000027012],
            [-84.55350000009831, 38.0772250001949],
            [-84.553300000081748, 38.076970000132711],
            [-84.553079000148827, 38.076700999910379],
            [-84.552829999728473, 38.076414999669232],
            [-84.55245800018281, 38.076019000154339],
            [-84.552228000029032, 38.075796999991852],
            [-84.552005000446272, 38.075581999959851],
            [-84.551771000094533, 38.075366000087243],
            [-84.55042500040544, 38.076454999958187],
            [-84.5484389995854, 38.077867999698313],
            [-84.547749000022421, 38.078358000126521],
            [-84.546117000103038, 38.079527000060644],
            [-84.545265999983243, 38.08013599996908],
            [-84.542787999966947, 38.078404000012576],
            [-84.541870999724921, 38.077763000038047],
            [-84.541284000094095, 38.077362999782864],
            [-84.540351999783454, 38.07671499988853],
            [-84.539637999931003, 38.076251000094544],
            [-84.539299999822191, 38.076027000115722],
            [-84.538551999634592, 38.075566999851837],
            [-84.538175000066019, 38.075345999647716],
            [-84.537482999954889, 38.074961999765442],
            [-84.536087000037071, 38.074080000225202],
            [-84.535393000276102, 38.073640999881128],
            [-84.535035999900728, 38.073415999745009],
            [-84.534091000069623, 38.072799000135667],
            [-84.533090000162005, 38.072144999647037],
            [-84.532014999736219, 38.071442999745784],
            [-84.531117999585689, 38.070801000308848],
            [-84.529186999915552, 38.072481000219753],
            [-84.528612999805205, 38.072992000297809],
            [-84.528447999948753, 38.07313000009411],
            [-84.527883999884153, 38.073619999737417],
            [-84.527600000202028, 38.073839000333521],
            [-84.527406999858187, 38.073976999946112],
            [-84.527185999925237, 38.074118999736882],
            [-84.526479999570384, 38.074522999765144],
            [-84.526113999872507, 38.074689000236106],
            [-84.525568000249564, 38.074890999662095],
            [-84.525287999867075, 38.07497799991863],
            [-84.524707000084035, 38.075130999704186],
            [-84.524315000446862, 38.075199999738459],
            [-84.523891000124337, 38.07525999974613],
            [-84.523455999931159, 38.075296000292845],
            [-84.523014000065274, 38.075309999832783],
            [-84.522650000017208, 38.075299000042939],
            [-84.521228000160107, 38.075191999686616],
            [-84.520203999787952, 38.075103999765297],
            [-84.51844700019511, 38.07495199984465],
            [-84.51837100002713, 38.074946000315869],
            [-84.518362999631208, 38.07488300028357],
            [-84.518356999783435, 38.074822000043469],
            [-84.518345999912768, 38.074720000026765],
            [-84.51825999969904, 38.074152000341044],
            [-84.518217000041346, 38.073864000159666],
            [-84.518121999606777, 38.073290999763195],
            [-84.518104999888351, 38.073187999787315],
            [-84.518078000124177, 38.073007000226745],
            [-84.5180379999412, 38.072733999764907],
            [-84.517821000206226, 38.071409000071121],
            [-84.517730999794523, 38.070810000111891],
            [-84.517643999755904, 38.070277999952552],
            [-84.51758400037977, 38.069832000187468],
            [-84.517529999953084, 38.069514000102437],
            [-84.517463000005932, 38.06907699993878],
            [-84.517314000043015, 38.068111999671331],
            [-84.517196000042233, 38.067408999939204],
            [-84.517129000095082, 38.066947999902055],
            [-84.517073999843504, 38.06664499982967],
            [-84.517001999873486, 38.066143000346393],
            [-84.51674599978044, 38.064523000191592],
            [-84.516174000218228, 38.06090099985807],
            [-84.515753000268745, 38.060642999827024],
            [-84.514663999599264, 38.059928999785598],
            [-84.514404000206582, 38.059755000152194],
            [-84.514117000151415, 38.059575000022917],
            [-84.513743000057588, 38.059333000306538],
            [-84.513163000099453, 38.058941000120122],
            [-84.512901999983541, 38.058763999831442],
            [-84.511518999586201, 38.057850000203032],
            [-84.510454000104488, 38.057186000238907],
            [-84.510073000337954, 38.056955000123587],
            [-84.509629999748867, 38.056680000248214],
            [-84.50919999957857, 38.056418999665375],
            [-84.507412999848469, 38.055241000064107],
            [-84.507376999863453, 38.05521799991498],
            [-84.507114999922635, 38.0550559998902],
            [-84.506472000215325, 38.054655999961327],
            [-84.506247999909334, 38.054516999776574],
            [-84.506017999755557, 38.054366999927367],
            [-84.505799000370757, 38.054203999936064],
            [-84.505749000142032, 38.054165999916322],
            [-84.50434300017848, 38.052915000181834],
            [-84.503092999850509, 38.051797999749262],
            [-84.503911000358343, 38.051221999806465],
            [-84.504867999885022, 38.050548000119178],
            [-84.505400999987501, 38.050167999860385],
            [-84.506339999970848, 38.05048799965099],
            [-84.506534999964515, 38.050546999864224],
            [-84.506981999853252, 38.050665999693912],
            [-84.50714699970969, 38.050690999657355],
            [-84.507231000273606, 38.050691999910384],
            [-84.507579000428137, 38.05067699965057],
            [-84.508807000116477, 38.050587000149534],
            [-84.509360000310437, 38.050587000149534],
            [-84.509735000229171, 38.050596999863799],
            [-84.509813000046961, 38.050599999919257],
            [-84.509975000428668, 38.050604000228823],
            [-84.510059999919179, 38.050601000173543],
            [-84.510249000065073, 38.050595000062529],
            [-84.511033000237717, 38.0505639999528],
            [-84.512122999833778, 38.050495000026494],
            [-84.512410999713865, 38.050473000056826],
            [-84.513219000175951, 38.05041899965309],
            [-84.513319999559982, 38.050411999977733],
            [-84.51361099981311, 38.050394000304159],
            [-84.513819000225567, 38.050375999918771],
            [-84.513986999556749, 38.050361999851795],
            [-84.514403000381677, 38.050316000017013],
            [-84.514856000118215, 38.050251999737434],
            [-84.515174000135517, 38.050197999878087],
            [-84.515488999779791, 38.050140999904698],
            [-84.515795999926453, 38.050098000007132],
            [-84.516237999792324, 38.05007299984117],
            [-84.516380000082549, 38.05007299984117],
            [-84.516339000074666, 38.049873000328496],
            [-84.516736999559612, 38.049814000279497],
            [-84.516407999671642, 38.048383999954858],
            [-84.517540999823737, 38.048253000054629],
            [-84.51761199996885, 38.048246000172156],
            [-84.517432000043797, 38.047411999885504],
            [-84.517288000103761, 38.046922000160187],
            [-84.517057000125078, 38.046179000041619],
            [-84.516691000427159, 38.045004000052593],
            [-84.51490200014895, 38.043220000235948],
            [-84.512501000125553, 38.040897000170936],
            [-84.512267999598734, 38.040677000341354],
            [-84.511712999754963, 38.040978000330846],
            [-84.510324000408133, 38.041732000053351],
            [-84.510337999753517, 38.041776999954571],
            [-84.510465999800033, 38.042146999744524],
            [-84.510376000286684, 38.042188999698119],
            [-84.50907300025527, 38.042797000202093],
            [-84.508135000096829, 38.043228000246444],
            [-84.507443999810604, 38.043650999912785],
            [-84.507304999893449, 38.043743999787679],
            [-84.507134000189211, 38.043859000093441],
            [-84.506801999928186, 38.044081999882501],
            [-84.506098999946417, 38.044566000323748],
            [-84.505190000100313, 38.04519699995911],
            [-84.504135999590915, 38.045934999964224],
            [-84.501655999924807, 38.047700999789889],
            [-84.500730000360264, 38.048345000165675],
            [-84.49980100042265, 38.047499000277853],
            [-84.499524000413231, 38.047212999770316],
            [-84.499371000252353, 38.047048000220904],
            [-84.499280999840664, 38.046943999782194],
            [-84.499155000342284, 38.04681500003948],
            [-84.498854999868328, 38.046526000174758],
            [-84.498404999606521, 38.046126999930976],
            [-84.49805599962707, 38.045809000110367],
            [-84.498012999969362, 38.045763999857336],
            [-84.497978999634185, 38.045719999897628],
            [-84.497940999999344, 38.045670000104245],
            [-84.497925000105809, 38.045639000031272],
            [-84.497910000037209, 38.045591999735812],
            [-84.497905999839247, 38.045537999976297],
            [-84.497865999656284, 38.045419999917677],
            [-84.497806000280136, 38.045317999941602],
            [-84.497721999716234, 38.045200999856462],
            [-84.497526999722552, 38.04501700010627],
            [-84.496688000196642, 38.044263000252457],
            [-84.496208999622525, 38.043833000280053],
            [-84.495897000351306, 38.043551000295878],
            [-84.495220000308791, 38.04295000007496],
            [-84.494250000363323, 38.042077000004149],
            [-84.494159999951634, 38.042003000124957],
            [-84.494017999661423, 38.041908000122639],
            [-84.493867000048681, 38.041829000324803],
            [-84.493529999764775, 38.04166399996155],
            [-84.493188000356326, 38.041498999933999],
            [-84.492903999775905, 38.04136500001534],
            [-84.492213000387977, 38.041036999718372],
            [-84.491944999701076, 38.040923000319353],
            [-84.491844000317045, 38.040893000038402],
            [-84.491736000361996, 38.04087399975981],
            [-84.491614999988187, 38.040864999812278],
            [-84.491487999766576, 38.040870000333527],
            [-84.491375999613581, 38.040893999717809],
            [-84.491265000183816, 38.040924999677323],
            [-84.491092999756376, 38.041001000001813],
            [-84.491002000418078, 38.041057000339343],
            [-84.490895000287964, 38.041119000107194],
            [-84.490798000203583, 38.041156000149066],
            [-84.490685000225682, 38.041186999997663],
            [-84.490497999729612, 38.041219999890558],
            [-84.489689000340931, 38.041321000242],
            [-84.4888840002519, 38.041442999934489],
            [-84.488004999644716, 38.041623999753149],
            [-84.487802999978342, 38.041659999870916],
            [-84.487217999997327, 38.041747999691246],
            [-84.486138000446999, 38.041882000323966],
            [-84.484975000157675, 38.042028999880671],
            [-84.484674999683705, 38.042070000238674],
            [-84.48212100039774, 38.042392000077562],
            [-84.481704999572813, 38.042439000304732],
            [-84.481431999761327, 38.042294000184206],
            [-84.481250000186463, 38.042194000128944],
            [-84.48062300037266, 38.041849000021976],
            [-84.48018399998152, 38.041608000088225],
            [-84.47982099975836, 38.041421999746753],
            [-84.479573999886156, 38.041339999697172],
            [-84.479337999884592, 38.041267999836791],
            [-84.479075999943774, 38.041208000252787],
            [-84.478884000323163, 38.041169000178442],
            [-84.478670999887825, 38.04113499987902],
            [-84.478460000000638, 38.041115999663219],
            [-84.478172000120537, 38.041101000271318],
            [-84.477843000232568, 38.0410950000892],
            [-84.477535000261, 38.041110999866277],
            [-84.475398999653152, 38.041291999798133],
            [-84.474882000342504, 38.041338000350535],
            [-84.474524000142239, 38.041369999794988],
            [-84.47312200037662, 38.041494000163155],
            [-84.471798000428805, 38.041608000088225],
            [-84.471696000321572, 38.04161600027485],
            [-84.470579999887903, 38.041702000103854],
            [-84.470635000139495, 38.042206000312568],
            [-84.470660000253844, 38.042485999794238],
            [-84.470668999576361, 38.042674000280599],
            [-84.470798000346107, 38.043972000236394],
            [-84.4708109998666, 38.044042000287583],
            [-84.470872999790856, 38.044250999698484],
            [-84.470926000392623, 38.044388000305396],
            [-84.470942000286144, 38.044429999681029],
            [-84.47097800027116, 38.044498999664178],
            [-84.471036999822388, 38.044595999807321],
            [-84.471211999724588, 38.04485100022702],
            [-84.471363000235641, 38.045022999967003],
            [-84.47145000027426, 38.045107000088002],
            [-84.471481000236409, 38.045137000057316],
            [-84.471612999582561, 38.045250000350265],
            [-84.471692999948516, 38.045310000159404],
            [-84.471901000360972, 38.045464999674678],
            [-84.47302799976697, 38.046278000000569],
            [-84.473636000212508, 38.046739999689706],
            [-84.474411000164324, 38.047330000177269],
            [-84.475460999577422, 38.048113999736678],
            [-84.476547999698766, 38.048911999736092],
            [-84.475103000275453, 38.049790000281902],
            [-84.474469999715552, 38.05019700032571],
            [-84.474217999820468, 38.050358999786532],
            [-84.473769000281905, 38.050657000242637],
            [-84.474233999714002, 38.050998999835961],
            [-84.473758000411237, 38.051328000315564],
            [-84.474150000048411, 38.051681000116638],
            [-84.472466000250506, 38.052767000328387],
            [-84.472956999621871, 38.053256999835988],
            [-84.473031000140026, 38.053321999827361],
            [-84.473081000368737, 38.053350999750528],
            [-84.473140999744871, 38.053370999837163],
            [-84.473200000194424, 38.053379000153221],
            [-84.473238999654171, 38.053376000211657],
            [-84.473288999882897, 38.053366000169703],
            [-84.47342000030244, 38.053300000000014],
            [-84.474549000256573, 38.052663000233188],
            [-84.474879999794382, 38.052470999723681],
            [-84.475047000198956, 38.052368000145492],
            [-84.475514000179189, 38.052039000096002],
            [-84.478740000383127, 38.054891000334742],
            [-84.477819999768045, 38.05553700007696],
            [-84.477777999935242, 38.055571000054357],
            [-84.477751999995974, 38.055603999830105],
            [-84.477637000368247, 38.056028999791664],
            [-84.477495999902928, 38.056079000290644],
            [-84.476679000118338, 38.056338000319634],
            [-84.475927999557669, 38.056576000054321],
            [-84.478922999782895, 38.05912900008186],
            [-84.478279000250666, 38.059583999792345],
            [-84.481016999659644, 38.062070000130689],
            [-84.48316400013816, 38.060604000203725],
            [-84.484338000298123, 38.05979199997067],
            [-84.484500999606439, 38.059942000018012],
            [-84.48461299975942, 38.060078000134688],
            [-84.484728000285472, 38.060257999734056],
            [-84.484790000209742, 38.060410999894131],
            [-84.484842999913198, 38.06056399973432],
            [-84.484893999966815, 38.060690999770074],
            [-84.484931999601656, 38.060811000197276],
            [-84.485010000317772, 38.061010000124242],
            [-84.485059999648172, 38.061098000025972],
            [-84.484892000316989, 38.061272000002447],
            [-84.484861000354854, 38.061331000010249],
            [-84.484794000407703, 38.061516999987305],
            [-84.484758000422687, 38.061654000109151],
            [-84.484714000041762, 38.061893000337456],
            [-84.484673000033879, 38.062165000138819],
            [-84.484606999911634, 38.062731000072773],
            [-84.484591000018128, 38.062910000132852],
            [-84.484546999637189, 38.063132999883443],
            [-84.484392999651405, 38.063713999822284],
            [-84.484021000105713, 38.064901000064879],
            [-84.483882000188544, 38.065320000173791],
            [-84.483831999959847, 38.065469000154003],
            [-84.483800000172792, 38.065566000092026],
            [-84.483795999974831, 38.065576999931032],
            [-84.483744000096294, 38.065764999817425],
            [-84.483570000019014, 38.066283999746084],
            [-84.483544999904652, 38.066358999872804],
            [-84.483467999911767, 38.066554000125429],
            [-84.48339900031479, 38.066704999782594],
            [-84.483318000123944, 38.06680999975864],
            [-84.483224000412605, 38.066894000338202],
            [-84.482961999573462, 38.067068999998163],
            [-84.481824000296825, 38.067809000176567],
            [-84.481727000212445, 38.06786899988203],
            [-84.480210999745694, 38.068804999666234],
            [-84.478302999641798, 38.070003999924289],
            [-84.478130000287749, 38.070115000041376],
            [-84.477993000020405, 38.070203000307522],
            [-84.476966000173519, 38.070863000343834],
            [-84.476852000370698, 38.070954000345694],
            [-84.476185000373917, 38.071447000330473],
            [-84.475894999945709, 38.071701999847924],
            [-84.475684999883427, 38.071912000155827],
            [-84.475619999586087, 38.071977999804787],
            [-84.475345999949695, 38.072287000165787],
            [-84.475200000359834, 38.072463000316596],
            [-84.475093000229705, 38.072609999985353],
            [-84.47487200029677, 38.072988999745903],
            [-84.474569000348083, 38.073591000067843],
            [-84.474457000195088, 38.073804999651088],
            [-84.474300999661153, 38.074106999834981],
            [-84.473888999932512, 38.074868999954724],
            [-84.473575999938063, 38.075450999949531],
            [-84.473313999997231, 38.075874999991974],
            [-84.473228999608409, 38.076010000285066],
            [-84.473144999942832, 38.076120999773671],
            [-84.47295199959899, 38.076404000045585],
            [-84.472655000396387, 38.076790999824162],
            [-84.472561999611642, 38.076892999781101],
            [-84.472356999572241, 38.077122000102101],
            [-84.471975999805721, 38.077561000058878],
            [-84.471969000133029, 38.07756899985165],
            [-84.471593000389404, 38.078031000010363],
            [-84.471419000312125, 38.078266000267583],
            [-84.471191999633092, 38.078560999897682],
            [-84.469089000433826, 38.076741000042908],
            [-84.468701000096303, 38.077011999904634],
            [-84.467389999668995, 38.077938999740091],
            [-84.46702599962093, 38.077619999658921],
            [-84.466157999782695, 38.078216999957313],
            [-84.465845999613151, 38.077901000025079],
            [-84.465695000000423, 38.077757000032712],
            [-84.465563999580837, 38.077649999736913],
            [-84.465427000211818, 38.077560000173101],
            [-84.465286999571433, 38.077486000103093],
            [-84.465156000050172, 38.077430999945257],
            [-84.465033000026509, 38.077386999930596],
            [-84.464863000147218, 38.077340000223202],
            [-84.464746999796247, 38.077318999727297],
            [-84.464605000404347, 38.07730700035043],
            [-84.464494000076272, 38.077303999975541],
            [-84.464482000380684, 38.077851000295588],
            [-84.464494999901177, 38.078014999817952],
            [-84.464540000107021, 38.078141999967215],
            [-84.464586000137771, 38.078234999858658],
            [-84.464655999559639, 38.078325999881244],
            [-84.46473900029865, 38.078409000090652],
            [-84.464819999591185, 38.078473999660673],
            [-84.466539000447526, 38.079668999682241],
            [-84.466684000212481, 38.079769000156652],
            [-84.46696299987174, 38.079963000163659],
            [-84.466669999968772, 38.080212999734478],
            [-84.466601000371782, 38.080272999871973],
            [-84.466181000247218, 38.079972000253548],
            [-84.466095000033491, 38.080045000077497],
            [-84.464598999658236, 38.078849999836258],
            [-84.463218999633938, 38.077676000265967],
            [-84.46175900014201, 38.076345000171749],
            [-84.46141199981237, 38.076025000302266],
            [-84.461299999659389, 38.075922999841879],
            [-84.461190999879449, 38.07582399967491],
            [-84.459862999733673, 38.074624000130669],
            [-84.459783000266057, 38.074669000318629],
            [-84.459472999746353, 38.074844999687834],
            [-84.459006999591026, 38.075118999968318],
            [-84.458737000152581, 38.075276999751125],
            [-84.459594000120163, 38.076229999993075],
            [-84.458389999822955, 38.077012999797901],
            [-84.457686999841172, 38.076281000026967],
            [-84.456947999874373, 38.075511999665068],
            [-84.456868000406743, 38.075573999949789],
            [-84.456145000333478, 38.075975999904713],
            [-84.456029999807441, 38.076043999942442],
            [-84.455943999593714, 38.076096000011844],
            [-84.456100999952554, 38.07628399973671],
            [-84.456253000288513, 38.076480000304407],
            [-84.456871999706379, 38.077285999845046],
            [-84.457351000280511, 38.077955999829449],
            [-84.457761000359341, 38.078530000320889],
            [-84.459881000175344, 38.081607999920031],
            [-84.459953999970267, 38.08171100005822],
            [-84.460046999856687, 38.081842999995679],
            [-84.460385999790404, 38.082320000161744],
            [-84.460794000219408, 38.082884999900564],
            [-84.460891000303789, 38.083011000265607],
            [-84.46174599972322, 38.084118999793766],
            [-84.461863999723988, 38.084272000252838],
            [-84.462011999861986, 38.084464000043184],
            [-84.463372999619736, 38.086015999871329],
            [-84.463947999555003, 38.086587999788712],
            [-84.464924000246569, 38.087559999871097],
            [-84.465105999821461, 38.087722999789236],
            [-84.46579799993259, 38.088340000043971],
            [-84.466401000355262, 38.088878999853947],
            [-84.466521000005841, 38.088985999979585],
            [-84.468227000443378, 38.090343000024056],
            [-84.469823000377758, 38.091513000342644],
            [-84.472513999931067, 38.093256000053834],
            [-84.474346999691903, 38.094272999987545],
            [-84.474673999930047, 38.094453999933364],
            [-84.475229999598739, 38.094730000269088],
            [-84.476106999657802, 38.095166000202241],
            [-84.47692400034073, 38.095571999873478],
            [-84.477623999949444, 38.095918999777759],
            [-84.480389999845841, 38.097295000254562],
            [-84.481298999691958, 38.097748000167229],
            [-84.485186000044862, 38.099684000041407],
            [-84.485410000350839, 38.099792999772184],
            [-84.485592999750651, 38.099881999957105],
            [-84.486007999852333, 38.10008300019031],
            [-84.489342000011305, 38.101728000343286],
            [-84.492907000148946, 38.103486999879969],
            [-84.493316000402857, 38.103689000328139],
            [-84.499240999657701, 38.106611999796392],
            [-84.499351999985777, 38.106666999913216],
            [-84.500087999579534, 38.107030000352772],
            [-84.507047999975484, 38.110525999769031],
            [-84.507352999574024, 38.110670999672458],
            [-84.508011000248274, 38.110984000320514],
            [-84.50842799999981, 38.111182000006266],
            [-84.508932999614871, 38.111421999655413],
            [-84.511085999941159, 38.112300999986395],
            [-84.5112309997061, 38.11235999982037],
            [-84.513077999710632, 38.112987000250392],
            [-84.51559599990992, 38.113729000278127],
            [-84.517782999673074, 38.114268000132164],
            [-84.520173999650737, 38.114764000198221],
            [-84.520567000011127, 38.114839000073175],
            [-84.52089000005131, 38.114902999679423],
            [-84.52085999991408, 38.114774000327344],
            [-84.520833999974812, 38.114662000075036],
            [-84.522079000279902, 38.11490900016971],
            [-84.522838000338183, 38.115060000331191],
            [-84.523656999772612, 38.115244999981819],
            [-84.524958999979091, 38.115578000150869],
            [-84.525372000430977, 38.115693999988999],
            [-84.525942000343377, 38.115863999833238],
            [-84.526319999736842, 38.11597200009416],
            [-84.526683999784908, 38.11607599993264],
            [-84.528032000022165, 38.116519000127361],
            [-84.528360000085215, 38.116634999884312],
            [-84.528335999795772, 38.116477999791421],
            [-84.528001999884921, 38.114288999908268],
            [-84.52793400011285, 38.113807000092727],
            [-84.527841000226445, 38.11331400019909],
            [-84.527792999647559, 38.112981999710286],
            [-84.527668999799005, 38.112435000043618],
            [-84.527585000133399, 38.112114999826595],
            [-84.527524000034049, 38.111902000121972],
            [-84.527674999646777, 38.111671999776696],
            [-84.527915999671208, 38.112535000221499],
            [-84.528187999657746, 38.113812999966264],
            [-84.528411999963751, 38.114963999693657],
            [-84.528540000010281, 38.115762999902827],
            [-84.528571999797322, 38.116337999712002],
            [-84.528605000307593, 38.116465999774945],
            [-84.52915099993055, 38.116672999959654],
            [-84.533229000079174, 38.118220999794104],
            [-84.536477999849311, 38.11941700022026],
            [-84.539166999752823, 38.120421999915784],
            [-84.540798999672191, 38.121076000319498],
            [-84.541854999831386, 38.121538999684262],
            [-84.543055999755552, 38.12205000030206],
            [-84.54471899963707, 38.122798999933828],
            [-84.545216999579438, 38.121823000074933],
            [-84.546322000142439, 38.119740000292595],
            [-84.547938000168301, 38.116840000186315],
            [-84.546241999776498, 38.116198000070916],
            [-84.547648999564984, 38.113670000136494],
            [-84.549170000054602, 38.110942000275358],
            [-84.549235000351928, 38.110864999658581],
            [-84.549334999911025, 38.110891999819842],
            [-84.549750000012736, 38.110980999914233],
            [-84.549792999670444, 38.110989000290644],
            [-84.551175000242878, 38.111241000037303],
            [-84.551786999988082, 38.111362000347185],
            [-84.551947999646544, 38.111394000267119],
            [-84.55271000007788, 38.111544999920945],
            [-84.55461700035687, 38.111909999690745],
            [-84.556557000247821, 38.112280999756344],
            [-84.557213000373935, 38.112407000336781],
            [-84.557303999712232, 38.112433999928029],
            [-84.557399999971693, 38.112480000281927],
            [-84.557528000018209, 38.112566000220561],
            [-84.559108999883975, 38.110783999821763],
            [-84.56265399993012, 38.106771999764256],
            [-84.562930999939567, 38.10673299999879],
            [-84.564820999601793, 38.107737000180776],
            [-84.565090000113628, 38.107405999973359],
            [-84.565362999925114, 38.107014000145519],
            [-84.566353999786983, 38.107469999731109],
            [-84.570964000213166, 38.109803999922967],
            [-84.571174000275434, 38.109585000327087],
            [-84.574742999712726, 38.105886000028107]
          ]
        ]
      },
      "properties": {
        "AREALAND": "43613731",
        "AREAWATER": "65804",
        "BASENAME": "77",
        "CENTLAT": "+38.0843983",
        "CENTLON": "-084.5134053",
        "FUNCSTAT": "N",
        "GEOID": "21077",
        "HU100": null,
        "INTPTLAT": "+38.0799458",
        "INTPTLON": "-084.5133684",
        "LDTYP": "O",
        "LSADC": "LL",
        "LSY": "2024",
        "MTFCC": "G5220",
        "NAME": "State House District 77",
        "OBJECTID": 4656,
        "OID": "2139035951825735",
        "POP100": null,
        "SLDL": "077",
        "STATE": "21"
      }
    }
  ]
}
